{
  "version": 0.6,
  "generator": "Overpass API 0.7.56.8 7d656e78",
  "osm3s": {
    "timestamp_osm_base": "2021-01-15T10:32:03Z",
    "timestamp_areas_base": "2021-01-15T09:49:02Z",
    "copyright": "The data included in this document is from www.openstreetmap.org. The data is made available under ODbL."
  },
  "elements": [

{
  "type": "node",
  "id": 425893119,
  "lat": 49.5909625,
  "lon": 11.0055867,
  "tags": {
    "addr:city": "Erlangen",
    "addr:country": "DE",
    "addr:housenumber": "1",
    "addr:postcode": "91052",
    "addr:street": "Sedanstraße",
    "description": "im ehemaligen Intersport Eisert. Erlangen",
    "healthcare": "centre",
    "healthcare:speciality": "vaccination",
    "name": "Impfzentrum Stadt Erlangen und Landkreis Erlangen-Höchstadt",
    "vaccination": "covid19",
    "wheelchair": "yes"
  }
},
{
  "type": "node",
  "id": 1069373218,
  "lat": 50.8004015,
  "lon": 10.3009825,
  "tags": {
    "addr:city": "Barchfeld-Immelborn",
    "addr:country": "DE",
    "addr:housenumber": "15",
    "addr:postcode": "36456",
    "addr:street": "Liebensteiner Straße",
    "description": "in der ehemaligen Praxis Internist Dr. Konrad Lössl, Barchfeld",
    "healthcare": "centre",
    "healthcare:speciality": "vaccination",
    "name": "Impfzentrum Wartburgkreis - Barchfeld",
    "vaccination": "covid19",
    "wheelchair": "yes"
  }
},
{
  "type": "node",
  "id": 1226842043,
  "lat": 48.1623674,
  "lon": 11.2225291,
  "tags": {
    "addr:city": "Fürstenfeldbruck",
    "addr:housenumber": "1",
    "addr:postcode": "82256",
    "addr:street": "Industriestraße",
    "healthcare": "centre",
    "healthcare:speciality": "vaccination",
    "name": "Impfzentrum Landkreis Fürstenfeldbruck",
    "old_name": "Aldi",
    "operator": "Bayerisches Rotes Kreuz",
    "phone": "+49 8141 400450",
    "vaccination": "covid19",
    "website": "https://www.brk-ffb.de/aktuelles/spalte-3/impfzentrum/impfzentrum.html"
  }
},
{
  "type": "node",
  "id": 1359324528,
  "lat": 48.8580158,
  "lon": 10.4957050,
  "tags": {
    "addr:city": "Nördlingen",
    "addr:housenumber": "17",
    "addr:postcode": "86720",
    "addr:street": "Nürnberger Straße",
    "healthcare": "centre",
    "healthcare:speciality": "vaccination",
    "name": "COVID-19 Impfzentrum LK Donau-Ries - Nördlingen",
    "vaccination": "covid19"
  }
},
{
  "type": "node",
  "id": 1393705743,
  "lat": 53.5133119,
  "lon": 10.2491832,
  "tags": {
    "addr:city": "Reinbek",
    "addr:country": "DE",
    "addr:housenumber": "7",
    "addr:postcode": "21465",
    "addr:street": "Schulstraße",
    "healthcare": "centre",
    "healthcare:speciality": "vaccination",
    "name": "Impfzentrum Süd Reinbek",
    "vaccination": "covid19"
  }
},
{
  "type": "node",
  "id": 1693733332,
  "lat": 49.1838244,
  "lon": 12.8598465,
  "tags": {
    "addr:city": "Bad Kötzting",
    "addr:country": "DE",
    "addr:housenumber": "42",
    "addr:postcode": "93444",
    "addr:street": "Hauser Straße",
    "healthcare": "centre",
    "healthcare:speciality": "vaccination",
    "name": "Covid-19 | Impfzentrum Landkreis Cham | Sana-Klink Bad Kötzting",
    "temporary": "yes",
    "vaccination": "covid19"
  }
},
{
  "type": "node",
  "id": 2337458107,
  "lat": 50.2115311,
  "lon": 8.6474263,
  "tags": {
    "addr:city": "Bad Homburg v.d. Höhe",
    "addr:country": "DE",
    "addr:housenumber": "1",
    "addr:postcode": "61352",
    "addr:street": "Am Grünen Weg",
    "healthcare": "centre",
    "healthcare:speciality": "vaccination",
    "name": "Impfzentrum Hochtaunuskreis",
    "opening_hours": "Mo-Su: 7:00-22:00",
    "vaccination": "covid19"
  }
},
{
  "type": "node",
  "id": 3654814633,
  "lat": 51.0667330,
  "lon": 13.7703583,
  "tags": {
    "addr:city": "Dresden",
    "addr:housenumber": "125",
    "addr:postcode": "01099",
    "addr:street": "Bautzner Straße",
    "contact:phone": "+49 351 4888231",
    "contact:website": "http://www.dresden.de/de/leben/gesundheit/impfen.php",
    "healthcare:speciality": "vaccination",
    "name": "Impfstelle",
    "opening_hours": "Tu 09:00-11:00,14:00-17:00; Th 14:00-17:00"
  }
},
{
  "type": "node",
  "id": 3702763046,
  "lat": 50.9932795,
  "lon": 11.0133948,
  "tags": {
    "addr:city": "Erfurt",
    "addr:country": "DE",
    "addr:housenumber": "74",
    "addr:postcode": "99089",
    "addr:street": "Nordhäuser Straße",
    "description": "in der Helios Klinik, Haus 5",
    "entrance": "main",
    "healthcare": "centre",
    "healthcare:speciality": "vaccination",
    "name": "Impfzentrum Stadt Erfurt Nord",
    "vaccination": "covid19",
    "wheelchair": "yes"
  }
},
{
  "type": "node",
  "id": 4668455179,
  "lat": 52.2602120,
  "lon": 9.0494494,
  "tags": {
    "amenity": "doctors",
    "contact:phone": "+49 5722 5050",
    "healthcare": "doctor",
    "healthcare:speciality": "vaccination",
    "name": "Praxisgemeinschaft Dr. med. U. Richter, Dr. med. A. Schulz, U. Weitkemper",
    "opening_hours": "Mo-Fr 08:00-11:30, Mo,Tu,Th 16:00-18:00"
  }
},
{
  "type": "node",
  "id": 4739941637,
  "lat": 53.5476348,
  "lon": 9.9661523,
  "tags": {
    "addr:city": "Hamburg",
    "addr:country": "DE",
    "addr:housenumber": "4",
    "addr:postcode": "20359",
    "addr:street": "Zirkusweg",
    "healthcare": "centre",
    "healthcare:speciality": "vaccination",
    "name": "Impfzentrum",
    "note": "Das ist nicht das temporäre Covid Impfzentrum, sondern eine dauerhafte Einrichtung für Reiseimpfungen",
    "opening_hours": "Mo,We,Th 11:00-18:30, Tu,Fr 11:00-14:00",
    "website": "http://www.impfcentrum.de/"
  }
},
{
  "type": "node",
  "id": 5026992629,
  "lat": 53.3064755,
  "lon": 7.5890992,
  "tags": {
    "addr:city": "Hesel",
    "addr:country": "DE",
    "addr:housenumber": "6",
    "addr:postcode": "26835",
    "addr:street": "An der Schule",
    "description": "in der ehemaligen Wilhelm-Busch-Förderschule, Hesel",
    "healthcare": "centre",
    "healthcare:speciality": "vaccination",
    "name": "Impfzentrum Landkreis Leer",
    "vaccination": "covid19"
  }
},
{
  "type": "node",
  "id": 6394805986,
  "lat": 51.1239887,
  "lon": 12.5065586,
  "tags": {
    "addr:city": "Borna",
    "addr:country": "DE",
    "addr:housenumber": "3a",
    "addr:postcode": "04552",
    "addr:street": "Oststraße",
    "disused:shop": "supermarket",
    "healthcare": "centre",
    "healthcare:speciality": "vaccination",
    "name": "Impfzentrum Landkreis Leipzig",
    "vaccination": "covid19"
  }
},
{
  "type": "node",
  "id": 8044340848,
  "lat": 48.1059510,
  "lon": 11.7395321,
  "tags": {
    "alt_name": "Corona/Korona Test Zentrum",
    "healthcare": "test",
    "healthcare:speciality": "vaccination",
    "name": "Covid-19-Testzentrum des Landkreises München",
    "opening_hours": "Mo-Fr 08:00-18:00, Sa-Su 08:00-14:00",
    "operator": "Landkreis München",
    "vaccination": "covid19"
  }
},
{
  "type": "node",
  "id": 8169571146,
  "lat": 51.2492337,
  "lon": 6.3430554,
  "tags": {
    "addr:city": "Viersen",
    "addr:housenumber": "10",
    "addr:postcode": "41751",
    "addr:street": "Heesstraße",
    "amenity": "hospital",
    "healthcare": "centre",
    "healthcare:speciality": "vaccination",
    "name": "Corona Impfzentrum Kreis Viersen",
    "opening_date": "2020-12",
    "temporary": "yes",
    "vaccination": "covid19",
    "website": "http://www.presse-service.de/data.aspx/static/1059369.html"
  }
},
{
  "type": "node",
  "id": 8173004047,
  "lat": 50.5821074,
  "lon": 8.5487123,
  "tags": {
    "addr:city": "Lahnau",
    "addr:housenumber": "2",
    "addr:postcode": "35633",
    "addr:street": "Geraberger Platz",
    "healthcare": "centre",
    "healthcare:speciality": "vaccination",
    "name": "Impfzentrum Lahn-Dill-Kreis",
    "opening_hours": "Mo-Su: 7:00-22:00",
    "vaccination": "covid19"
  }
},
{
  "type": "node",
  "id": 8173016583,
  "lat": 51.1240260,
  "lon": 9.2862819,
  "tags": {
    "fixme": "Genauer Ort unklar",
    "healthcare": "centre",
    "healthcare:speciality": "vaccination",
    "name": "Impfzentrum Schwalm-Eder-Kreis",
    "opening_hours": "Mo-Su: 7:00-22:00",
    "vaccination": "covid19"
  }
},
{
  "type": "node",
  "id": 8173017555,
  "lat": 49.8745287,
  "lon": 8.6577973,
  "tags": {
    "fixme": "Genauer Ort unklar",
    "healthcare": "centre",
    "healthcare:speciality": "vaccination",
    "name": "Impfzentrum Darmstadt",
    "opening_hours": "Mo-Su: 7:00-22:00",
    "vaccination": "covid19"
  }
},
{
  "type": "node",
  "id": 8173020465,
  "lat": 50.7387394,
  "lon": 9.2503591,
  "tags": {
    "addr:city": "Alsfeld",
    "addr:housenumber": "1",
    "addr:postcode": "36304",
    "addr:street": "An der Hessenhalle",
    "healthcare": "centre",
    "healthcare:speciality": "vaccination",
    "name": "Impfzentrum Vogelsbergkreis",
    "opening_hours": "Mo-Su: 7:00-22:00",
    "vaccination": "covid19"
  }
},
{
  "type": "node",
  "id": 8173021955,
  "lat": 51.0042684,
  "lon": 9.7345682,
  "tags": {
    "healthcare": "centre",
    "healthcare:speciality": "vaccination",
    "name": "Impfzentrum Landkreis Hersfeld-Rotenburg",
    "opening_hours": "Mo-Su: 7:00-22:00",
    "vaccination": "covid19"
  }
},
{
  "type": "node",
  "id": 8173023012,
  "lat": 50.5576239,
  "lon": 9.6855343,
  "tags": {
    "healthcare": "centre",
    "healthcare:speciality": "vaccination",
    "name": "Impfzentrum Landkreis Fulda",
    "opening_hours": "Mo-Su 07:00-22:00",
    "vaccination": "covid19",
    "website": "https://www.landkreis-fulda.de/corona-impfzentrum"
  }
},
{
  "type": "node",
  "id": 8173023013,
  "lat": 50.8337456,
  "lon": 8.7700565,
  "tags": {
    "addr:city": "Marburg",
    "addr:housenumber": "106",
    "addr:postcode": "35039",
    "addr:street": "Afföllerstraße",
    "healthcare": "centre",
    "healthcare:speciality": "vaccination",
    "name": "Impfzentrum Landkreis Marburg-Biedenkopf",
    "opening_hours": "Mo-Su: 7:00-22:00",
    "vaccination": "covid19",
    "website": "https://www.marburg-biedenkopf.de/soziales_und_gesundheit/corona/Impfzentrum.php"
  }
},
{
  "type": "node",
  "id": 8173038795,
  "lat": 51.2730297,
  "lon": 8.8603793,
  "tags": {
    "healthcare": "centre",
    "healthcare:speciality": "vaccination",
    "name": "Impfzentrum Landkreis Waldeck-Frankenberg",
    "opening_hours": "Mo-Su: 7:00-22:00",
    "vaccination": "covid19"
  }
},
{
  "type": "node",
  "id": 8173043767,
  "lat": 50.1495851,
  "lon": 8.9205628,
  "tags": {
    "healthcare": "centre",
    "healthcare:speciality": "vaccination",
    "name": "Impfzentrum Main-Kinzig-Kreis",
    "opening_hours": "Mo-Su: 7:00-22:00",
    "vaccination": "covid19"
  }
},
{
  "type": "node",
  "id": 8173062299,
  "lat": 50.2007047,
  "lon": 9.1811810,
  "tags": {
    "addr:city": "Gelnhausen",
    "addr:housenumber": "3a",
    "addr:postcode": "63571",
    "addr:street": "Am Hallenbad",
    "healthcare": "centre",
    "healthcare:speciality": "vaccination",
    "name": "Impfzentrum Main-Kinzig-Kreis",
    "opening_hours": "Mo-Su: 07:00-22:00",
    "vaccination": "covid19"
  }
},
{
  "type": "node",
  "id": 8173069490,
  "lat": 51.2968892,
  "lon": 9.4845370,
  "tags": {
    "healthcare": "centre",
    "healthcare:speciality": "vaccination",
    "name": "Impfzentrum Stadt Kassel",
    "opening_hours": "Mo-Su 07:00-22:00",
    "vaccination": "covid19"
  }
},
{
  "type": "node",
  "id": 8173076361,
  "lat": 49.6628628,
  "lon": 8.9972437,
  "tags": {
    "healthcare": "centre",
    "healthcare:speciality": "vaccination",
    "name": "Impfzentrum Odenwaldkreis",
    "opening_hours": "Mo-Su: 07:00-22:00",
    "vaccination": "covid19"
  }
},
{
  "type": "node",
  "id": 8173083908,
  "lat": 49.9164266,
  "lon": 8.4754306,
  "tags": {
    "healthcare": "centre",
    "healthcare:speciality": "vaccination",
    "name": "Impfzentrum Kreis Groß-Gerau",
    "opening_hours": "Mo-Su: 7:00-22:00",
    "vaccination": "covid19"
  }
},
{
  "type": "node",
  "id": 8174601071,
  "lat": 50.5773603,
  "lon": 8.6341473,
  "tags": {
    "addr:city": "Heuchelheim",
    "addr:housenumber": "49",
    "addr:postcode": "35452",
    "addr:street": "Ludwig-Rinn-Straße",
    "healthcare": "centre",
    "healthcare:speciality": "vaccination",
    "name": "Impfzentrum Landkreis Gießen",
    "opening_hours": "Mo-Su: 7:00-22:00",
    "vaccination": "covid19"
  }
},
{
  "type": "node",
  "id": 8178967703,
  "lat": 51.9254737,
  "lon": 8.3246907,
  "tags": {
    "amenity": "doctors",
    "description": "Hier ist ein Impfzentrum gegen Covid 19 geplant. Auf tagging gab es Diskussionen zum tagging. Das hier ist ein Versuch",
    "healthcare": "centre",
    "healthcare:speciality": "vaccination",
    "name": "Covid-19 | Impfzentrum | Gütersloh - Ehem. Naafi",
    "start_date": "2021-01-01",
    "temporary": "yes",
    "vaccination": "covid19"
  }
},
{
  "type": "node",
  "id": 8184845728,
  "lat": 53.4775656,
  "lon": 7.3262866,
  "tags": {
    "addr:city": "Südbrookmerland",
    "addr:country": "DE",
    "addr:housenumber": "52",
    "addr:postcode": "26624",
    "addr:street": "Georgsheiler Weg",
    "description": "in der Sporthalle Georgsheil",
    "healthcare": "centre",
    "healthcare:speciality": "vaccination",
    "name": "Impfzentrum Landkreis Aurich",
    "vaccination": "covid19"
  }
},
{
  "type": "node",
  "id": 8185232607,
  "lat": 50.7952695,
  "lon": 6.1008586,
  "tags": {
    "addr:city": "Aachen",
    "addr:housenumber": "8",
    "addr:postcode": "52070",
    "addr:street": "Hubert-Wienen-Straße",
    "amenity": "doctors",
    "capacity": "2500",
    "description": "FAQ Impfzentrum Aachen: https://www.staedteregion-aachen.de/fileadmin/user_upload/S_13/Dateien/Corona/FAQ-Liste_Impfzentrum.pdf",
    "healthcare": "centre",
    "healthcare:speciality": "vaccination",
    "name": "Covid-19 | Impfzentrum | Eissporthalle 100,5 Arena",
    "opening_hours": "Mo-Su 08:00-20:00 \"nach Vereinbarung, Öffnungzeiten variabel nach verfügbarem Impfstoff\"",
    "temporary": "yes",
    "vaccination": "covid19"
  }
},
{
  "type": "node",
  "id": 8186317520,
  "lat": 53.3773330,
  "lon": 7.2033777,
  "tags": {
    "addr:city": "Emden",
    "addr:country": "DE",
    "addr:housename": "Nordseehalle",
    "addr:housenumber": "17",
    "addr:postcode": "26721",
    "addr:street": "Früchteburger Weg",
    "description": "in der Nordseehalle Emden",
    "healthcare": "centre",
    "healthcare:speciality": "vaccination",
    "name": "Impfzentrum Stadt Emden",
    "vaccination": "covid19",
    "wheelchair": "yes",
    "wikidata": "Q1998613",
    "wikipedia": "de:Nordseehalle"
  }
},
{
  "type": "node",
  "id": 8187077712,
  "lat": 48.4983875,
  "lon": 12.1590394,
  "tags": {
    "addr:city": "Kumhausen",
    "addr:housenumber": "1",
    "addr:postcode": "84036",
    "addr:street": "Ziegelfeldstraße",
    "healthcare": "centre",
    "healthcare:speciality": "vaccination",
    "name": "Impfzentrum LK Landshut",
    "vaccination": "covid19"
  }
},
{
  "type": "node",
  "id": 8193265290,
  "lat": 50.4032951,
  "lon": 8.0783232,
  "tags": {
    "addr:city": "Limburg an der Lahn",
    "addr:housenumber": "2",
    "addr:street": "Senefelderstraße",
    "fixme": "Ort ungenau",
    "healthcare": "centre",
    "healthcare:speciality": "vaccination",
    "name": "Impfzentrum Landkreis Limburg-Weilburg",
    "opening_hours": "Mo-Su: 7:00-22:00",
    "vaccination": "covid19"
  }
},
{
  "type": "node",
  "id": 8193265291,
  "lat": 51.4038148,
  "lon": 9.3719007,
  "tags": {
    "addr:city": "Calden",
    "addr:postcode": "34379",
    "addr:street": "Flugplatzstraße",
    "healthcare": "centre",
    "healthcare:speciality": "vaccination",
    "name": "Impfzentrum Landkreis Kassel",
    "opening_hours": "Mo-Su 07:00-22:00",
    "vaccination": "covid19",
    "website": "https://www.landkreiskassel.de/aktuelles/coronavirus/impfzentrum-landkreis-kassel.php"
  }
},
{
  "type": "node",
  "id": 8193266737,
  "lat": 50.2699837,
  "lon": 9.1098797,
  "tags": {
    "addr:city": "Büdingen",
    "addr:housenumber": "46",
    "addr:street": "Industriestraße",
    "healthcare": "centre",
    "healthcare:speciality": "vaccination",
    "name": "Impfzentrum Wetteraukreis",
    "opening_hours": "Mo-Su: 07:00-22:00",
    "vaccination": "covid19"
  }
},
{
  "type": "node",
  "id": 8194637385,
  "lat": 49.2057084,
  "lon": 7.6103818,
  "tags": {
    "description": "In Messehalle 6 C, Zugang von unten (Parkplatz Messe P 3) aus",
    "healthcare": "centre",
    "healthcare:speciality": "vaccination",
    "name": "gemeinsames Impfzentrum Stadt Pirmasens und Landkreis Südwestpfalz",
    "operator": "Stadt Pirmasens & Landkreis Südwestpfalz",
    "start_date": "2021-01-07",
    "temporary": "yes",
    "vaccination": "covid19"
  }
},
{
  "type": "node",
  "id": 8194749528,
  "lat": 53.6549516,
  "lon": 7.6092446,
  "tags": {
    "addr:city": "Esens",
    "addr:country": "DE",
    "addr:housenumber": "2",
    "addr:postcode": "26427",
    "addr:street": "Grashauser Flage",
    "description": "in der Jugendherberge Esens",
    "healthcare": "centre",
    "healthcare:speciality": "vaccination",
    "name": "Impfzentrum Landkreis Wittmund",
    "operator": "Landkreis Wittmund",
    "vaccination": "covid19",
    "wheelchair": "yes"
  }
},
{
  "type": "node",
  "id": 8195135452,
  "lat": 51.1799056,
  "lon": 6.3911980,
  "tags": {
    "addr:city": "Mönchengladbach",
    "addr:country": "DE",
    "addr:housenumber": "260",
    "addr:postcode": "41069",
    "addr:street": "Am Nordpark",
    "amenity": "clinic",
    "healthcare": "centre",
    "healthcare:speciality": "vaccination",
    "name": "Corona Impfzentrum Mönchengladbach",
    "opening_hours": "Mo-Su 08:00-20:00",
    "operator": "Stadt Mönchengladbach",
    "source": "https://www.moenchengladbach.de/de/aktuell-aktiv/newsroom?tx_news_pi1%5Bnews%5D=19724&cHash=a0dff1feb6e340d0b4edced85f7a793c",
    "start_date": "2020-12-15",
    "vaccination": "covid19"
  }
},
{
  "type": "node",
  "id": 8196229973,
  "lat": 51.0612257,
  "lon": 6.3054102,
  "tags": {
    "addr:housenumber": "5",
    "addr:street": "Brüsseler Allee",
    "amenity": "clinic",
    "healthcare": "centre",
    "healthcare:speciality": "vaccination",
    "name": "Covid-19 | Impfzentrum | Kreis Heinsberg",
    "operator": "Kreis Heinsberg",
    "operator:type": "public",
    "source": "https://rp-online.de/nrw/staedte/erkelenz/so-funktioniert-das-neue-impfzentrum_aid-55147419",
    "start_date": "2020-12-15",
    "temporary": "yes",
    "vaccination": "covid19",
    "website": "https://www.kreis-heinsberg.de/"
  }
},
{
  "type": "node",
  "id": 8197818561,
  "lat": 53.1971754,
  "lon": 7.9898233,
  "tags": {
    "addr:city": "Bad Zwischenahn",
    "addr:country": "DE",
    "addr:hamlet": "Rostrup",
    "addr:housenumber": "2",
    "addr:postcode": "26160",
    "addr:street": "Virchowstraße",
    "description": "in den Berufsbildenden Schulen, Bad Zwischenahn-Rostrup, Neubau, Trakt 6",
    "healthcare": "centre",
    "healthcare:speciality": "vaccination",
    "name": "Impfzentrum Landkreis Ammerland",
    "vaccination": "covid19"
  }
},
{
  "type": "node",
  "id": 8198659179,
  "lat": 51.1730028,
  "lon": 7.0847228,
  "tags": {
    "addr:city": "Solingen",
    "addr:country": "DE",
    "addr:housenumber": "150",
    "addr:postcode": "42651",
    "addr:street": "Kölner Straße",
    "description": "Impfzentrum im leerstehenden Kaufhof-Gebäude",
    "healthcare": "centre",
    "healthcare:speciality": "vaccination",
    "name": "Impfzentrum Stadt Solingen",
    "opening_date": "2021-01",
    "vaccination": "covid19"
  }
},
{
  "type": "node",
  "id": 8199167310,
  "lat": 51.7504929,
  "lon": 14.3488732,
  "tags": {
    "amenity": "doctors",
    "check_date": "2020-12-23",
    "contact:phone": "+49 116117",
    "description": "Nutzung von Halle 2 im Einbahnstraßensystem mit Schleusen/Kabinen/Warte-/Ruhebereich",
    "fixme": "Daten aktualisieren, wenn in Betrieb genommen, wie Kontakt/Parken/Zugang etc",
    "healthcare": "centre",
    "healthcare:speciality": "vaccination",
    "name": "Corona-Impfzentrum Cottbus (ab 5.1.2021)",
    "note:de": "bei Vollauslastung ca. 480 Impfungen/Tag geplant (6 Teams bei ca 10 Impfungen pro Stunde)",
    "opening_hours": "Mo-Su 08:00-16:00",
    "operator": "KVBB Kassenärztliche Vereinigung Brandenburg",
    "proposed:start_date": "2021 Jan 05",
    "source:website": "https://www.niederlausitz-aktuell.de/cottbus/85090/brandenburgs-corona-impfzentrum-im-cottbuser-messezentrum-startklar.html",
    "start_date": "2021-01-05",
    "vaccination": "covid19",
    "website": "https://www.kvbb.de/startseite/coronavirus/",
    "wheelchair": "yes"
  }
},
{
  "type": "node",
  "id": 8201807386,
  "lat": 52.9207380,
  "lon": 7.9502385,
  "tags": {
    "addr:city": "Garrel",
    "addr:country": "DE",
    "addr:hamlet": "Petersfeld",
    "addr:housenumber": "7",
    "addr:postcode": "49681",
    "addr:street": "Am Campingplatz",
    "description": "in der Jugendherberge Thülsfelder Talsperre, Garrel-Petersfeld",
    "healthcare": "centre",
    "healthcare:speciality": "vaccination",
    "name": "Impfzentrum Landkreis Cloppenburg",
    "vaccination": "covid19",
    "wheelchair": "yes"
  }
},
{
  "type": "node",
  "id": 8202064269,
  "lat": 53.1478938,
  "lon": 8.2279400,
  "tags": {
    "addr:city": "Oldenburg",
    "addr:country": "DE",
    "addr:postcode": "26123",
    "addr:street": "Messestraße",
    "description": "in den Weser-Ems-Hallen / in der Kongresshalle der Messe Oldenburg, Eingang Messestraße",
    "healthcare": "centre",
    "healthcare:speciality": "vaccination",
    "name": "Impfzentrum Stadt Oldenburg",
    "vaccination": "covid19",
    "wheelchair": "yes",
    "wikidata": "Q2563825"
  }
},
{
  "type": "node",
  "id": 8202200779,
  "lat": 53.0875487,
  "lon": 7.3871684,
  "tags": {
    "addr:city": "Papenburg",
    "addr:country": "DE",
    "addr:housenumber": "9",
    "addr:postcode": "26871",
    "addr:street": "Ölmühlenweg",
    "description": "im Forum Alte Werft / ehemalige Stadthalle Papenburg",
    "healthcare": "centre",
    "healthcare:speciality": "vaccination",
    "name": "Impfzentrum Landkreis Emsland 1 - Papenburg",
    "vaccination": "covid19",
    "wheelchair": "yes",
    "wikidata": "Q1439165"
  }
},
{
  "type": "node",
  "id": 8202298305,
  "lat": 52.5141642,
  "lon": 7.3163688,
  "tags": {
    "addr:city": "Lingen (Ems)",
    "addr:country": "DE",
    "addr:housenumber": "24a",
    "addr:postcode": "49808",
    "addr:street": "Lindenstraße",
    "description": "in den Emsland-Hallen",
    "healthcare": "centre",
    "healthcare:speciality": "vaccination",
    "name": "Impfzentrum Landkreis Emsland 2 - Lingen",
    "vaccination": "covid19",
    "wheelchair": "yes"
  }
},
{
  "type": "node",
  "id": 8202432489,
  "lat": 53.0548217,
  "lon": 8.6279904,
  "tags": {
    "addr:city": "Delmenhorst",
    "addr:country": "DE",
    "addr:housenumber": "6",
    "addr:postcode": "27753",
    "addr:street": "Am Wehrhahn",
    "description": "in der Wehrhahnhalle",
    "healthcare": "centre",
    "healthcare:speciality": "vaccination",
    "name": "Impfzentrum Stadt Delmenhorst",
    "opening_hours:office": "Mo-Sa 08:00-20:00",
    "phone:DE": "0800 9988665",
    "vaccination": "covid19",
    "wheelchair": "yes"
  }
},
{
  "type": "node",
  "id": 8202432490,
  "lat": 53.0890331,
  "lon": 8.8115609,
  "tags": {
    "addr:city": "Bremen",
    "addr:country": "DE",
    "addr:housenumber": "101",
    "addr:postcode": "28215",
    "addr:street": "Findorffstraße",
    "description": "in der Messehalle 7",
    "healthcare": "centre",
    "healthcare:speciality": "vaccination",
    "name": "Impfzentrum Stadt Bremen",
    "vaccination": "covid19",
    "wheelchair": "yes"
  }
},
{
  "type": "node",
  "id": 8202432491,
  "lat": 53.5553290,
  "lon": 8.5909103,
  "tags": {
    "addr:city": "Bremerhaven",
    "addr:country": "DE",
    "addr:housenumber": "1",
    "addr:postcode": "27576",
    "addr:street": "Wilhelm-Kaisen-Platz",
    "description": "in der Stadthalle Bremerhven",
    "healthcare": "centre",
    "healthcare:speciality": "vaccination",
    "name": "Impfzentrum Stadt Bremerhaven",
    "vaccination": "covid19",
    "wheelchair": "yes",
    "wikidata": "Q2327231",
    "wikipedia": "de:Stadthalle Bremerhaven"
  }
},
{
  "type": "node",
  "id": 8203941261,
  "lat": 50.9876605,
  "lon": 10.3158817,
  "tags": {
    "access": "permissive",
    "amenity": "doctors",
    "healthcare": "doctor",
    "healthcare:speciality": "vaccination",
    "name": "COVID19-Impfzentrum SK Eisenach (Impfung nur mit Termin)",
    "operator": "KV-Thüringen",
    "phone": "+49 (0)36434950490",
    "vaccination": "covid19",
    "website": "https://www.impfen-thueringen.de/",
    "wheelchair": "yes"
  }
},
{
  "type": "node",
  "id": 8207049205,
  "lat": 52.4826962,
  "lon": 13.3935814,
  "tags": {
    "amenity": "clinic",
    "description": "Covid19-Impfzentrum Berlin: Flughafen Tempelhof, Hangar 4",
    "healthcare": "centre",
    "healthcare:speciality": "vaccination",
    "name": "Impfzentrum",
    "opening_hours": "closed",
    "vaccination": "covid19"
  }
},
{
  "type": "node",
  "id": 8207066351,
  "lat": 52.5553812,
  "lon": 13.2954811,
  "tags": {
    "amenity": "clinic",
    "description": "Covid19-Impfzentrum Berlin: Tegel Terminal C",
    "healthcare": "centre",
    "healthcare:speciality": "vaccination",
    "name": "Impfzentrum",
    "opening_hours": "closed",
    "vaccination": "covid19"
  }
},
{
  "type": "node",
  "id": 8207070481,
  "lat": 52.5052117,
  "lon": 13.2767930,
  "tags": {
    "amenity": "clinic",
    "description": "Covid19-Impfzentrum Berlin: Messe, Halle 11",
    "end_date": "2021-04",
    "healthcare": "centre",
    "healthcare:speciality": "vaccination",
    "name": "Impfzentrum",
    "opening_hours": "closed",
    "vaccination": "covid19"
  }
},
{
  "type": "node",
  "id": 8207078980,
  "lat": 54.4954008,
  "lon": 9.0884854,
  "tags": {
    "addr:city": "Husum",
    "addr:housenumber": "12-18",
    "addr:postcode": "25813",
    "addr:street": "Am Messeplatz",
    "description": "Corona-Impfzentrum in der Messehalle",
    "healthcare": "centre",
    "healthcare:speciality": "vaccination",
    "name": "Impfzentrum Kreis Nordfriesland",
    "operator": "Kreis Nordfriesland",
    "source": "https://www.ndr.de/nachrichten/schleswig-holstein/Testlauf-fuer-Corona-Impfzentrum-in-Husum-;impfzentren114.html",
    "vaccination": "covid19",
    "website": "https://www.impfen-sh.de/",
    "wheelchair": "yes"
  }
},
{
  "type": "node",
  "id": 8207083844,
  "lat": 52.5374839,
  "lon": 13.3699431,
  "tags": {
    "amenity": "clinic",
    "description": "Covid19-Impfzentrum Berlin: Erika-Heß-Eisstadion",
    "end_date": "2021-04",
    "healthcare": "centre",
    "healthcare:speciality": "vaccination",
    "name": "Impfzentrum",
    "opening_hours": "closed",
    "vaccination": "covid19"
  }
},
{
  "type": "node",
  "id": 8207089503,
  "lat": 52.5309692,
  "lon": 13.4508642,
  "tags": {
    "amenity": "clinic",
    "description": "Covid19-Impfzentrum Berlin: Velodrom",
    "healthcare": "centre",
    "healthcare:speciality": "vaccination",
    "name": "Impfzentrum",
    "opening_hours": "closed",
    "vaccination": "covid19"
  }
},
{
  "type": "node",
  "id": 8207134188,
  "lat": 52.4968985,
  "lon": 13.4538709,
  "tags": {
    "amenity": "clinic",
    "description": "Covid19-Impfzentrum Berlin: Arena",
    "healthcare": "centre",
    "healthcare:speciality": "vaccination",
    "name": "Impfzentrum",
    "vaccination": "covid19"
  }
},
{
  "type": "node",
  "id": 8207759239,
  "lat": 51.0340705,
  "lon": 6.9809505,
  "tags": {
    "addr:city": "Leverkusen",
    "addr:country": "DE",
    "addr:housenumber": "37",
    "addr:postcode": "51373",
    "addr:street": "Nobelstraße",
    "amenity": "doctors",
    "description": "im Bayer Erholungshaus",
    "healthcare": "centre",
    "healthcare:speciality": "vaccination",
    "name": "Covid-19 | Impfzentrum | Stadt Leverkusen",
    "vaccination": "covid19",
    "wheelchair": "yes"
  }
},
{
  "type": "node",
  "id": 8207887461,
  "lat": 53.2195867,
  "lon": 8.7954475,
  "tags": {
    "addr:city": "Osterholz-Scharmbeck",
    "addr:country": "DE",
    "addr:housenumber": "1",
    "addr:postcode": "27711",
    "addr:street": "Jacob-Frerichs-Straße",
    "description": "in der Stadthalle Osterholz-Scharmbeck",
    "healthcare": "centre",
    "healthcare:speciality": "vaccination",
    "name": "Impfzentrum Landkreis Osterholz",
    "vaccination": "covid19",
    "wheelchair": "yes"
  }
},
{
  "type": "node",
  "id": 8208432666,
  "lat": 53.8991880,
  "lon": 9.1379267,
  "tags": {
    "addr:city": "Brunsbüttel",
    "addr:country": "DE",
    "addr:housenumber": "30",
    "addr:postcode": "25541",
    "addr:street": "Bojestraße",
    "description": "Corona-Impfzentrum im leerstehenden Gebäude der ehemaligen Boje-Schule",
    "healthcare": "centre",
    "healthcare:speciality": "vaccination",
    "name": "Impfzentrum Brunsbüttel",
    "vaccination": "covid19"
  }
},
{
  "type": "node",
  "id": 8209055978,
  "lat": 49.7865399,
  "lon": 7.6395620,
  "tags": {
    "addr:city": "Bad Sobernheim",
    "addr:housenumber": "3",
    "addr:postcode": "55566",
    "addr:street": "Westtangente",
    "healthcare": "centre",
    "healthcare:speciality": "vaccination",
    "name": "Impfzentrum Landkreis Bad Kreuznach",
    "operator": "Kreisverwaltung Bad Kreuznach",
    "vaccination": "covid19",
    "wheelchair": "yes"
  }
},
{
  "type": "node",
  "id": 8209144743,
  "lat": 49.9739561,
  "lon": 7.5138790,
  "tags": {
    "addr:city": "Simmern/Hunsrück",
    "addr:housenumber": "4",
    "addr:postcode": "55469",
    "addr:street": "Holzbacher Straße",
    "description": "In ehemaligem Möbelhaus in Simmern",
    "email": "landesimpfzentrum@rheinhunsrueck.de",
    "healthcare": "centre",
    "healthcare:speciality": "vaccination",
    "name": "Impfzentrum Landkreis Rhein-Hunsrück",
    "operator": "Kreisverwaltung Rhein-Hunsrück",
    "vaccination": "covid19",
    "website": "https://www.kreis-sim.de/",
    "wheelchair": "yes"
  }
},
{
  "type": "node",
  "id": 8209431126,
  "lat": 54.3971968,
  "lon": 9.9660721,
  "tags": {
    "addr:city": "Gettorf",
    "addr:housenumber": "3",
    "addr:postcode": "24214",
    "addr:street": "Sportpark",
    "description": "Corona-Impfzentrum im Gebäude des Sportzentrums",
    "healthcare": "centre",
    "healthcare:speciality": "vaccination",
    "name": "Impfzentrum Gettorf",
    "operator": "Kreis Rendsburg-Eckernförde",
    "vaccination": "covid19",
    "website": "https://www.impfen-sh.de/",
    "wheelchair": "yes"
  }
},
{
  "type": "node",
  "id": 8209847196,
  "lat": 54.7869331,
  "lon": 8.8110522,
  "tags": {
    "addr:city": "Niebüll",
    "addr:housenumber": "65",
    "addr:postcode": "25899",
    "addr:street": "Mühlenstraße",
    "description": "Corona-Impfzentrum im Gebäude der Jugendherberge",
    "healthcare": "centre",
    "healthcare:speciality": "vaccination",
    "name": "Impfzentrum Kreis Nordfriesland",
    "operator": "Kreis Nordfriesland",
    "vaccination": "covid19",
    "website": "https://www.impfen-sh.de/",
    "wheelchair": "yes"
  }
},
{
  "type": "node",
  "id": 8209857700,
  "lat": 54.4128285,
  "lon": 9.5093325,
  "tags": {
    "addr:city": "Kropp",
    "addr:housenumber": "11",
    "addr:postcode": "24848",
    "addr:street": "Am Markt",
    "description": "Corona-Impfzentrum",
    "healthcare": "centre",
    "healthcare:speciality": "vaccination",
    "name": "Impfzentrum Schleswig-Flensburg",
    "operator": "Kreis Schleswig-Flensburg",
    "vaccination": "covid19",
    "website": "https://www.impfen-sh.de/",
    "wheelchair": "yes"
  }
},
{
  "type": "node",
  "id": 8209877734,
  "lat": 54.8174062,
  "lon": 9.4641616,
  "tags": {
    "addr:city": "Flensburg",
    "addr:housenumber": "11",
    "addr:postcode": "24944",
    "addr:street": "Twedter Mark",
    "description": "Ehemaliges Bundeswehrgelände",
    "healthcare": "centre",
    "healthcare:speciality": "vaccination",
    "name": "Impfzentrum Stadt Flensburg",
    "operator": "Stadt Flensburg",
    "vaccination": "covid19",
    "website": "https://www.impfen-sh.de/",
    "wheelchair": "yes"
  }
},
{
  "type": "node",
  "id": 8209886911,
  "lat": 54.6558304,
  "lon": 9.7682705,
  "tags": {
    "addr:city": "Norderbrarup",
    "addr:housenumber": "1",
    "addr:postcode": "24392",
    "addr:street": "Knüttelallee",
    "description": "Corona-Impfzentrum in der ehemaligen Knüttel-Antonius-Schule",
    "healthcare": "centre",
    "healthcare:speciality": "vaccination",
    "name": "Impfzentrum Schleswig-Flensburg",
    "operator": "Kreis Schleswig-Flensburg",
    "vaccination": "covid19",
    "website": "https://www.impfen-sh.de/",
    "wheelchair": "yes"
  }
},
{
  "type": "node",
  "id": 8209926610,
  "lat": 54.3126071,
  "lon": 9.6763588,
  "tags": {
    "addr:city": "Büdelsdorf",
    "addr:housenumber": "2",
    "addr:postcode": "24782",
    "addr:street": "Am Friedrichsbrunnen",
    "description": "Corona-Impfzentrum im ACO-Gebäude",
    "healthcare": "centre",
    "healthcare:speciality": "vaccination",
    "name": "Impfzentrum Rendsburg-Eckernförde",
    "operator": "Kreis Rendsburg-Eckernförde",
    "vaccination": "covid19",
    "website": "https://www.impfen-sh.de/",
    "wheelchair": "yes"
  }
},
{
  "type": "node",
  "id": 8210248188,
  "lat": 54.0925147,
  "lon": 9.9764747,
  "tags": {
    "addr:city": "Neumünster",
    "addr:housenumber": "2-4",
    "addr:postcode": "24537",
    "addr:street": "Justus-Von-Liebig-Straße",
    "description": "Corona-Impfzentrum in der Holstenhalle",
    "healthcare": "centre",
    "healthcare:speciality": "vaccination",
    "name": "Impfzentrum Neumünster",
    "operator": "Stadt Neumünster",
    "vaccination": "covid19",
    "website": "https://www.impfen-sh.de/",
    "wheelchair": "yes"
  }
},
{
  "type": "node",
  "id": 8210257165,
  "lat": 54.3197690,
  "lon": 10.1388467,
  "tags": {
    "addr:city": "Kiel",
    "addr:housenumber": "1",
    "addr:postcode": "24103",
    "addr:street": "Schwedenkai",
    "description": "Corona-Impfzentrum im Schwedenterminal",
    "healthcare": "centre",
    "healthcare:speciality": "vaccination",
    "name": "Impfzentrum Kiel",
    "operator": "Stadt Kiel",
    "vaccination": "covid19",
    "website": "https://www.impfen-sh.de/",
    "wheelchair": "yes"
  }
},
{
  "type": "node",
  "id": 8210257166,
  "lat": 54.3113493,
  "lon": 10.0989142,
  "tags": {
    "addr:city": "Kiel",
    "addr:housenumber": "1",
    "addr:postcode": "24113",
    "addr:street": "Mühlendamm",
    "description": "Corona-Impfzentrum im Citti-Park Kiel",
    "healthcare": "centre",
    "healthcare:speciality": "vaccination",
    "name": "Impfzentrum Kiel",
    "operator": "Stadt Kiel",
    "vaccination": "covid19",
    "website": "https://www.impfen-sh.de/",
    "wheelchair": "yes"
  }
},
{
  "type": "node",
  "id": 8210460781,
  "lat": 54.3946547,
  "lon": 10.3815567,
  "tags": {
    "addr:city": "Schönberg (Holstein)",
    "addr:housenumber": "1",
    "addr:postcode": "24217",
    "addr:street": "Stakendorfer Weg",
    "description": "Corona-Impfzentrum im Gebäude der Jugendherberge",
    "healthcare": "centre",
    "healthcare:speciality": "vaccination",
    "name": "Impfzentrum Kreis Plön",
    "operator": "Kreis Plön",
    "vaccination": "covid19",
    "website": "https://www.impfen-sh.de/",
    "wheelchair": "yes"
  }
},
{
  "type": "node",
  "id": 8210468969,
  "lat": 54.1363913,
  "lon": 10.6161020,
  "tags": {
    "addr:city": "Eutin",
    "addr:country": "DE",
    "addr:housenumber": "7",
    "addr:postcode": "23701",
    "addr:street": "Markt",
    "description": "Corona-Impfzentrum im ehemaligen Sky-Markt",
    "healthcare": "centre",
    "healthcare:speciality": "vaccination",
    "name": "Impfzentrum Eutin (Kreis Ostholstein)",
    "operator": "Kreis Ostholstein",
    "vaccination": "covid19",
    "website": "https://www.impfen-sh.de/",
    "wheelchair": "yes"
  }
},
{
  "type": "node",
  "id": 8210479169,
  "lat": 54.1480191,
  "lon": 10.3930937,
  "tags": {
    "addr:city": "Plön",
    "addr:housenumber": "67",
    "addr:postcode": "24306",
    "addr:street": "Ascheberger Straße",
    "description": "Corona-Impfzentrum im Gebäude der Jugendherberge",
    "healthcare": "centre",
    "healthcare:speciality": "vaccination",
    "name": "Impfzentrum Kreis Plön",
    "operator": "Kreis Plön",
    "vaccination": "covid19",
    "website": "https://www.impfen-sh.de/",
    "wheelchair": "yes"
  }
},
{
  "type": "node",
  "id": 8210515711,
  "lat": 54.2153330,
  "lon": 10.8646011,
  "tags": {
    "addr:city": "Lensahn",
    "addr:country": "DE",
    "addr:housenumber": "56",
    "addr:postcode": "23738",
    "addr:street": "Eutiner Straße",
    "description": "Trakt D im vorderen Bereich des Geländes",
    "healthcare": "centre",
    "healthcare:speciality": "vaccination",
    "name": "Impfzentrum Lehnsahn (Kreis Ostholstein)",
    "operator": "Kreis Ostholstein",
    "vaccination": "covid19",
    "website": "https://www.impfen-sh.de/",
    "wheelchair": "yes"
  }
},
{
  "type": "node",
  "id": 8210562560,
  "lat": 48.8401592,
  "lon": 10.0822995,
  "tags": {
    "addr:city": "Aalen",
    "addr:housenumber": "15",
    "addr:postcode": "73430",
    "addr:street": "Parkstraße",
    "healthcare": "centre",
    "healthcare:speciality": "vaccination",
    "name": "COVID-19 Impfzentrum Ostalbkreis",
    "vaccination": "covid19"
  }
},
{
  "type": "node",
  "id": 8210565979,
  "lat": 48.6727091,
  "lon": 10.1467670,
  "tags": {
    "addr:city": "Heidenheim",
    "addr:housenumber": "1",
    "addr:postcode": "89522",
    "addr:street": "Hugo-Rupf-Platz",
    "description": "Eingang durch den Haupteingang",
    "healthcare": "centre",
    "healthcare:speciality": "vaccination",
    "name": "COVID-19 Impfzentrum Kreis Heidenheim",
    "vaccination": "covid19"
  }
},
{
  "type": "node",
  "id": 8213625542,
  "lat": 50.9485122,
  "lon": 11.0839200,
  "tags": {
    "addr:city": "Erfurt",
    "addr:country": "DE",
    "addr:housenumber": "70",
    "addr:postcode": "99097",
    "addr:street": "Haarbergstraße",
    "description": "in der Krankenpflegeschule des Katholisches Krankenhauses \"St. Johann Nepomuk\", Erfurt",
    "healthcare": "centre",
    "healthcare:speciality": "vaccination",
    "name": "Impfzentrum Stadt Erfurt Süd",
    "vaccination": "covid19",
    "wheelchair": "yes"
  }
},
{
  "type": "node",
  "id": 8214198472,
  "lat": 48.0156738,
  "lon": 7.8398844,
  "tags": {
    "healthcare": "centre",
    "healthcare:speciality": "vaccination",
    "name": "COVID-19 Impfzentrum Freiburg in Messehalle 2",
    "note": "Weitere Details bitte bei Bekanntwerden ergänzen",
    "source": "https://www.baden-wuerttemberg.de/de/service/aktuelle-infos-zu-corona/fragen-und-antworten-rund-um-corona/faq-impfzentren/",
    "vaccination": "covid19"
  }
},
{
  "type": "node",
  "id": 8218350568,
  "lat": 51.0706094,
  "lon": 13.7156595,
  "tags": {
    "addr:city": "Dresden",
    "addr:country": "DE",
    "addr:housenumber": "6",
    "addr:postcode": "01067",
    "addr:street": "Messering",
    "description": "in der Messe Dresden, Halle 4",
    "healthcare": "centre",
    "healthcare:speciality": "vaccination",
    "name": "Impfzentrum Stadt Dresden",
    "vaccination": "covid19",
    "wheelchair": "yes"
  }
},
{
  "type": "node",
  "id": 8218397796,
  "lat": 52.2803439,
  "lon": 11.3943554,
  "tags": {
    "healthcare": "centre",
    "healthcare:speciality": "vaccination",
    "name": "Impfzentrum Landkreis Börde",
    "vaccination": "covid19"
  }
},
{
  "type": "node",
  "id": 8220305946,
  "lat": 53.9139525,
  "lon": 12.2864270,
  "tags": {
    "addr:city": "Laage",
    "addr:country": "DE",
    "addr:housenumber": "1",
    "addr:postcode": "18299",
    "addr:street": "Flughafenstraße",
    "description": "im Terminal Flughafen Rostock-Laage",
    "healthcare": "centre",
    "healthcare:speciality": "vaccination",
    "name": "Impfzentrum Landkreis Rostock",
    "vaccination": "covid19",
    "wheelchair": "yes"
  }
},
{
  "type": "node",
  "id": 8220526675,
  "lat": 50.0570227,
  "lon": 8.4572551,
  "tags": {
    "addr:city": "Hattersheim am Main",
    "addr:housenumber": "500",
    "addr:postcode": "65795",
    "addr:street": "Mainzer Landstraße",
    "healthcare": "centre",
    "healthcare:speciality": "vaccination",
    "name": "Impfzentrum Main-Taunus-Kreis",
    "opening_hours": "Mo-Su 07:00-22:00",
    "vaccination": "covid19"
  }
},
{
  "type": "node",
  "id": 8220528557,
  "lat": 50.0373299,
  "lon": 8.1139758,
  "tags": {
    "addr:housenumber": "7",
    "addr:street": "Wiesweg",
    "healthcare": "centre",
    "healthcare:speciality": "vaccination",
    "name": "Impfzentrum Rheingau-Taunus-Kreis",
    "opening_hours": "Mo-Su: 7:00-22:00",
    "vaccination": "covid19"
  }
},
{
  "type": "node",
  "id": 8220528558,
  "lat": 51.1844971,
  "lon": 10.0303216,
  "tags": {
    "addr:housenumber": "37",
    "addr:street": "Südring",
    "healthcare": "centre",
    "healthcare:speciality": "vaccination",
    "name": "Impfzentrum Werra-Meißner-Kreis",
    "opening_hours": "Mo-Su: 7:00-22:00",
    "vaccination": "covid19"
  }
},
{
  "type": "node",
  "id": 8220533585,
  "lat": 50.0771565,
  "lon": 8.2442462,
  "tags": {
    "addr:housenumber": "1",
    "addr:street": "Friedrich-Ebert-Allee",
    "healthcare": "centre",
    "healthcare:speciality": "vaccination",
    "name": "Impfzentrum Wiesbaden",
    "opening_hours": "Mo-Su: 7:00-22:00",
    "vaccination": "covid19"
  }
},
{
  "type": "node",
  "id": 8220568568,
  "lat": 50.1119426,
  "lon": 8.6508741,
  "tags": {
    "addr:housenumber": "1",
    "addr:street": "Ludwig-Erhard-Anlage",
    "healthcare": "centre",
    "healthcare:speciality": "vaccination",
    "name": "Impfzentrum Frankfurt",
    "opening_hours": "Mo-Su: 7:00-22:00",
    "vaccination": "covid19"
  }
},
{
  "type": "node",
  "id": 8220572175,
  "lat": 49.8131729,
  "lon": 8.6157180,
  "tags": {
    "addr:city": "Pfungstadt",
    "addr:housenumber": "3",
    "addr:postcode": "64319",
    "addr:street": "Ostendstraße",
    "alt_name": "Impfzentrum DADI West",
    "healthcare": "centre",
    "healthcare:speciality": "vaccination",
    "name": "Impfzentrum Landkreis Darmstadt-Dieburg",
    "opening_hours": "Mo-Su 07:00-22:00",
    "vaccination": "covid19"
  }
},
{
  "type": "node",
  "id": 8220574077,
  "lat": 49.6881519,
  "lon": 8.6081129,
  "tags": {
    "addr:housenumber": "89",
    "addr:street": "Berliner Ring",
    "healthcare": "centre",
    "healthcare:speciality": "vaccination",
    "name": "Impfzentrum Landkreis Bergstraße",
    "opening_hours": "Mo-Su: 7:00-22:00",
    "vaccination": "covid19"
  }
},
{
  "type": "node",
  "id": 8220584424,
  "lat": 49.8322442,
  "lon": 8.8404665,
  "tags": {
    "addr:city": "Reinheim",
    "addr:housenumber": "1a",
    "addr:postcode": "64354",
    "addr:street": "Am Sportzentrum",
    "alt_name": "Impfzentrum DADI Ost",
    "healthcare": "centre",
    "healthcare:speciality": "vaccination",
    "name": "Impfzentrum Landkreis Darmstadt-Dieburg",
    "opening_hours": "Mo-Su 07:00-22:00",
    "vaccination": "covid19"
  }
},
{
  "type": "node",
  "id": 8220599740,
  "lat": 50.0642997,
  "lon": 8.7971228,
  "tags": {
    "addr:city": "Heusenstamm",
    "addr:housenumber": "54",
    "addr:postcode": "63150",
    "addr:street": "Jahnstraße",
    "alt_name": "Impfzentrum Landkreis Offenbach",
    "healthcare": "centre",
    "healthcare:speciality": "vaccination",
    "name": "Impfzentrum Kreis Offenbach",
    "opening_hours": "Mo-Su 07:00-22:00",
    "vaccination": "covid19",
    "website": "https://www.kreis-offenbach.de/Themen/Gesundheit-Verbraucher-schutz/akut/Corona/Impfzentrum/"
  }
},
{
  "type": "node",
  "id": 8220599741,
  "lat": 50.0829317,
  "lon": 8.7768223,
  "tags": {
    "addr:housenumber": "312",
    "addr:street": "Waldstraße",
    "healthcare": "centre",
    "healthcare:speciality": "vaccination",
    "name": "Impfzentrum Stadt Offenbach",
    "opening_hours": "Mo-Su: 7:00-22:00",
    "vaccination": "covid19"
  }
},
{
  "type": "node",
  "id": 8220923516,
  "lat": 54.1388724,
  "lon": 12.0731009,
  "tags": {
    "addr:city": "Rostock",
    "addr:country": "DE",
    "addr:housenumber": "1-2",
    "addr:postcode": "18106",
    "addr:street": "Zur HanseMesse",
    "description": "in der Hansemesse Rostock-Schmarl",
    "healthcare": "centre",
    "healthcare:speciality": "vaccination",
    "name": "Impfzentrum Stadt Rostock",
    "vaccination": "covid19",
    "wheelchair": "yes"
  }
},
{
  "type": "node",
  "id": 8221711082,
  "lat": 52.2574988,
  "lon": 10.5396027,
  "tags": {
    "addr:city": "Braunschweig",
    "addr:country": "DE",
    "addr:postcode": "38102",
    "addr:street": "St. Leonhard",
    "description": "im Konferenzraum der Stadthalle Braunschweig",
    "healthcare": "centre",
    "healthcare:speciality": "vaccination",
    "name": "Covid19-Impfzentrum Stadt Braunschweig",
    "opening_hours": "closed",
    "vaccination": "covid19",
    "website": "https://www.braunschweig.de/aktuell/impfzentrum/index.php",
    "wheelchair": "yes"
  }
},
{
  "type": "node",
  "id": 8222075983,
  "lat": 50.2327577,
  "lon": 11.3338430,
  "tags": {
    "addr:city": "Kronach",
    "addr:country": "DE",
    "addr:housenumber": "11",
    "addr:postcode": "96317",
    "addr:street": "Industriestraße",
    "description": "ehemaliges Loewe-Areal",
    "healthcare": "centre",
    "healthcare:speciality": "vaccination",
    "name": "Impfzentrum Landkreis Kronach",
    "note": "es handelt sich um geplante Öffnungszeiten",
    "opening_hours": "08:00-12:00,16:00-20:00",
    "source": "https://www.landkreis-kronach.de/aktuelles/meldungen/impfzentrum-kronach/",
    "vaccination": "covid19",
    "wheelchair": "yes"
  }
},
{
  "type": "node",
  "id": 8224043335,
  "lat": 48.4091064,
  "lon": 11.7490719,
  "tags": {
    "addr:city": "Freising",
    "addr:housenumber": "1",
    "addr:postcode": "85356",
    "addr:street": "General-von-Stein-Straße",
    "healthcare": "centre",
    "healthcare:speciality": "vaccination",
    "name": "Bayerisches Impfzentrum Kreis Freising",
    "operator": "Landkreis Freising",
    "vaccination": "covid19",
    "website": "https://www.kreis-freising.de/"
  }
},
{
  "type": "node",
  "id": 8224469315,
  "lat": 48.4784494,
  "lon": 9.1890502,
  "tags": {
    "addr:city": "Reutlingen",
    "addr:housenumber": "4",
    "addr:street": "An der Kreuzeiche",
    "description": "Impfzentrum Landkreis Reutlingen",
    "healthcare": "centre",
    "healthcare:speciality": "vaccination",
    "start_date": "2021-01-15",
    "vaccination": "covid19",
    "website": "https://www.kreis-reutlingen.de"
  }
},
{
  "type": "node",
  "id": 8225295699,
  "lat": 50.7185800,
  "lon": 7.1240392,
  "tags": {
    "addr:city": "Bonn",
    "addr:housenumber": "2",
    "addr:postcode": "53113",
    "addr:street": "Platz der Vereinten Nationen",
    "amenity": "doctors",
    "description": "Hier wird in Kürze das Impfzentrum gegen Covid-19 eröffnet werden. https://www.bonn.de/impfzentrum",
    "healthcare": "centre",
    "healthcare:speciality": "vaccination",
    "name": "Covid-19 | Impfzentrum | Bonn | 10000 vaccinations/day",
    "temporary": "yes",
    "vaccination": "covid19",
    "website": "https://www.bonn.de/impfzentrum"
  }
},
{
  "type": "node",
  "id": 8225418787,
  "lat": 50.7751614,
  "lon": 7.1822887,
  "tags": {
    "addr:city": "Sankt Augustin",
    "addr:country": "DE",
    "addr:housenumber": "29",
    "addr:postcode": "53757",
    "addr:street": "Arnold-Janssen-Straße",
    "amenity": "doctors",
    "capacity:vaccination": "2000 / day",
    "description": "Hier wird in Kürze das Impfzentrum gegen Covid-19 eröffnet werden. Impfzentrum des Rhein-Sieg-Kreises zieht in die Asklepios Kinderklinik",
    "healthcare": "centre",
    "healthcare:speciality": "vaccination",
    "name": "Covid-19 | Impfzentrum | Asklepios Kinderklinik | 2000 vaccinations / day",
    "temporary": "yes",
    "vaccination": "covid19",
    "website": "https://www.rhein-sieg-kreis.de/presseinformationen/2020/Dezember/impfzentrum.php"
  }
},
{
  "type": "node",
  "id": 8225484372,
  "lat": 51.4288822,
  "lon": 6.9930071,
  "tags": {
    "addr:city": "Essen",
    "addr:country": "DE",
    "addr:housenumber": "1",
    "addr:postcode": "45131",
    "addr:street": "Messeplatz",
    "amenity": "doctors",
    "description": "Hier wird in Kürze ein Impfzentrum gegen Covid-19 eröffnet werden.",
    "healthcare": "centre",
    "healthcare:speciality": "vaccination",
    "name": "Covid-19 | Impfzentrum | Essen",
    "temporary": "yes",
    "vaccination": "covid19"
  }
},
{
  "type": "node",
  "id": 8225484874,
  "lat": 52.9737900,
  "lon": 10.5565430,
  "tags": {
    "addr:city": "Uelzen",
    "addr:country": "DE",
    "addr:housenumber": "10",
    "addr:postcode": "29525",
    "addr:street": "Ebstorfer Straße",
    "description": "in der Stadthalle Uelzen",
    "fixme": "Position; Zugang usw.",
    "healthcare": "vaccination centre",
    "healthcare:speciality": "vaccination",
    "name": "Impfzentrum Landkreise Uelzen und Lüchow-Dannenberg",
    "vaccination": "covid19"
  }
},
{
  "type": "node",
  "id": 8225487159,
  "lat": 50.4823678,
  "lon": 6.5727779,
  "tags": {
    "addr:city": "Nettersheim",
    "addr:country": "DE",
    "addr:housenumber": "1",
    "addr:postcode": "53947",
    "addr:street": "Dr.-Konrad-Adenauer-Straße",
    "amenity": "doctors",
    "description": "Hier wird in Kürze ein Impfzentrum gegen Covid-19 eröffnet werden.",
    "healthcare": "centre",
    "healthcare:speciality": "vaccination",
    "name": "Covid-19 | Impfzentrum | Euskirchen",
    "temporary": "yes",
    "vaccination": "covid19"
  }
},
{
  "type": "node",
  "id": 8225489453,
  "lat": 51.8444978,
  "lon": 7.2914752,
  "tags": {
    "addr:city": "Dülmen",
    "addr:country": "DE",
    "addr:housenumber": "87",
    "addr:postcode": "48249",
    "addr:street": "An der Lehmkuhle",
    "amenity": "doctors",
    "description": "Hier wird in Kürze ein Impfzentrum gegen Covid-19 eröffnet werden.",
    "healthcare": "centre",
    "healthcare:speciality": "vaccination",
    "name": "Covid-19 | Impfzentrum | Coesfeld",
    "temporary": "yes",
    "vaccination": "covid19"
  }
},
{
  "type": "node",
  "id": 8225491077,
  "lat": 52.0288399,
  "lon": 8.5347421,
  "tags": {
    "addr:city": "Bielefeld",
    "addr:country": "DE",
    "addr:housenumber": "1",
    "addr:postcode": "33602",
    "addr:street": "Willy-Brandt-Platz",
    "amenity": "doctors",
    "description": "Hier wird in Kürze das Impfzentrum gegen Covid-19 eröffnet werden.",
    "healthcare": "centre",
    "healthcare:speciality": "vaccination",
    "name": "Covid-19 | Impfzentrum | Bielefeld",
    "opening_hours": "\"nach Vereinbarung\"",
    "operator": "Kassenärtzliche Vereiniging; Arbeiter-Samariter-Bund (ASB)",
    "start_date": "2021-01-25",
    "temporary": "yes",
    "vaccination": "covid19",
    "website": "https://www.bielefeld.de/de/covi/impfz/",
    "wheelchair": "yes"
  }
},
{
  "type": "node",
  "id": 8225506468,
  "lat": 51.4906276,
  "lon": 7.2338721,
  "tags": {
    "addr:city": "Bochum",
    "addr:country": "DE",
    "addr:housenumber": "20",
    "addr:postcode": "44791",
    "addr:street": "Stadionring",
    "amenity": "doctors",
    "description": "Hier wird in Kürze ein Impfzentrum gegen Covid-19 eröffnet werden.",
    "healthcare": "centre",
    "healthcare:speciality": "vaccination",
    "name": "Covid-19 | Impfzentrum | Bochum",
    "temporary": "yes",
    "vaccination": "covid19"
  }
},
{
  "type": "node",
  "id": 8225509914,
  "lat": 51.4289240,
  "lon": 6.7570934,
  "tags": {
    "addr:city": "Duisburg",
    "addr:country": "DE",
    "addr:housenumber": "20",
    "addr:postcode": "47051",
    "addr:street": "Plessingstraße",
    "amenity": "doctors",
    "description": "Hier wird in Kürze ein Impfzentrum gegen Covid-19 eröffnet werden.",
    "healthcare": "centre",
    "healthcare:speciality": "vaccination",
    "name": "Covid-19 | Impfzentrum | Duisburg",
    "temporary": "yes",
    "vaccination": "covid19"
  }
},
{
  "type": "node",
  "id": 8225511378,
  "lat": 51.5112265,
  "lon": 6.9245169,
  "tags": {
    "addr:city": "Bottrop",
    "addr:country": "DE",
    "addr:housenumber": "79",
    "addr:postcode": "46242",
    "addr:street": "Südring",
    "amenity": "doctors",
    "description": "Hier wird in Kürze ein Impfzentrum gegen Covid-19 eröffnet werden.",
    "healthcare": "centre",
    "healthcare:speciality": "vaccination",
    "name": "Covid-19 | Impfzentrum | Bottrop",
    "temporary": "yes",
    "vaccination": "covid19"
  }
},
{
  "type": "node",
  "id": 8225511859,
  "lat": 50.7954549,
  "lon": 6.4666450,
  "tags": {
    "addr:city": "Düren",
    "addr:country": "DE",
    "addr:housenumber": "18-20",
    "addr:postcode": "52355",
    "addr:street": "Am Ellernbusch",
    "amenity": "doctors",
    "description": "im ehemaligen Telekom-Gebäude",
    "healthcare": "centre",
    "healthcare:speciality": "vaccination",
    "name": "Covid-19 | Impfzentrum | Kreis Düren",
    "operator": "Kreis Düren",
    "temporary": "yes",
    "vaccination": "covid19"
  }
},
{
  "type": "node",
  "id": 8225517217,
  "lat": 51.9405033,
  "lon": 6.9537985,
  "tags": {
    "addr:city": "Velen",
    "addr:country": "DE",
    "addr:housenumber": "23",
    "addr:postcode": "46342",
    "addr:street": "Schlatt",
    "amenity": "doctors",
    "description": "Hier wird in Kürze ein Impfzentrum gegen Covid-19 eröffnet werden.",
    "healthcare": "centre",
    "healthcare:speciality": "vaccination",
    "name": "Covid-19 | Impfzentrum | Borken",
    "temporary": "yes",
    "vaccination": "covid19"
  }
},
{
  "type": "node",
  "id": 8225517474,
  "lat": 51.4886686,
  "lon": 7.4885881,
  "tags": {
    "addr:city": "Dortmund",
    "addr:country": "DE",
    "addr:housenumber": "4",
    "addr:postcode": "44263",
    "addr:street": "Phoenixplatz",
    "amenity": "doctors",
    "description": "Hier wird in Kürze ein Impfzentrum gegen Covid-19 eröffnet werden.",
    "healthcare": "centre",
    "healthcare:speciality": "vaccination",
    "name": "Covid-19 | Impfzentrum | Dortmund",
    "temporary": "yes",
    "vaccination": "covid19"
  }
},
{
  "type": "node",
  "id": 8225531343,
  "lat": 51.2614550,
  "lon": 6.7333800,
  "tags": {
    "addr:city": "Düsseldorf",
    "addr:country": "DE",
    "addr:housenumber": "1",
    "addr:postcode": "40474",
    "addr:street": "Arena-Straße",
    "amenity": "doctors",
    "description": "Hier wird in Kürze ein Impfzentrum gegen Covid-19 eröffnet werden.",
    "healthcare": "centre",
    "healthcare:speciality": "vaccination",
    "name": "Covid-19 | Impfzentrum | Düsseldorf",
    "temporary": "yes",
    "vaccination": "covid19"
  }
},
{
  "type": "node",
  "id": 8225542195,
  "lat": 51.3540726,
  "lon": 8.4862223,
  "tags": {
    "addr:city": "Olsberg",
    "addr:country": "DE",
    "addr:housenumber": "32",
    "addr:postcode": "59939",
    "addr:street": "Ruhrstraße",
    "amenity": "doctors",
    "description": "Hier wird in Kürze ein Impfzentrum gegen Covid-19 eröffnet werden.",
    "healthcare": "centre",
    "healthcare:speciality": "vaccination",
    "name": "Covid-19 | Impfzentrum | Hochsauerlandkreis",
    "temporary": "yes",
    "vaccination": "covid19"
  }
},
{
  "type": "node",
  "id": 8225543166,
  "lat": 51.6804522,
  "lon": 7.8301674,
  "tags": {
    "addr:city": "Hamm",
    "addr:country": "DE",
    "addr:housenumber": "20",
    "addr:postcode": "59063",
    "addr:street": "Marker Allee",
    "amenity": "doctors",
    "description": "Hier wird in Kürze ein Impfzentrum gegen Covid-19 eröffnet werden.",
    "healthcare": "centre",
    "healthcare:speciality": "vaccination",
    "name": "Covid-19 | Impfzentrum | Hamm",
    "temporary": "yes",
    "vaccination": "covid19"
  }
},
{
  "type": "node",
  "id": 8225543293,
  "lat": 51.3531471,
  "lon": 7.4850905,
  "tags": {
    "addr:city": "Hagen",
    "addr:country": "DE",
    "addr:housenumber": "2",
    "addr:postcode": "58093",
    "addr:street": "Wasserloses Tal",
    "amenity": "doctors",
    "description": "Hier wird in Kürze ein Impfzentrum gegen Covid-19 eröffnet werden.",
    "healthcare": "centre",
    "healthcare:speciality": "vaccination",
    "name": "Covid-19 | Impfzentrum | Hagen",
    "operator": "Stadt Hagen",
    "source": "https://www.hagen.de/web/de/hagen_de/01/0101/010101/PM_361089.html",
    "temporary": "yes",
    "vaccination": "covid19"
  }
},
{
  "type": "node",
  "id": 8225545443,
  "lat": 51.5326145,
  "lon": 7.2543455,
  "tags": {
    "addr:city": "Herne",
    "addr:country": "DE",
    "addr:housenumber": "40",
    "addr:postcode": "44627",
    "addr:street": "Am Revierpark",
    "amenity": "doctors",
    "description": "Hier wird in Kürze ein Impfzentrum gegen Covid-19 eröffnet werden.",
    "healthcare": "centre",
    "healthcare:speciality": "vaccination",
    "name": "Covid-19 | Impfzentrum | Herne",
    "temporary": "yes",
    "vaccination": "covid19"
  }
},
{
  "type": "node",
  "id": 8225555915,
  "lat": 51.7650778,
  "lon": 6.3246703,
  "tags": {
    "addr:city": "Kalkar",
    "addr:country": "DE",
    "addr:housenumber": "110",
    "addr:postcode": "47546",
    "addr:street": "Griether Straße",
    "amenity": "hospital",
    "description": "Hier wird in Kürze ein Impfzentrum gegen Covid-19 eröffnet werden.",
    "healthcare": "centre",
    "healthcare:speciality": "vaccination",
    "name": "Covid-19 | Impfzentrum | Kleve",
    "temporary": "yes",
    "vaccination": "covid19"
  }
},
{
  "type": "node",
  "id": 8225568733,
  "lat": 51.7161780,
  "lon": 9.1930099,
  "tags": {
    "addr:city": "Brakel",
    "addr:country": "DE",
    "addr:housenumber": "4",
    "addr:postcode": "33034",
    "addr:street": "Am Schützenanger",
    "amenity": "doctors",
    "description": "Hier wird in Kürze ein Impfzentrum gegen Covid-19 eröffnet werden.",
    "healthcare": "centre",
    "healthcare:speciality": "vaccination",
    "name": "Covid-19 | Impfzentrum | Höxter",
    "temporary": "yes",
    "vaccination": "covid19"
  }
},
{
  "type": "node",
  "id": 8225581918,
  "lat": 52.1670316,
  "lon": 8.5889415,
  "tags": {
    "addr:city": "Enger",
    "addr:country": "DE",
    "addr:housenumber": "16",
    "addr:postcode": "32130",
    "addr:street": "Bustedter Weg",
    "amenity": "doctors",
    "description": "Hier wird in Kürze ein Impfzentrum gegen Covid-19 eröffnet werden.",
    "healthcare": "centre",
    "healthcare:speciality": "vaccination",
    "name": "Covid-19 | Impfzentrum | Herford",
    "temporary": "yes",
    "vaccination": "covid19"
  }
},
{
  "type": "node",
  "id": 8225666195,
  "lat": 50.9448143,
  "lon": 6.9782174,
  "tags": {
    "addr:city": "Köln",
    "addr:country": "DE",
    "addr:housenumber": "1",
    "addr:postcode": "50679",
    "addr:street": "Messeplatz",
    "amenity": "doctors",
    "description": "Hier wird in Kürze ein Impfzentrum gegen Covid-19 eröffnet werden.",
    "healthcare": "centre",
    "healthcare:speciality": "vaccination",
    "name": "Covid-19 | Impfzentrum | Köln",
    "temporary": "yes",
    "vaccination": "covid19"
  }
},
{
  "type": "node",
  "id": 8225674117,
  "lat": 51.3368858,
  "lon": 6.5837127,
  "tags": {
    "addr:city": "Krefeld",
    "addr:country": "DE",
    "addr:postcode": "47799",
    "addr:street": "Sprödentalplatz",
    "amenity": "hospital",
    "building": "container",
    "description": "Hier wird in Kürze ein Impfzentrum gegen Covid-19 eröffnet werden.",
    "healthcare": "centre",
    "healthcare:speciality": "vaccination",
    "name": "Covid-19 | Impfzentrum | Krefeld",
    "temporary": "yes",
    "vaccination": "covid19"
  }
},
{
  "type": "node",
  "id": 8225674477,
  "lat": 51.2206139,
  "lon": 6.9379252,
  "tags": {
    "description": "Hier wird in Kürze ein Impfzentrum gegen Covid-19 eröffnet werden.",
    "healthcare": "centre",
    "healthcare:speciality": "vaccination",
    "name": "Covid-19 Impfzentrum Kreis Mettmann",
    "temporary": "yes",
    "vaccination": "covid19"
  }
},
{
  "type": "node",
  "id": 8225705925,
  "lat": 52.0163706,
  "lon": 8.9079058,
  "tags": {
    "addr:city": "Lemgo",
    "addr:country": "DE",
    "addr:housenumber": "39",
    "addr:postcode": "32657",
    "addr:street": "Bunsenstraße",
    "amenity": "doctors",
    "description": "Hier wird in Kürze ein Impfzentrum gegen Covid-19 eröffnet werden.",
    "healthcare": "centre",
    "healthcare:speciality": "vaccination",
    "name": "Covid-19 | Impfzentrum | Lippe",
    "temporary": "yes",
    "vaccination": "covid19"
  }
},
{
  "type": "node",
  "id": 8225859481,
  "lat": 47.8605082,
  "lon": 12.1253912,
  "tags": {
    "addr:city": "Rosenheim",
    "addr:country": "DE",
    "addr:housenumber": "1",
    "addr:postcode": "83022",
    "addr:street": "Kapuzinerweg",
    "description": "in der Inntalhalle",
    "healthcare": "centre",
    "healthcare:speciality": "vaccination",
    "name": "Impfzentrum Stadt und Landkreis Rosenheim",
    "toilets:wheelchair": "yes",
    "vaccination": "covid19",
    "wheelchair": "yes"
  }
},
{
  "type": "node",
  "id": 8226642849,
  "lat": 53.9576827,
  "lon": 9.4983231,
  "tags": {
    "healthcare": "centre",
    "healthcare:speciality": "vaccination",
    "name": "Impfzentrum Itzehoe",
    "vaccination": "covid19"
  }
},
{
  "type": "node",
  "id": 8227079858,
  "lat": 52.2706753,
  "lon": 8.0410536,
  "tags": {
    "addr:city": "Osnabrück",
    "addr:country": "DE",
    "addr:housenumber": "10",
    "addr:postcode": "49080",
    "addr:street": "Schloßwall",
    "description": "COVID-19-Impfzentrum für die Stadt Osnabrück in der Schlosswallhalle",
    "healthcare": "centre",
    "healthcare:speciality": "vaccination",
    "name": "Corona-Impfzentrum Stadt Osnabrück",
    "operator": "Johanniter Unfallhilfe",
    "vaccination": "covid19"
  }
},
{
  "type": "node",
  "id": 8227146868,
  "lat": 53.7432861,
  "lon": 9.6862239,
  "tags": {
    "addr:city": "Elmshorn",
    "addr:country": "DE",
    "addr:housenumber": "18",
    "addr:street": "Otto-Hahn-Straße",
    "healthcare": "centre",
    "healthcare:speciality": "vaccination",
    "name": "Impfzentrum Elmshorn",
    "vaccination": "covid19"
  }
},
{
  "type": "node",
  "id": 8227146869,
  "lat": 53.6713587,
  "lon": 9.7706061,
  "tags": {
    "addr:city": "Prisdorf",
    "addr:country": "DE",
    "addr:housenumber": "11-13",
    "addr:postcode": "25497",
    "addr:street": "Peiner Hag",
    "description": "Corona-Impfzentrum im ehemaligen Aldi-Markt",
    "healthcare": "centre",
    "healthcare:speciality": "vaccination",
    "name": "Impfzentrum Prisdorf",
    "vaccination": "covid19"
  }
},
{
  "type": "node",
  "id": 8227540230,
  "lat": 53.8121332,
  "lon": 10.3686583,
  "tags": {
    "addr:city": "Bad Oldesloe",
    "addr:country": "DE",
    "addr:housenumber": "2",
    "addr:postcode": "23843",
    "addr:street": "Konrad-Adenauer-Ring",
    "healthcare": "centre",
    "healthcare:speciality": "vaccination",
    "name": "Impfzentrum Nord Bad Oldesloe",
    "vaccination": "covid19"
  }
},
{
  "type": "node",
  "id": 8227540231,
  "lat": 53.6604139,
  "lon": 10.2819371,
  "tags": {
    "addr:city": "Großhansdorf",
    "addr:country": "DE",
    "addr:housenumber": "80",
    "addr:postcode": "22927",
    "addr:street": "Wöhrendamm",
    "description": "Auf dem Gelände der Lungenklinik Großhansdorf . Genauer Standort nicht bekannt",
    "healthcare": "centre",
    "healthcare:speciality": "vaccination",
    "name": "Impfzentrum Mitte Großhansdorf",
    "vaccination": "covid19"
  }
},
{
  "type": "node",
  "id": 8227924763,
  "lat": 48.3218848,
  "lon": 10.8916202,
  "tags": {
    "amenity": "doctors",
    "healthcare": "centre",
    "healthcare:speciality": "vaccination",
    "name": "COVID-19 Impfzentrum Stadt Augsburg",
    "vaccination": "covid19"
  }
},
{
  "type": "node",
  "id": 8227924764,
  "lat": 48.7102047,
  "lon": 10.7540810,
  "tags": {
    "addr:city": "Donauwörth",
    "addr:country": "DE",
    "addr:housenumber": "8",
    "addr:postcode": "86609",
    "addr:street": "Joseph-Gänsler-Straße",
    "healthcare": "centre",
    "healthcare:speciality": "vaccination",
    "name": "COVID-19 Impfzentrum Landkreis Donau-Ries - Donauwörth",
    "vaccination": "covid19"
  }
},
{
  "type": "node",
  "id": 8228600072,
  "lat": 52.3231577,
  "lon": 9.1975493,
  "tags": {
    "addr:city": "Stadthagen",
    "addr:housenumber": "19A",
    "addr:postcode": "31655",
    "addr:street": "Enzer Straße",
    "description": "in der Stadthalle Stadthagen",
    "healthcare": "centre",
    "healthcare:speciality": "vaccination",
    "name": "Corona-Impfzentrum Landkreis Schaumburg",
    "operator": "DRK Kreisverband Schaumburg",
    "vaccination": "covid19"
  }
},
{
  "type": "node",
  "id": 8229059571,
  "lat": 49.2558247,
  "lon": 10.0160443,
  "tags": {
    "alt_name": "ZIZ Rot am See",
    "healthcare": "centre",
    "healthcare:speciality": "vaccination",
    "name": "Zentrales Impfzentrum Rot am See",
    "vaccination": "covid19"
  }
},
{
  "type": "node",
  "id": 8229471524,
  "lat": 48.8262223,
  "lon": 9.3301553,
  "tags": {
    "addr:city": "Waiblingen",
    "addr:country": "DE",
    "addr:housenumber": "160",
    "addr:postcode": "71334",
    "addr:street": "Beinsteiner Straße",
    "description": "in der Rundsporthalle Waiblingen",
    "healthcare": "centre",
    "healthcare:speciality": "vaccination",
    "name": "Impfzentrum Rems-Murr-Kreis",
    "vaccination": "covid19",
    "wheelchair": "yes"
  }
},
{
  "type": "node",
  "id": 8230181208,
  "lat": 51.6524792,
  "lon": 6.6289341,
  "tags": {
    "addr:city": "Wesel",
    "addr:country": "DE",
    "addr:housenumber": "1",
    "addr:postcode": "46485",
    "addr:street": "An de Tent",
    "amenity": "hospital",
    "building": "house",
    "healthcare": "centre",
    "healthcare:speciality": "vaccination",
    "name": "Covid-19 Impfzentrum Wesel Niederrheinhalle",
    "opening_date": "2020-12",
    "operator": "Kreis Wesel",
    "temporary": "yes",
    "vaccination": "covid19"
  }
},
{
  "type": "node",
  "id": 8230598146,
  "lat": 47.7548806,
  "lon": 11.8341073,
  "tags": {
    "addr:city": "Hausham",
    "addr:country": "DE",
    "addr:housenumber": "11",
    "addr:postcode": "83734",
    "addr:street": "Alte Miesbacher Straße",
    "healthcare": "centre",
    "healthcare:speciality": "vaccination",
    "name": "Impfzentrum Landkreis Miesbach",
    "operator": "Landratsamt Miesbach",
    "vaccination": "covid19",
    "website": "https://www.landkreis-miesbach.de/B%C3%BCrgerservice/Aktuelles/Coronavirus"
  }
},
{
  "type": "node",
  "id": 8230611177,
  "lat": 49.1141776,
  "lon": 9.1714992,
  "tags": {
    "addr:city": "Heilbronn",
    "addr:country": "DE",
    "addr:housenumber": "3",
    "addr:postcode": "74081",
    "addr:street": "Nussäckerstraße",
    "addr:suburb": "Horkheim",
    "description": "Covid-19-Kreisimpfzentrum für den Stadtkreis Heilbronn in der Stauwehrhalle Horkheim",
    "healthcare": "centre",
    "healthcare:speciality": "vaccination",
    "name": "Kreisimpfzentrum Stadtkreis Heilbronn",
    "vaccination": "covid19",
    "wheelchair": "yes"
  }
},
{
  "type": "node",
  "id": 8230611178,
  "lat": 49.0542440,
  "lon": 9.2871947,
  "tags": {
    "addr:city": "Ilsfeld",
    "addr:country": "DE",
    "addr:housenumber": "1",
    "addr:postcode": "74360",
    "addr:street": "Am Ochsenweg",
    "description": "Covid-19-Kreisimpfzentrum für den Landkreis Heilbronn in der Tiefenbachhalle Ilsfeld (Ortsteil Auenstein)",
    "healthcare": "centre",
    "healthcare:speciality": "vaccination",
    "name": "Kreisimpfzentrum Landkreis Heilbronn",
    "vaccination": "covid19",
    "wheelchair": "yes"
  }
},
{
  "type": "node",
  "id": 8231100560,
  "lat": 51.6696100,
  "lon": 8.6006641,
  "tags": {
    "amenity": "doctors",
    "description": "Impfzentrum des Kreises Paderborn",
    "healthcare": "doctor",
    "healthcare:speciality": "vaccination",
    "name": "Impfzentrum für den Kreis Paderborn in der Sälzerhalle",
    "opening_hours": "off",
    "operator": "Kreis Paderborn",
    "source": "https://www.kreis-paderborn.de/kreis_paderborn/aktuelles/pressemitteilungen/saelzerhalle-wird-neues-corona-impfzentrum-des-kreises.php",
    "start_date": "2021-02",
    "temporary": "yes",
    "vaccination": "covid19"
  }
},
{
  "type": "node",
  "id": 8231138870,
  "lat": 52.4278383,
  "lon": 7.0660664,
  "tags": {
    "addr:city": "Nordhorn",
    "addr:country": "DE",
    "addr:housenumber": "4",
    "addr:postcode": "48529",
    "addr:street": "Paulstraße",
    "description": "im Erfo Bekleidungswerk, Nordhorn",
    "healthcare": "centre",
    "healthcare:speciality": "vaccination",
    "name": "Impfzentrum Landkreis Grafschaft Bentheim",
    "vaccination": "covid19",
    "wheelchair": "yes"
  }
},
{
  "type": "node",
  "id": 8231189090,
  "lat": 52.6592411,
  "lon": 8.1694601,
  "tags": {
    "addr:city": "Lohne",
    "addr:country": "DE",
    "addr:housenumber": "1",
    "addr:postcode": "49393",
    "addr:street": "Robert-Bosch-Straße",
    "description": "im Gebäude der Firma Road-Sound, Lohne",
    "healthcare": "centre",
    "healthcare:speciality": "vaccination",
    "name": "Impfzentrum Landkreis Vechta",
    "vaccination": "covid19",
    "wheelchair": "yes"
  }
},
{
  "type": "node",
  "id": 8231191859,
  "lat": 52.8443223,
  "lon": 8.7285760,
  "tags": {
    "addr:city": "Bassum",
    "addr:country": "DE",
    "addr:housenumber": "6",
    "addr:postcode": "27211",
    "addr:street": "Marie-Hackfeld-Straße",
    "description": "in der Klinik Bassum",
    "healthcare": "centre",
    "healthcare:speciality": "vaccination",
    "name": "Impfzentrum Landkreis Diepholz",
    "vaccination": "covid19",
    "wheelchair": "yes"
  }
},
{
  "type": "node",
  "id": 8231369688,
  "lat": 51.5579575,
  "lon": 8.0838055,
  "tags": {
    "addr:city": "Soest",
    "addr:country": "DE",
    "addr:housenumber": "26",
    "addr:postcode": "59494",
    "addr:street": "Senator-Schwartz-Ring",
    "amenity": "doctors",
    "description": "Hier wird in Kürze ein Impfzentrum gegen Covid-19 eröffnet werden.",
    "healthcare": "centre",
    "healthcare:speciality": "vaccination",
    "name": "Covid-19 | Impfzentrum | Soest",
    "opening_hours": "Mo-Su 08:00-20:00",
    "start_date": "2021-02-01",
    "temporary": "yes",
    "vaccination": "covid19"
  }
},
{
  "type": "node",
  "id": 8231857568,
  "lat": 48.8881352,
  "lon": 12.5629064,
  "tags": {
    "addr:city": "Straubing",
    "addr:housenumber": "75",
    "addr:postcode": "94315",
    "addr:street": "Am Hagen",
    "description": "Das gemeinsame Impfzentrum für die Stadt Straubing und den Landkreis Straubing-Bogen soll in der Messehalle am Hagen in Straubing eingerichtet werden.",
    "healthcare": "centre",
    "healthcare:speciality": "vaccination",
    "name": "Covid-19 | Impfzentrum Stadt und Landkreis Straubing | Messehalle Straubing",
    "temporary": "yes",
    "vaccination": "covid19"
  }
},
{
  "type": "node",
  "id": 8232205978,
  "lat": 53.3027975,
  "lon": 9.2842385,
  "tags": {
    "addr:city": "Zeven",
    "addr:country": "DE",
    "addr:housenumber": "2",
    "addr:postcode": "27404",
    "addr:street": "Dr.-Otto-Straße",
    "description": "im OsteMed MVZ, im ehemaligen Martin-Luther-Krankenhaus, Zeven",
    "healthcare:speciality": "vaccination",
    "name": "Impfzentrum Landkreis Rotenburg (Wümme)",
    "vaccination": "covid19",
    "wheelchair": "yes"
  }
},
{
  "type": "node",
  "id": 8232211460,
  "lat": 53.8672609,
  "lon": 8.7116486,
  "tags": {
    "addr:city": "Cuxhaven",
    "addr:country": "DE",
    "addr:housenumber": "1",
    "addr:postcode": "27472",
    "addr:street": "Lentzstraße",
    "description": "in den Hapag-Hallen, Cuxhaven",
    "healthcare": "centre",
    "healthcare:speciality": "vaccination",
    "name": "Impfzentrum Landkreis Cuxhaven",
    "vaccination": "covid19",
    "wheelchair": "yes"
  }
},
{
  "type": "node",
  "id": 8232346964,
  "lat": 49.4913696,
  "lon": 11.2509522,
  "tags": {
    "addr:city": "Röthenbach a.d.Pegnitz",
    "addr:country": "DE",
    "addr:housenumber": "47",
    "addr:postcode": "90552",
    "addr:street": "Sulzbacher Straße",
    "healthcare": "centre",
    "healthcare:speciality": "vaccination",
    "name": "Impfzentrum Nürnberger Land",
    "vaccination": "covid19"
  }
},
{
  "type": "node",
  "id": 8232356675,
  "lat": 53.2452930,
  "lon": 10.4567260,
  "tags": {
    "addr:city": "Lüneburg",
    "addr:country": "DE",
    "addr:housenumber": "27",
    "addr:postcode": "21337",
    "addr:street": "Zeppelinstraße",
    "description": "in der Firma Deerberg Outlet, Industriegebiet Lüneburg",
    "healthcare": "centre",
    "healthcare:speciality": "vaccination",
    "name": "Impfzentrum Landkreis Lüneburg",
    "vaccination": "covid19",
    "wheelchair": "yes"
  }
},
{
  "type": "node",
  "id": 8232371247,
  "lat": 49.5122828,
  "lon": 10.4148728,
  "tags": {
    "addr:city": "Bad Windsheim",
    "addr:country": "DE",
    "addr:housenumber": "2",
    "addr:postcode": "91438",
    "addr:street": "Erkenbrechtallee",
    "alt_name": "Impfzentrum Bad Windsheim",
    "description": "Befindet sich im Kur- und Kongress-Center (KKC)",
    "healthcare": "centre",
    "healthcare:speciality": "vaccination",
    "name": "Impfzentrum Landkreis Neustadt Aisch / Bad Windsheim",
    "vaccination": "covid19"
  }
},
{
  "type": "node",
  "id": 8232496364,
  "lat": 53.3517817,
  "lon": 10.2087799,
  "tags": {
    "addr:city": "Winsen (Luhe)",
    "addr:country": "DE",
    "addr:housenumber": "29",
    "addr:postcode": "21423",
    "addr:street": "Luhdorfer Straße",
    "description": "in der Stadthalle Winsen",
    "healthcare": "centre",
    "healthcare:speciality": "vaccination",
    "name": "Impfzentrum Landkreis Harburg 1 - Winsen",
    "vaccination": "covid19",
    "wheelchair": "yes"
  }
},
{
  "type": "node",
  "id": 8232498413,
  "lat": 53.3311397,
  "lon": 9.8707987,
  "tags": {
    "addr:city": "Buchholz in der Nordheide",
    "addr:country": "DE",
    "addr:housenumber": "2",
    "addr:postcode": "21244",
    "addr:street": "Richard-Schmidt-Straße",
    "description": "in der Schützenhalle Buchholz",
    "healthcare": "centre",
    "healthcare:speciality": "vaccination",
    "name": "Impfzentrum Landkreis Harburg 2 - Buchholz",
    "vaccination": "covid19",
    "wheelchair": "yes"
  }
},
{
  "type": "node",
  "id": 8232569957,
  "lat": 52.9282571,
  "lon": 9.2507511,
  "tags": {
    "addr:city": "Verden",
    "addr:country": "DE",
    "addr:housenumber": "67a",
    "addr:postcode": "27283",
    "addr:street": "Lindhooper Straße",
    "description": "im Container auf dem nördlichen Parkplatz des Kreishauses Verden",
    "healthcare": "centre",
    "healthcare:speciality": "vaccination",
    "name": "Impfzentrum Landkreis Verden",
    "vaccination": "covid19",
    "wheelchair": "yes"
  }
},
{
  "type": "node",
  "id": 8235897688,
  "lat": 48.7650596,
  "lon": 11.4201476,
  "tags": {
    "addr:city": "Ingolstadt",
    "addr:housenumber": "1",
    "addr:postcode": "85049",
    "addr:street": "Bergbräustraße",
    "healthcare": "centre",
    "healthcare:speciality": "vaccination",
    "name": "Impfzentrum Ingolstadt",
    "source": "https://www.donaukurier.de/lokales/ingolstadt/Covid-19-Das-Impfzentrum-ist-bereit;art599,4725041",
    "vaccination": "covid19"
  }
},
{
  "type": "node",
  "id": 8236668537,
  "lat": 52.6149897,
  "lon": 10.0798823,
  "tags": {
    "addr:city": "Celle",
    "addr:country": "DE",
    "addr:housenumber": "30b",
    "addr:postcode": "29221",
    "addr:street": "Hannoversche Straße",
    "description": "in der CD Kaserne, Celle",
    "healthcare": "centre",
    "healthcare:speciality": "vaccination",
    "name": "Impfzentrum Landkreis Celle",
    "vaccination": "covid19",
    "wheelchair": "yes"
  }
},
{
  "type": "node",
  "id": 8236684273,
  "lat": 52.4854166,
  "lon": 10.5355252,
  "tags": {
    "addr:city": "Gifhorn",
    "addr:country": "DE",
    "addr:housenumber": "2",
    "addr:postcode": "38518",
    "addr:street": "Schützenplatz",
    "description": "in der Stadthalle Gifhorn",
    "healthcare": "centre",
    "healthcare:speciality": "vaccination",
    "name": "Impfzentrum Landkreis Gifhorn",
    "vaccination": "covid19",
    "wheelchair": "yes"
  }
},
{
  "type": "node",
  "id": 8236688512,
  "lat": 51.9012314,
  "lon": 10.4805252,
  "tags": {
    "addr:city": "Goslar",
    "addr:country": "DE",
    "addr:housenumber": "5",
    "addr:postcode": "38642",
    "addr:street": "Bei der Eiche",
    "description": "in der Helmut-Sander Sporthalle der Adolf-Grimme-Gesamtschule, Goslar-Oker",
    "healthcare": "centre",
    "healthcare:speciality": "vaccination",
    "name": "Impfzentrum Landkreis Goslar",
    "vaccination": "covid19",
    "wheelchair": "yes"
  }
},
{
  "type": "node",
  "id": 8236741095,
  "lat": 51.5201130,
  "lon": 9.8821324,
  "tags": {
    "addr:city": "Göttingen",
    "addr:country": "DE",
    "addr:housenumber": "13",
    "addr:postcode": "37081",
    "addr:street": "Anna-Vandenhoeck-Ring",
    "addr:suburb": "Grone",
    "description": "in der ehemaligen Flüchtlingsunterkunft Göttingen-Grone",
    "healthcare": "centre",
    "healthcare:speciality": "vaccination",
    "name": "Impfzentrum Landkreis Göttingen 1 - Grone",
    "vaccination": "covid19",
    "wheelchair": "yes"
  }
},
{
  "type": "node",
  "id": 8236807751,
  "lat": 51.5389285,
  "lon": 9.9226351,
  "tags": {
    "addr:city": "Göttingen",
    "addr:country": "DE",
    "addr:housenumber": "11",
    "addr:postcode": "37081",
    "addr:street": "Godehardstraße",
    "description": "in der Sporthalle der Berufsbildenden Schulen II, Göttingen-Zentrum",
    "healthcare": "centre",
    "healthcare:speciality": "vaccination",
    "name": "Impfzentrum Landkreis Göttingen 2 - Göttingen-Zentrum",
    "vaccination": "covid19",
    "wheelchair": "yes"
  }
},
{
  "type": "node",
  "id": 8236889714,
  "lat": 51.6517913,
  "lon": 10.3395979,
  "tags": {
    "addr:city": "Herzberg am Harz",
    "addr:country": "DE",
    "addr:housenumber": "10",
    "addr:postcode": "37412",
    "addr:street": "Heidestraße",
    "description": "in der Sporthalle der Oberschule Herzberg",
    "healthcare": "centre",
    "healthcare:speciality": "vaccination",
    "name": "Impfzentrum Landkreis Göttingen 3 - Herzberg",
    "vaccination": "covid19",
    "wheelchair": "yes"
  }
},
{
  "type": "node",
  "id": 8237185790,
  "lat": 52.1219321,
  "lon": 9.3483326,
  "tags": {
    "addr:city": "Hameln",
    "addr:country": "DE",
    "addr:housenumber": "56",
    "addr:postcode": "31787",
    "addr:street": "Reimerdeskamp",
    "building": "yes",
    "description": "auf dem Gebiet der ehemaligen Britischen Rheinarmee Hameln",
    "healthcare": "centre",
    "healthcare:speciality": "vaccination",
    "name": "Impfzentrum Landkreis Hameln",
    "vaccination": "covid19",
    "wheelchair": "yes"
  }
},
{
  "type": "node",
  "id": 8237311513,
  "lat": 52.3219182,
  "lon": 9.8017814,
  "tags": {
    "addr:city": "Hannover",
    "addr:country": "DE",
    "addr:postcode": "30521",
    "addr:street": "Messegelände",
    "description": "in Halle 25 der Hannover Messe, entweder über Einfahrtor West 1 oder von Haltestelle Messe-Nord der Linie 8 mit Shuttlebus zum Impfzentrum",
    "healthcare": "centre",
    "healthcare:speciality": "vaccination",
    "name": "Impfzentrum Hannover - Region und Landeshauptstadt",
    "vaccination": "covid19",
    "website": "https://www.hannover.de/Leben-in-der-Region-Hannover/Sicherheit-Ordnung/Feuerwehr-Hannover/Bev%C3%B6lkerungs%C2%ADinformation/Informationen-zum-gemeinsamen-Impfzentrum",
    "wheelchair": "yes"
  }
},
{
  "type": "node",
  "id": 8237348825,
  "lat": 52.8750722,
  "lon": 9.7054670,
  "tags": {
    "addr:city": "Bad Fallingbostel",
    "addr:country": "DE",
    "addr:housenumber": "39",
    "addr:postcode": "29683",
    "addr:street": "Soltauer Straße",
    "description": "in der Heidmarkhalle, Bad Fallingbostel",
    "healthcare": "centre",
    "healthcare:speciality": "vaccination",
    "name": "Impfzentrum Heidekreis",
    "vaccination": "covid19",
    "wheelchair": "yes"
  }
},
{
  "type": "node",
  "id": 8237369565,
  "lat": 52.2189334,
  "lon": 10.9989077,
  "tags": {
    "addr:city": "Helmstedt",
    "addr:country": "DE",
    "addr:housenumber": "27",
    "addr:postcode": "38350",
    "addr:street": "Kantstraße",
    "description": "in der Kanthalle Helmstedt",
    "healthcare": "centre",
    "healthcare:speciality": "vaccination",
    "name": "Impfzentrum Landkreis Helmstedt",
    "vaccination": "covid19",
    "wheelchair": "yes"
  }
},
{
  "type": "node",
  "id": 8237476126,
  "lat": 52.1699443,
  "lon": 9.9398334,
  "tags": {
    "addr:city": "Hildesheim",
    "addr:country": "DE",
    "addr:housenumber": "158",
    "addr:postcode": "31137",
    "addr:street": "Steuerwalder Straße",
    "description": "in der Sporthalle der Walter-Gropius Berufsschule, Hildesheim",
    "healthcare": "centre",
    "healthcare:speciality": "vaccination",
    "name": "Impfzentrum Landkreis Hildesheim 1 - Nordstadt",
    "vaccination": "covid19",
    "wheelchair": "yes"
  }
},
{
  "type": "node",
  "id": 8237528594,
  "lat": 51.9885901,
  "lon": 9.8325397,
  "tags": {
    "addr:city": "Alfeld (Leine)",
    "addr:country": "DE",
    "addr:housenumber": "19",
    "addr:postcode": "31061",
    "addr:street": "Kalandstraße",
    "description": "in der Willi-Nikulka-Sporthalle an der Schulrat-Habermalz Hauptschule, Alfeld",
    "healthcare": "centre",
    "healthcare:speciality": "vaccination",
    "name": "Impfzentrum Landkreis Hildesheim 2 - Alfeld",
    "vaccination": "covid19",
    "wheelchair": "yes"
  }
},
{
  "type": "node",
  "id": 8237571422,
  "lat": 51.8403417,
  "lon": 9.4685371,
  "tags": {
    "addr:city": "Holzminden",
    "addr:country": "DE",
    "addr:housenumber": "6",
    "addr:postcode": "37603",
    "addr:street": "Zeppelinstraße",
    "description": "im Industriegebiet Bülte, Holzminden",
    "healthcare": "centre",
    "healthcare:speciality": "vaccination",
    "name": "Impfzentrum Landkreis Holzminden",
    "vaccination": "covid19",
    "wheelchair": "yes"
  }
},
{
  "type": "node",
  "id": 8237625911,
  "lat": 52.6923881,
  "lon": 9.2272443,
  "tags": {
    "addr:city": "Drakenburg",
    "addr:country": "DE",
    "addr:housenumber": "48",
    "addr:postcode": "31623",
    "addr:street": "Weserweg",
    "description": "in der ehemaligen Grundschule Drakenburg",
    "healthcare": "centre",
    "healthcare:speciality": "vaccination",
    "name": "Impfzentrum Landkreis Nienburg",
    "vaccination": "covid19",
    "wheelchair": "yes"
  }
},
{
  "type": "node",
  "id": 8237691335,
  "lat": 51.7058971,
  "lon": 9.9959734,
  "tags": {
    "addr:city": "Northeim",
    "addr:country": "DE",
    "addr:housenumber": "4",
    "addr:postcode": "37154",
    "addr:street": "Medenheimer Straße",
    "description": "in der Stadthalle Northeim",
    "healthcare": "centre",
    "healthcare:speciality": "vaccination",
    "name": "Impfzentrum Landkreis Northeim",
    "vaccination": "covid19",
    "wheelchair": "yes"
  }
},
{
  "type": "node",
  "id": 8237767674,
  "lat": 52.3204731,
  "lon": 10.2472964,
  "tags": {
    "addr:city": "Peine",
    "addr:country": "DE",
    "addr:housenumber": "77a",
    "addr:postcode": "31224",
    "addr:street": "Woltorfer Straße",
    "description": "Halle im Unternehmenspark II, Peine",
    "healthcare": "centre",
    "healthcare:speciality": "vaccination",
    "name": "Impfzentrum Landkreis Peine",
    "vaccination": "covid19",
    "wheelchair": "yes"
  }
},
{
  "type": "node",
  "id": 8237893052,
  "lat": 49.9590844,
  "lon": 6.5413350,
  "tags": {
    "addr:city": "Bitburg",
    "addr:country": "DE",
    "addr:postcode": "54634",
    "amenity": "doctors",
    "description": "In der  Turnhalle der ehemaligen High School in der Housing Bitburg",
    "healthcare": "centre",
    "healthcare:speciality": "vaccination",
    "name": "Impfzentrum Eifelkreis Bitburg-Prüm",
    "start_date": "TBA",
    "temporary": "yes",
    "vaccination": "covid19"
  }
},
{
  "type": "node",
  "id": 8238020363,
  "lat": 52.1588149,
  "lon": 10.3618254,
  "tags": {
    "addr:city": "Salzgitter",
    "addr:country": "DE",
    "addr:housenumber": "30-32",
    "addr:postcode": "38229",
    "addr:street": "Hans-Birnbaum-Straße",
    "description": "in der ehemaligen Flüchtlingsunterkunft",
    "healthcare": "centre",
    "healthcare:speciality": "vaccination",
    "name": "Impfzentrum Stadt Salzgitter",
    "vaccination": "covid19",
    "wheelchair": "yes"
  }
},
{
  "type": "node",
  "id": 8238116029,
  "lat": 52.4173857,
  "lon": 10.7793139,
  "tags": {
    "addr:city": "Wolfsburg",
    "addr:country": "DE",
    "addr:postcode": "38440",
    "addr:street": "Heinrich-Heine-Straße",
    "description": "im CongressPark Wolfsburg",
    "healthcare": "centre",
    "healthcare:speciality": "vaccination",
    "name": "Impfzentrum Stadt Wolfsburg",
    "vaccination": "covid19",
    "wheelchair": "yes"
  }
},
{
  "type": "node",
  "id": 8238123989,
  "lat": 52.1671097,
  "lon": 10.5700037,
  "tags": {
    "addr:city": "Wolfenbüttel",
    "addr:country": "DE",
    "addr:housenumber": "8",
    "addr:postcode": "38302",
    "addr:street": "Schweigerstraße",
    "description": "im Fitnesscenter Komm",
    "healthcare": "centre",
    "healthcare:speciality": "vaccination",
    "name": "Impfzentrum Landkreis Wolfenbüttel",
    "vaccination": "covid19",
    "wheelchair": "yes"
  }
},
{
  "type": "node",
  "id": 8238751399,
  "lat": 51.2397472,
  "lon": 7.1619700,
  "tags": {
    "description": "Impfzentrum im Zelt auf dem Parkplatz Campus Freudenberg",
    "fixme": "Lage geschätzt",
    "healthcare": "centre",
    "healthcare:speciality": "vaccination",
    "name": "Impfzentrum Stadt Wuppertal",
    "opening_date": "2021-01",
    "vaccination": "covid19"
  }
},
{
  "type": "node",
  "id": 8238770058,
  "lat": 51.0272975,
  "lon": 7.5639933,
  "tags": {
    "addr:city": "Gummersbach",
    "addr:housename": "Einkaufszentrum Bergischer Hof",
    "addr:housenumber": "1",
    "addr:postcode": "51643",
    "addr:street": "Brückenstraße",
    "addr:unit": "1.Obergeschoss",
    "amenity": "doctors",
    "description": "Impfzentrum im Einkaufszentrum Bergischer Hof",
    "healthcare": "centre",
    "healthcare:speciality": "vaccination",
    "name": "Impfzentrum Oberbergischer Kreis",
    "opening_date": "2021-01",
    "vaccination": "covid19"
  }
},
{
  "type": "node",
  "id": 8238790115,
  "lat": 50.9899525,
  "lon": 7.1239494,
  "tags": {
    "addr:city": "Bergisch Gladbach",
    "addr:housename": "Rhein-Berg-Galerie",
    "addr:housenumber": "131",
    "addr:postcode": "51465",
    "addr:street": "Hauptstraße",
    "amenity": "doctors",
    "description": "Impfzentrum in der Rhein-Berg-Galerie",
    "fixme": "Lage geschätzt",
    "healthcare": "centre",
    "healthcare:speciality": "vaccination",
    "name": "Impfzentrum Rheinisch-Bergischer Kreis",
    "opening_date": "2021-01",
    "vaccination": "covid19"
  }
},
{
  "type": "node",
  "id": 8239653048,
  "lat": 53.5626862,
  "lon": 9.9718609,
  "tags": {
    "addr:city": "Hamburg",
    "addr:country": "DE",
    "addr:housenumber": "1",
    "addr:postcode": "20357",
    "addr:street": "Messeplatz",
    "description": "in der Messehalle A3",
    "healthcare": "centre",
    "healthcare:speciality": "vaccination",
    "name": "Covid - Impfzentrum Stadt Hamburg",
    "vaccination": "covid19",
    "wheelchair": "yes"
  }
},
{
  "type": "node",
  "id": 8240041877,
  "lat": 48.6881215,
  "lon": 8.1284281,
  "tags": {
    "healthcare": "centre",
    "healthcare:speciality": "vaccination",
    "name": "COVID-19 Kreis-Impfzentrum Bühl",
    "vaccination": "covid19",
    "wheelchair": "yes"
  }
},
{
  "type": "node",
  "id": 8240041878,
  "lat": 48.7601034,
  "lon": 8.2362514,
  "tags": {
    "addr:city": "Baden-Baden",
    "addr:country": "DE",
    "addr:housenumber": "1",
    "addr:postcode": "76530",
    "addr:street": "Kaiserallee",
    "description": "im Kurhaus Baden-Baden",
    "healthcare": "centre",
    "healthcare:speciality": "vaccination",
    "name": "COVID-19 Impfzentrum Stadt Baden-Baden",
    "vaccination": "covid19",
    "wheelchair": "yes"
  }
},
{
  "type": "node",
  "id": 8240357562,
  "lat": 52.2956573,
  "lon": 8.7674883,
  "tags": {
    "addr:city": "Hille",
    "addr:country": "DE",
    "addr:housenumber": "18",
    "addr:postcode": "32479",
    "addr:street": "Schulstraße",
    "amenity": "doctors",
    "healthcare": "centre",
    "healthcare:speciality": "vaccination",
    "name": "Covid-19 | Impfzentrum | Minden-Lübbecke",
    "temporary": "yes",
    "vaccination": "covid19"
  }
},
{
  "type": "node",
  "id": 8240372281,
  "lat": 51.2193542,
  "lon": 7.6440118,
  "tags": {
    "addr:city": "Lüdenscheid",
    "addr:country": "DE",
    "addr:housenumber": "6",
    "addr:postcode": "58511",
    "addr:street": "Reckenstraße",
    "amenity": "doctors",
    "healthcare": "centre",
    "healthcare:speciality": "vaccination",
    "name": "Covid-19 | Impfzentrum | Märkischer Kreis I",
    "temporary": "yes",
    "vaccination": "covid19"
  }
},
{
  "type": "node",
  "id": 8240387689,
  "lat": 51.3784892,
  "lon": 7.6631731,
  "tags": {
    "addr:city": "Iserlohn",
    "addr:country": "DE",
    "addr:housenumber": "3",
    "addr:postcode": "58638",
    "addr:street": "Lanferkamp",
    "amenity": "doctors",
    "healthcare": "centre",
    "healthcare:speciality": "vaccination",
    "name": "Covid-19 | Impfzentrum | Märkischer Kreis II",
    "temporary": "yes",
    "vaccination": "covid19"
  }
},
{
  "type": "node",
  "id": 8240396221,
  "lat": 49.9864491,
  "lon": 8.0444346,
  "tags": {
    "addr:city": "Ingelheim am Rhein",
    "addr:housenumber": "51/5",
    "addr:postcode": "55218",
    "addr:street": "Konrad-Adenauer-Str.",
    "description": "In der ehemaligen Aufnahmeeinrichtung für Asylbegehrende in Ingelheim",
    "healthcare": "centre",
    "healthcare:speciality": "vaccination",
    "name": "Impfzentrum Landkreis Mainz-Bingen",
    "operator": "Kreisverwaltung Mainz-Bingen",
    "vaccination": "covid19"
  }
},
{
  "type": "node",
  "id": 8240457977,
  "lat": 48.4626577,
  "lon": 7.9328009,
  "tags": {
    "addr:city": "Offenburg",
    "addr:housenumber": "3",
    "addr:postcode": "77656",
    "addr:street": "Schutterwälder Straße",
    "description": "In der Eislaufhalle Offenburg",
    "healthcare": "centre",
    "healthcare:speciality": "vaccination",
    "name": "COVID-19 Impfzentrum Offenburg",
    "vaccination": "covid19",
    "wheelchair": "yes"
  }
},
{
  "type": "node",
  "id": 8240501391,
  "lat": 48.3444556,
  "lon": 7.8318673,
  "tags": {
    "addr:city": "Lahr/Schwarzwald",
    "addr:housenumber": "15",
    "addr:postcode": "77933",
    "addr:street": "Rheinstraße",
    "description": "In der Rheintalhalle Lahr",
    "healthcare": "centre",
    "healthcare:speciality": "vaccination",
    "name": "Kreisimpfzentrum Lahr",
    "vaccination": "covid19"
  }
},
{
  "type": "node",
  "id": 8240699315,
  "lat": 53.8668204,
  "lon": 11.1946660,
  "tags": {
    "addr:city": "Grevesmühlen",
    "addr:country": "DE",
    "addr:housenumber": "4",
    "addr:postcode": "23936",
    "addr:street": "Am Ploggensee",
    "description": "im existierenden Testzentrum",
    "healthcare": "centre",
    "healthcare:speciality": "vaccination",
    "name": "Impfzentrum Landkreis Nordwestmecklenburg 2 - Grevesmühlen",
    "vaccination": "covid19",
    "wheelchair": "yes"
  }
},
{
  "type": "node",
  "id": 8240754460,
  "lat": 51.4231967,
  "lon": 6.8517790,
  "tags": {
    "addr:city": "Mülheim an der Ruhr",
    "addr:housenumber": "5",
    "addr:postcode": "45478",
    "addr:street": "Wissollstraße",
    "amenity": "doctors",
    "healthcare": "centre",
    "healthcare:speciality": "vaccination",
    "name": "Covid-19 | Impfzentrum | Mülheim an der Ruhr",
    "temporary": "yes",
    "vaccination": "covid19"
  }
},
{
  "type": "node",
  "id": 8240792140,
  "lat": 51.1323734,
  "lon": 7.9189539,
  "tags": {
    "addr:city": "Attendorn",
    "addr:housenumber": "34",
    "addr:postcode": "57439",
    "addr:street": "Heggener Weg",
    "amenity": "doctors",
    "healthcare": "centre",
    "healthcare:speciality": "vaccination",
    "name": "Covid-19 | Impfzentrum | Olpe",
    "temporary": "yes",
    "vaccination": "covid19"
  }
},
{
  "type": "node",
  "id": 8240798328,
  "lat": 51.9474674,
  "lon": 7.6380596,
  "tags": {
    "addr:city": "Münster",
    "addr:housenumber": "32",
    "addr:postcode": "48155",
    "addr:street": "Albersloher Weg",
    "amenity": "doctors",
    "healthcare": "centre",
    "healthcare:speciality": "vaccination",
    "name": "Covid-19 | Impfzentrum | Münster",
    "temporary": "yes",
    "vaccination": "covid19"
  }
},
{
  "type": "node",
  "id": 8240828234,
  "lat": 50.8793865,
  "lon": 6.8749523,
  "tags": {
    "addr:city": "Hürth",
    "addr:postcode": "50354",
    "addr:street": "Hürth-Park",
    "amenity": "doctors",
    "fixme": "genaue Position im ehemaligen Real-Markt nachtragen",
    "healthcare": "centre",
    "healthcare:speciality": "vaccination",
    "name": "Covid-19 | Impfzentrum | Rhein-Erft-Kreis",
    "temporary": "yes",
    "vaccination": "covid19"
  }
},
{
  "type": "node",
  "id": 8240849626,
  "lat": 50.8506228,
  "lon": 7.9949744,
  "tags": {
    "addr:city": "Siegen",
    "addr:housenumber": "236",
    "addr:postcode": "57080",
    "addr:street": "Eiserfelder Straße",
    "amenity": "doctors",
    "description": "im ehemaligen Bauking-Gebäude Eiserfeld",
    "healthcare": "centre",
    "healthcare:speciality": "vaccination",
    "name": "Impfzentrum Kreis Siegen-Wittgenstein",
    "temporary": "yes",
    "vaccination": "covid19",
    "wheelchair": "yes"
  }
},
{
  "type": "node",
  "id": 8240860318,
  "lat": 52.1305837,
  "lon": 7.6928464,
  "tags": {
    "addr:city": "Greven",
    "addr:housenumber": "1",
    "addr:postcode": "48268",
    "addr:street": "Airportallee",
    "amenity": "doctors",
    "healthcare": "centre",
    "healthcare:speciality": "vaccination",
    "name": "Covid-19 | Impfzentrum | Steinfurt",
    "temporary": "yes",
    "vaccination": "covid19"
  }
},
{
  "type": "node",
  "id": 8240867538,
  "lat": 54.3035628,
  "lon": 13.0364075,
  "tags": {
    "addr:city": "Stralsund",
    "addr:country": "DE",
    "addr:housenumber": "110",
    "addr:postcode": "18437",
    "addr:street": "Rostocker Chaussee",
    "description": "im Stralsunder Innovation Consult (SIC)",
    "healthcare": "centre",
    "healthcare:speciality": "vaccination",
    "name": "Impfzentrum Landkreis Vorpommern-Rügen",
    "vaccination": "covid19",
    "wheelchair": "yes"
  }
},
{
  "type": "node",
  "id": 8240870937,
  "lat": 51.5457212,
  "lon": 7.6882893,
  "tags": {
    "addr:city": "Unna",
    "addr:housenumber": "20",
    "addr:postcode": "59425",
    "addr:street": "Platanenallee",
    "amenity": "doctors",
    "healthcare": "centre",
    "healthcare:speciality": "vaccination",
    "name": "Covid-19 | Impfzentrum | Unna",
    "temporary": "yes",
    "vaccination": "covid19"
  }
},
{
  "type": "node",
  "id": 8240889746,
  "lat": 51.8500004,
  "lon": 8.0208027,
  "tags": {
    "addr:city": "Ennigerloh",
    "addr:housenumber": "10",
    "addr:postcode": "59320",
    "addr:street": "Westring",
    "amenity": "doctors",
    "description": "COVID-19 vaccination centre",
    "healthcare": "centre",
    "healthcare:speciality": "vaccination",
    "name": "Impfzentrum Kreis Warendorf",
    "opening_hours": "Mo-Su 08:00-20:00",
    "opening_hours:covid19": "same",
    "temporary": "yes",
    "vaccination": "covid19"
  }
},
{
  "type": "node",
  "id": 8240925699,
  "lat": 53.5231754,
  "lon": 12.6459832,
  "tags": {
    "addr:city": "Waren (Müritz)",
    "addr:country": "DE",
    "addr:housenumber": "18",
    "addr:postcode": "17192",
    "addr:street": "Warendorfer Straße",
    "description": "im Überregionalen Ausbildungszentrum (ÜAZ), Waren",
    "healthcare": "centre",
    "healthcare:speciality": "vaccination",
    "name": "Impfzentrum Landkreis Mecklenburgische Seenplatte 1 - Waren",
    "vaccination": "covid19",
    "wheelchair": "yes"
  }
},
{
  "type": "node",
  "id": 8240976080,
  "lat": 53.6046011,
  "lon": 13.2987812,
  "tags": {
    "addr:city": "Trollenhagen",
    "addr:country": "DE",
    "addr:housenumber": "9",
    "addr:postcode": "17039",
    "addr:street": "Flughafenstraße",
    "description": "im Flughafen Neubrandenburg-Trollenhagen",
    "healthcare": "centre",
    "healthcare:speciality": "vaccination",
    "name": "Impfzentrum Landkreis Mecklenburgische Seenplatte 2 - Trollenhagen",
    "vaccination": "covid19",
    "wheelchair": "yes"
  }
},
{
  "type": "node",
  "id": 8241239051,
  "lat": 49.1690380,
  "lon": 9.8480509,
  "tags": {
    "alt_name": "KIZ Wolpertshausen",
    "healthcare": "centre",
    "healthcare:speciality": "vaccination",
    "name": "Kreisimpfzentrum Wolpertshausen",
    "vaccination": "covid19"
  }
},
{
  "type": "node",
  "id": 8241802600,
  "lat": 48.4629138,
  "lon": 11.1399008,
  "tags": {
    "addr:city": "Aichach",
    "addr:country": "DE",
    "addr:housenumber": "11",
    "addr:postcode": "86551",
    "addr:street": "Krankenhausstraße",
    "description": "Kapazität geplant 90 Personen/Tag, vor allem für Beschäftigte aus dem Gesundheitsbereich",
    "healthcare": "centre",
    "healthcare:speciality": "vaccination",
    "location": "Im alten Krankenhaus",
    "name": "Impfzentrum Aichach-Friedberg",
    "operator": "Vitolus GmbH",
    "vaccination": "covid19"
  }
},
{
  "type": "node",
  "id": 8241806319,
  "lat": 48.3982437,
  "lon": 11.0862189,
  "tags": {
    "addr:city": "Aichach",
    "addr:country": "DE",
    "addr:housenumber": "6",
    "addr:postcode": "86551",
    "addr:street": "Carl-von-Linde-Straße",
    "addr:suburb": "Gallenbach",
    "description": "Kapazität geplant 200 Personen/Tag",
    "healthcare": "centre",
    "healthcare:speciality": "vaccination",
    "name": "Impfzentrum Aichach-Friedberg",
    "operator": "Vitolus GmbH",
    "start_date": "2021-01",
    "toilets": "yes",
    "vaccination": "covid19",
    "wheelchair": "yes"
  }
},
{
  "type": "node",
  "id": 8241868746,
  "lat": 53.8853796,
  "lon": 11.4387551,
  "tags": {
    "addr:city": "Wismar",
    "addr:country": "DE",
    "addr:postcode": "23966",
    "addr:street": "Friedrich-Wolf-Straße",
    "description": "im Sana Hanse-Klinikum Wismar",
    "healthcare": "centre",
    "healthcare:speciality": "vaccination",
    "name": "Impfzentrum Landkreis Nordwestmecklenburg 1 - Wismar",
    "vaccination": "covid19",
    "wheelchair": "yes"
  }
},
{
  "type": "node",
  "id": 8242420581,
  "lat": 52.6132232,
  "lon": 11.8471659,
  "tags": {
    "healthcare": "centre",
    "healthcare:speciality": "vaccination",
    "name": "Impfzentrum Landkreis Stendal",
    "vaccination": "covid19"
  }
},
{
  "type": "node",
  "id": 8242495604,
  "lat": 50.2033065,
  "lon": 10.0741119,
  "tags": {
    "addr:city": "Bad Kissingen",
    "addr:housenumber": "2",
    "addr:postcode": "97688",
    "addr:street": "Reithausplatz",
    "healthcare": "centre",
    "healthcare:speciality": "vaccination",
    "name": "Impfzentrum Landkreis Bad Kissingen",
    "vaccination": "covid19"
  }
},
{
  "type": "node",
  "id": 8242603854,
  "lat": 53.9196939,
  "lon": 10.6973442,
  "tags": {
    "addr:city": "Bad Schwartau",
    "addr:country": "DE",
    "addr:housenumber": "15",
    "addr:postcode": "23611",
    "addr:street": "Markt",
    "description": "ehemaliges Amtsgericht",
    "healthcare": "centre",
    "healthcare:speciality": "vaccination",
    "name": "Impfzentrum Bad Schwartau (Kreis Ostholstein)",
    "operator": "Kreis Ostholstein",
    "vaccination": "covid19",
    "wheelchair": "yes"
  }
},
{
  "type": "node",
  "id": 8242631026,
  "lat": 53.7078931,
  "lon": 9.9937925,
  "tags": {
    "addr:city": "Norderstedt",
    "addr:country": "DE",
    "addr:housenumber": "50",
    "addr:postcode": "22846",
    "addr:street": "Rathausallee",
    "description": "in den Räumen der TriBühne",
    "healthcare": "centre",
    "healthcare:speciality": "vaccination",
    "name": "Impfzentrum Norderstedt (im Aufbau)",
    "vaccination": "covid19",
    "wheelchair": "yes"
  }
},
{
  "type": "node",
  "id": 8243034807,
  "lat": 48.2701027,
  "lon": 11.5866199,
  "tags": {
    "healthcare": "vaccination_centre",
    "healthcare:speciality": "vaccination",
    "name": "Impfzentrum Unterschleißheim",
    "vaccination": "covid19"
  }
},
{
  "type": "node",
  "id": 8243084560,
  "lat": 48.8923523,
  "lon": 9.1682222,
  "tags": {
    "addr:city": "Ludwigsburg",
    "addr:country": "DE",
    "addr:housenumber": "33",
    "addr:postcode": "71636",
    "addr:street": "Grönerstraße",
    "amenity": "doctors",
    "description": "Zwei Impfzentren in der Halle auf dem Urbanharbor-Gelände, Startbeginn 15.01.2021",
    "healthcare": "vaccination_centre",
    "healthcare:speciality": "vaccination",
    "name": "Impfzentrum Ludwigsburg",
    "start_date": "2021-01-15",
    "temporary": "yes",
    "vaccination": "covid19"
  }
},
{
  "type": "node",
  "id": 8243330509,
  "lat": 49.4166133,
  "lon": 11.1186528,
  "tags": {
    "description": "in der Halle 3C, Messegelände",
    "healthcare": "centre",
    "healthcare:speciality": "vaccination",
    "name": "Impfzentrum Nürnberg",
    "vaccination": "covid19"
  }
},
{
  "type": "node",
  "id": 8243364331,
  "lat": 49.6565250,
  "lon": 9.9736628,
  "tags": {
    "addr:city": "Giebelstadt",
    "addr:housenumber": "118",
    "addr:postcode": "97232",
    "addr:street": "Levi-Strauss-Straße",
    "alt_name": "Impfzentrum Würzburg - Standort Giebelstadt",
    "description": "im Hangar 3 des Flugplatzes Giebelstadt",
    "healthcare": "centre",
    "healthcare:speciality": "vaccination",
    "name": "Covid-19 | Impfzentrum Landkreis Würzburg | Hangar 3",
    "vaccination": "covid19",
    "website": "https://www.impfen-wuerzburg.de/"
  }
},
{
  "type": "node",
  "id": 8243479946,
  "lat": 49.1213177,
  "lon": 10.7855702,
  "tags": {
    "addr:city": "Gunzenhausen",
    "addr:country": "DE",
    "addr:housenumber": "7",
    "addr:postcode": "91710",
    "addr:street": "Spitalfeldstraße",
    "description": "im Altmühl-Center",
    "healthcare": "centre",
    "healthcare:speciality": "vaccination",
    "name": "Impfzentrum Landkreis Weißenburg / Gunzenhausen",
    "vaccination": "covid19"
  }
},
{
  "type": "node",
  "id": 8243506575,
  "lat": 49.2998509,
  "lon": 10.5566892,
  "tags": {
    "addr:city": "Ansbach",
    "addr:country": "DE",
    "addr:postcode": "91522",
    "addr:street": "Am Onolzbach",
    "alt_name": "Impfzentrum Stadt und Landkreis Ansbach",
    "description": "auf dem Messegelände",
    "healthcare": "centre",
    "healthcare:speciality": "vaccination",
    "name": "Impfzentrum Ansbach",
    "note": "Befindet sich auf dem Messegelände, genaue Lage unbekannt.",
    "vaccination": "covid19"
  }
},
{
  "type": "node",
  "id": 8243753964,
  "lat": 53.9508881,
  "lon": 10.1938695,
  "tags": {
    "description": "in der Einfeld-Tennishalle",
    "healthcare": "centre",
    "healthcare:speciality": "vaccination",
    "name": "Impfzentrum Wahlstedt",
    "vaccination": "covid19"
  }
},
{
  "type": "node",
  "id": 8243762136,
  "lat": 53.8228810,
  "lon": 9.9759132,
  "tags": {
    "healthcare": "centre",
    "healthcare:speciality": "vaccination",
    "name": "Impfzentrum Kaltenkirchen",
    "vaccination": "covid19"
  }
},
{
  "type": "node",
  "id": 8243798500,
  "lat": 53.4441902,
  "lon": 10.3846657,
  "tags": {
    "description": "in den Räumen des BBZ",
    "healthcare": "centre",
    "healthcare:speciality": "vaccination",
    "name": "Impfzentrum Süd Geesthacht",
    "vaccination": "covid19"
  }
},
{
  "type": "node",
  "id": 8243826320,
  "lat": 53.6226989,
  "lon": 10.6727092,
  "tags": {
    "description": "in den ehemaligen Räumen des Schleswag",
    "healthcare": "centre",
    "healthcare:speciality": "vaccination",
    "name": "Impfzentrum Nord Alt-Mölln",
    "vaccination": "covid19"
  }
},
{
  "type": "node",
  "id": 8244252707,
  "lat": 52.5243539,
  "lon": 11.3961381,
  "tags": {
    "healthcare": "centre",
    "healthcare:speciality": "vaccination",
    "name": "Impfzentrum Altmarkkreis Salzwedel",
    "vaccination": "covid19"
  }
},
{
  "type": "node",
  "id": 8244298559,
  "lat": 52.1354624,
  "lon": 11.6717913,
  "tags": {
    "healthcare": "centre",
    "healthcare:speciality": "vaccination",
    "name": "Impfzentrum Landeshauptstadt Magdeburg",
    "vaccination": "covid19"
  }
},
{
  "type": "node",
  "id": 8244360159,
  "lat": 52.3847384,
  "lon": 13.1174129,
  "tags": {
    "amenity": "clinic",
    "description": "Covid19-Impfzentrum Potsdam: Metropolis-Halle",
    "healthcare": "centre",
    "healthcare:speciality": "vaccination",
    "name": "Impfzentrum",
    "vaccination": "covid19"
  }
},
{
  "type": "node",
  "id": 8244404469,
  "lat": 47.8201627,
  "lon": 12.9563811,
  "tags": {
    "addr:city": "Ainring",
    "addr:housenumber": "9",
    "addr:street": "Industriestraße",
    "healthcare": "centre",
    "healthcare:speciality": "vaccination",
    "name": "Impfzentrum Berchtesgadener Land",
    "start_date": "2020-12-28",
    "vaccination": "covid19",
    "website": "http://www.impfzentrum-bgl.de"
  }
},
{
  "type": "node",
  "id": 8244624482,
  "lat": 50.5765823,
  "lon": 13.0126171,
  "tags": {
    "addr:city": "Annaberg-Buchholz",
    "addr:country": "DE",
    "addr:housenumber": "4",
    "addr:postcode": "09456",
    "addr:street": "Ernst-Roch-Straße",
    "healthcare": "centre",
    "healthcare:speciality": "vaccination",
    "name": "Impfzentrum Erzgebirgskreis",
    "vaccination": "covid19"
  }
},
{
  "type": "node",
  "id": 8244644281,
  "lat": 51.0993263,
  "lon": 14.6755207,
  "tags": {
    "addr:city": "Löbau",
    "addr:country": "DE",
    "addr:housenumber": "2",
    "addr:postcode": "02708",
    "addr:street": "Görlitzer Straße",
    "healthcare": "centre",
    "healthcare:speciality": "vaccination",
    "name": "Impfzentrum Landkreis Görlitz",
    "vaccination": "covid19"
  }
},
{
  "type": "node",
  "id": 8244666659,
  "lat": 51.2894622,
  "lon": 14.1159500,
  "tags": {
    "addr:city": "Kamenz",
    "addr:country": "DE",
    "addr:housenumber": "146",
    "addr:postcode": "01917",
    "addr:street": "Macherstraße",
    "healthcare": "centre",
    "healthcare:speciality": "vaccination",
    "name": "Impfzentrum Landkreis Bautzen",
    "vaccination": "covid19"
  }
},
{
  "type": "node",
  "id": 8244678844,
  "lat": 51.2974636,
  "lon": 13.2948881,
  "tags": {
    "addr:city": "Riesa",
    "addr:country": "DE",
    "addr:housenumber": "5",
    "addr:postcode": "01589",
    "addr:street": "Am Sportzentrum",
    "healthcare": "centre",
    "healthcare:speciality": "vaccination",
    "name": "Impfzentrum Landkreis Meißen",
    "vaccination": "covid19"
  }
},
{
  "type": "node",
  "id": 8244683613,
  "lat": 51.3951925,
  "lon": 12.4049179,
  "tags": {
    "addr:city": "Leipzig",
    "addr:country": "DE",
    "addr:housenumber": "1",
    "addr:postcode": "04356",
    "addr:street": "Messe-Allee",
    "disused:shop": "supermarket",
    "healthcare": "centre",
    "healthcare:speciality": "vaccination",
    "name": "Impfzentrum Leipzig",
    "vaccination": "covid19"
  }
},
{
  "type": "node",
  "id": 8244683614,
  "lat": 50.9852299,
  "lon": 12.9732104,
  "tags": {
    "addr:city": "Mittweida",
    "addr:country": "DE",
    "addr:housenumber": "1",
    "addr:postcode": "09648",
    "addr:street": "Schillerstraße",
    "healthcare": "centre",
    "healthcare:speciality": "vaccination",
    "name": "Impfzentrum Landkreis Mittelsachsen",
    "vaccination": "covid19"
  }
},
{
  "type": "node",
  "id": 8244712320,
  "lat": 51.4781965,
  "lon": 13.1313685,
  "tags": {
    "addr:city": "Belgern-Schildau",
    "addr:country": "DE",
    "addr:housenumber": "37",
    "addr:postcode": "04874",
    "addr:street": "Mühlberger Straße",
    "healthcare": "centre",
    "healthcare:speciality": "vaccination",
    "name": "Impfzentrum Landkreis Nordsachsen",
    "vaccination": "covid19"
  }
},
{
  "type": "node",
  "id": 8244720718,
  "lat": 50.7040753,
  "lon": 12.4968302,
  "tags": {
    "addr:city": "Zwickau",
    "addr:country": "DE",
    "addr:housenumber": "1",
    "addr:postcode": "08056",
    "addr:street": "Bergmannsstraße",
    "healthcare": "centre",
    "healthcare:speciality": "vaccination",
    "name": "Impfzentrum Landkreis Zwickau",
    "vaccination": "covid19"
  }
},
{
  "type": "node",
  "id": 8245170168,
  "lat": 47.6305924,
  "lon": 8.2758622,
  "tags": {
    "healthcare": "centre",
    "healthcare:speciality": "vaccination",
    "name": "COVID-19 Impfzentrum Tiengen in der Stadthalle",
    "source": "https://www.baden-wuerttemberg.de/de/service/aktuelle-infos-zu-corona/fragen-und-antworten-rund-um-corona/faq-impfzentren/",
    "vaccination": "covid19"
  }
},
{
  "type": "node",
  "id": 8245187773,
  "lat": 47.7611443,
  "lon": 8.8325403,
  "tags": {
    "healthcare": "centre",
    "healthcare:speciality": "vaccination",
    "name": "COVID-19 Impfzentrum Stadthalle Singen",
    "source": "https://www.baden-wuerttemberg.de/de/service/aktuelle-infos-zu-corona/fragen-und-antworten-rund-um-corona/faq-impfzentren/",
    "vaccination": "covid19"
  }
},
{
  "type": "node",
  "id": 8245239585,
  "lat": 48.1586146,
  "lon": 8.6299860,
  "tags": {
    "healthcare": "centre",
    "healthcare:speciality": "vaccination",
    "name": "COVID-19 Impfzentrum Stadthalle Rottweil",
    "source": "https://www.baden-wuerttemberg.de/de/service/aktuelle-infos-zu-corona/fragen-und-antworten-rund-um-corona/faq-impfzentren/",
    "vaccination": "covid19"
  }
},
{
  "type": "node",
  "id": 8245264446,
  "lat": 48.2017822,
  "lon": 7.7677208,
  "tags": {
    "addr:city": "Kenzingen",
    "addr:country": "DE",
    "addr:housenumber": "26",
    "addr:postcode": "79341",
    "addr:street": "Industriestraße",
    "description": "im ehemaligen ALDI Markt, Kenzingen",
    "healthcare": "centre",
    "healthcare:speciality": "vaccination",
    "name": "COVID-19 Impfzentrum Landkreis EmmendingenKenzingen, im ehemaligen ALDI Kenzingen",
    "source": "https://www.baden-wuerttemberg.de/de/service/aktuelle-infos-zu-corona/fragen-und-antworten-rund-um-corona/faq-impfzentren/",
    "vaccination": "covid19"
  }
},
{
  "type": "node",
  "id": 8245303528,
  "lat": 47.6309466,
  "lon": 7.6788591,
  "tags": {
    "healthcare": "centre",
    "healthcare:speciality": "vaccination",
    "name": "COVID-19 Impfzentrum Lörrach im Sportzentrum Impulsiv",
    "source": "https://www.baden-wuerttemberg.de/de/service/aktuelle-infos-zu-corona/fragen-und-antworten-rund-um-corona/faq-impfzentren/",
    "vaccination": "covid19"
  }
},
{
  "type": "node",
  "id": 8245340757,
  "lat": 48.0500939,
  "lon": 8.5423427,
  "tags": {
    "healthcare": "centre",
    "healthcare:speciality": "vaccination",
    "name": "COVID-19 Impfzentrum Villingen-Schweningen im Tennisclub Schwenningen (TCS)",
    "source": "https://www.baden-wuerttemberg.de/de/service/aktuelle-infos-zu-corona/fragen-und-antworten-rund-um-corona/faq-impfzentren/",
    "vaccination": "covid19"
  }
},
{
  "type": "node",
  "id": 8245381304,
  "lat": 47.9863816,
  "lon": 8.8100675,
  "tags": {
    "fixme": "Ist die \"Mühlausporthalle\" die richtige Halle (\"Kreissporthalle\")",
    "healthcare": "centre",
    "healthcare:speciality": "vaccination",
    "name": "COVID-19 Impfzentrum Kreissporthalle Tuttlingen",
    "source": "https://www.baden-wuerttemberg.de/de/service/aktuelle-infos-zu-corona/fragen-und-antworten-rund-um-corona/faq-impfzentren/",
    "vaccination": "covid19"
  }
},
{
  "type": "node",
  "id": 8245389777,
  "lat": 49.3539917,
  "lon": 9.1481899,
  "tags": {
    "healthcare": "centre",
    "healthcare:speciality": "vaccination",
    "name": "COVID-19 Impfzentrum Mosbach Obertorzentrum",
    "source": "https://www.baden-wuerttemberg.de/de/service/aktuelle-infos-zu-corona/fragen-und-antworten-rund-um-corona/faq-impfzentren/",
    "vaccination": "covid19"
  }
},
{
  "type": "node",
  "id": 8245472951,
  "lat": 48.6226985,
  "lon": 8.6437735,
  "tags": {
    "addr:city": "Altensteig",
    "addr:country": "DE",
    "addr:housenumber": "28",
    "addr:postcode": "72213",
    "addr:street": "Wildbader Straße",
    "description": "im Congress Center Altensteig-Wart (DEKRA)",
    "healthcare": "centre",
    "healthcare:speciality": "vaccination",
    "name": "COVID-19 Impfzentrum Landkreis Calw, Congress Center Altensteig-Wart (DEKRA)",
    "source": "https://www.baden-wuerttemberg.de/de/service/aktuelle-infos-zu-corona/fragen-und-antworten-rund-um-corona/faq-impfzentren/",
    "vaccination": "covid19"
  }
},
{
  "type": "node",
  "id": 8245499836,
  "lat": 48.8655735,
  "lon": 8.8552615,
  "tags": {
    "addr:city": "Mönsheim",
    "addr:country": "DE",
    "addr:housenumber": "85",
    "addr:postcode": "71297",
    "addr:street": "Pforzheimer Straße",
    "description": "in der Mönsheim Appenberg Sporthalle",
    "healthcare": "centre",
    "healthcare:speciality": "vaccination",
    "name": "COVID-19 Impfzentrum Enzkreis, Mönsheim Appenberg Sporthalle",
    "source": "https://www.baden-wuerttemberg.de/de/service/aktuelle-infos-zu-corona/fragen-und-antworten-rund-um-corona/faq-impfzentren/",
    "vaccination": "covid19"
  }
},
{
  "type": "node",
  "id": 8245608778,
  "lat": 49.0987428,
  "lon": 8.8592817,
  "tags": {
    "fixme": "Position unsicher, bitte prüfen",
    "healthcare": "centre",
    "healthcare:speciality": "vaccination",
    "name": "COVID-19 Impfzentrum LK Karlsruhe, Sulzfeld, EGO-Halle 4",
    "source": "https://www.baden-wuerttemberg.de/de/service/aktuelle-infos-zu-corona/fragen-und-antworten-rund-um-corona/faq-impfzentren/",
    "vaccination": "covid19"
  }
},
{
  "type": "node",
  "id": 8245613044,
  "lat": 48.4702241,
  "lon": 8.5098592,
  "tags": {
    "healthcare": "centre",
    "healthcare:speciality": "vaccination",
    "name": "COVID-19 Impfzentrum LK Freudenstadt, Dornstetten, Riedsteighalle",
    "source": "https://www.baden-wuerttemberg.de/de/service/aktuelle-infos-zu-corona/fragen-und-antworten-rund-um-corona/faq-impfzentren/",
    "vaccination": "covid19"
  }
},
{
  "type": "node",
  "id": 8245648724,
  "lat": 48.8961619,
  "lon": 8.7230844,
  "tags": {
    "healthcare": "centre",
    "healthcare:speciality": "vaccination",
    "name": "COVID-19 Impfzentrum Pforzheim St-Maur Eissporthalle",
    "source": "https://www.baden-wuerttemberg.de/de/service/aktuelle-infos-zu-corona/fragen-und-antworten-rund-um-corona/faq-impfzentren/",
    "vaccination": "covid19"
  }
},
{
  "type": "node",
  "id": 8246216705,
  "lat": 50.0474594,
  "lon": 10.2028210,
  "tags": {
    "addr:city": "Schweinfurt",
    "healthcare": "centre",
    "healthcare:speciality": "vaccination",
    "name": "Covid-19 | Impfzentrum Stadt und Landkreis Schweinfurt",
    "opening_date": "2020-12-23",
    "vaccination": "covid19"
  }
},
{
  "type": "node",
  "id": 8246351113,
  "lat": 53.6276772,
  "lon": 11.3929376,
  "tags": {
    "addr:city": "Schwerin",
    "addr:country": "DE",
    "addr:housenumber": "118",
    "addr:postcode": "19059",
    "addr:street": "Wittenburger Straße",
    "description": "in der Sport- und Kongresshalle Schwerin",
    "healthcare": "centre",
    "healthcare:speciality": "vaccination",
    "name": "Impfzentrum Stadt Schwerin",
    "toilets:wheelchair": "yes",
    "vaccination": "covid19",
    "wheelchair": "yes",
    "wikidata": "Q2312253",
    "wikipedia": "de:Sport- und Kongresshalle (Schwerin)"
  }
},
{
  "type": "node",
  "id": 8247021350,
  "lat": 50.0060488,
  "lon": 9.2220556,
  "tags": {
    "addr:city": "Hösbach",
    "addr:country": "DE",
    "addr:housenumber": "2",
    "addr:postcode": "63768",
    "addr:street": "Industriestraße",
    "description": "Hier wird in Kürze das Impfzentrum gegen Covid-19 eröffnet werden. Details folgen sobald bekannt.",
    "healthcare": "centre",
    "healthcare:speciality": "vaccination",
    "name": "Covid-19 | Impfzentrum Stadt und Landkreis Aschaffenburg | A3-Center Hösbach",
    "temporary": "yes",
    "vaccination": "covid19"
  }
},
{
  "type": "node",
  "id": 8247248672,
  "lat": 48.7052314,
  "lon": 9.0385375,
  "tags": {
    "addr:city": "Sindelfingen",
    "addr:country": "DE",
    "addr:housenumber": "116",
    "addr:postcode": "71065",
    "addr:street": "Mahdentalstraße",
    "description": "in der Messehalle Sindelfingen",
    "healthcare": "centre",
    "healthcare:speciality": "vaccination",
    "name": "COVID-19 Impfzentrum Landkreis Böblingen, Messehalle Sindelfingen",
    "source": "https://www.baden-wuerttemberg.de/de/service/aktuelle-infos-zu-corona/fragen-und-antworten-rund-um-corona/faq-impfzentren/",
    "vaccination": "covid19"
  }
},
{
  "type": "node",
  "id": 8247303754,
  "lat": 49.4867164,
  "lon": 9.7702845,
  "tags": {
    "amenity": "clinic",
    "healthcare": "vaccination_centre",
    "healthcare:speciality": "vaccination",
    "name": "COVID-19 Kreisimpfzentrum Main-Tauber-Kreis",
    "source": "https://www.baden-wuerttemberg.de/de/service/aktuelle-infos-zu-corona/fragen-und-antworten-rund-um-corona/faq-impfzentren/",
    "vaccination": "covid19"
  }
},
{
  "type": "node",
  "id": 8247305988,
  "lat": 48.7126563,
  "lon": 9.6893071,
  "tags": {
    "alt_name": "Impfzentrum Landkreis Göppingen",
    "amenity": "doctors",
    "description": "Kreisimpfzentrum des Landkreises Göppingen in der Werfthalle in Göppingen",
    "healthcare": "doctor",
    "healthcare:speciality": "vaccination",
    "name": "Kreisimpfzentrum",
    "operator": "Landkreis Göppingen",
    "short_name": "KIZ",
    "source": "https://www.baden-wuerttemberg.de/de/service/aktuelle-infos-zu-corona/fragen-und-antworten-rund-um-corona/faq-impfzentren/",
    "vaccination": "covid19"
  }
},
{
  "type": "node",
  "id": 8247338382,
  "lat": 49.1990423,
  "lon": 9.5072691,
  "tags": {
    "healthcare": "centre",
    "healthcare:speciality": "vaccination",
    "name": "COVID-19 Impfzentrum Öhringen Hohenlohe Sporthalle",
    "source": "https://www.baden-wuerttemberg.de/de/service/aktuelle-infos-zu-corona/fragen-und-antworten-rund-um-corona/faq-impfzentren/",
    "vaccination": "covid19"
  }
},
{
  "type": "node",
  "id": 8247372380,
  "lat": 48.2718411,
  "lon": 9.7282900,
  "tags": {
    "addr:city": "Ehingen (Donau)",
    "addr:country": "DE",
    "addr:housenumber": "69",
    "addr:postcode": "89584",
    "addr:street": "Biberacher Straße",
    "description": "im Alb-Donau-Center",
    "healthcare": "centre",
    "healthcare:speciality": "vaccination",
    "name": "COVID-19 Impfzentrum Alb-Donau-Kreis Ehingen, Alb-Donau-Center",
    "source": "https://www.baden-wuerttemberg.de/de/service/aktuelle-infos-zu-corona/fragen-und-antworten-rund-um-corona/faq-impfzentren/",
    "vaccination": "covid19"
  }
},
{
  "type": "node",
  "id": 8247381353,
  "lat": 47.7903933,
  "lon": 9.6145200,
  "tags": {
    "healthcare": "centre",
    "healthcare:speciality": "vaccination",
    "name": "COVID-19 Impfzentrum Ravensburg Oberschwabenhalle",
    "source": "https://www.baden-wuerttemberg.de/de/service/aktuelle-infos-zu-corona/fragen-und-antworten-rund-um-corona/faq-impfzentren/",
    "vaccination": "covid19"
  }
},
{
  "type": "node",
  "id": 8247393269,
  "lat": 48.5104185,
  "lon": 9.0421243,
  "tags": {
    "healthcare": "centre",
    "healthcare:speciality": "vaccination",
    "name": "COVID-19 Impfzentrum Tübingen Paul-Horn-Arena",
    "source": "https://www.baden-wuerttemberg.de/de/service/aktuelle-infos-zu-corona/fragen-und-antworten-rund-um-corona/faq-impfzentren/",
    "vaccination": "covid19",
    "website": "https://www.tuebingen-impfzentrum.de/",
    "wheelchair": "yes"
  }
},
{
  "type": "node",
  "id": 8247422428,
  "lat": 48.1872142,
  "lon": 8.9957635,
  "tags": {
    "fixme": "genaue Position nicht bekannt innerhalb der Zollern-Alb-Kaserne",
    "healthcare": "centre",
    "healthcare:speciality": "vaccination",
    "name": "COVID-19 Impfzentrum Meßstetten Zollern-Alb-Kaserne",
    "source": "https://www.baden-wuerttemberg.de/de/service/aktuelle-infos-zu-corona/fragen-und-antworten-rund-um-corona/faq-impfzentren/",
    "vaccination": "covid19"
  }
},
{
  "type": "node",
  "id": 8247436382,
  "lat": 48.0463851,
  "lon": 9.3714977,
  "tags": {
    "fixme": "genaue Position nicht bekannt innerhalb der Kaserne (Sporthalle)",
    "healthcare": "centre",
    "healthcare:speciality": "vaccination",
    "name": "COVID-19 Impfzentrum Sigmaringen: Hohentengen, Kaserne Sporthalle",
    "source": "https://www.baden-wuerttemberg.de/de/service/aktuelle-infos-zu-corona/fragen-und-antworten-rund-um-corona/faq-impfzentren/",
    "vaccination": "covid19"
  }
},
{
  "type": "node",
  "id": 8247443692,
  "lat": 47.6760294,
  "lon": 9.5073662,
  "tags": {
    "description": "in der Messe Friedrichshafen, Bis ende Juni 2021 Kreisimpfzentrum.",
    "healthcare": "centre",
    "healthcare:speciality": "vaccination",
    "name": "COVID-19 Kreisimpfzentrum Bodenseekreis, Friedrichshafen Messe",
    "opening_hours": "Mo-Su 07:00-21:00",
    "short_name": "KIZ",
    "source": "https://www.suedkurier.de/region/bodenseekreis/bodenseekreis/das-impfzentrum-des-bodenseekreises-steht-erste-termine-gibt-es-aber-wohl-erst-mitte-januar;art410936,10696292",
    "vaccination": "covid19"
  }
},
{
  "type": "node",
  "id": 8247491522,
  "lat": 48.0611510,
  "lon": 9.8282545,
  "tags": {
    "healthcare": "centre",
    "healthcare:speciality": "vaccination",
    "name": "COVID-19 Impfzentrum Landkreis Biberach, Ummendorf Gemeindehalle",
    "source": "https://www.baden-wuerttemberg.de/de/service/aktuelle-infos-zu-corona/fragen-und-antworten-rund-um-corona/faq-impfzentren/",
    "vaccination": "covid19"
  }
},
{
  "type": "node",
  "id": 8248506277,
  "lat": 52.0907891,
  "lon": 13.1513659,
  "tags": {
    "amenity": "clinic",
    "description": "Covid19-Impfzentrum Brandenburg: Teltow-Fläming, Fläminghalle",
    "healthcare": "centre",
    "healthcare:speciality": "vaccination",
    "name": "Impfzentrum",
    "opening_hours": "closed",
    "vaccination": "covid19"
  }
},
{
  "type": "node",
  "id": 8248506278,
  "lat": 52.9498804,
  "lon": 12.3923087,
  "tags": {
    "description": "Covid19-Impfzentrum Brandenburg: Ostprignitz-Ruppin, Kyritz, Sport- und Kulturzentrum",
    "healthcare": "centre",
    "healthcare:speciality": "vaccination",
    "opening_hours": "closed",
    "vaccination": "covid19"
  }
},
{
  "type": "node",
  "id": 8248506279,
  "lat": 52.3438051,
  "lon": 14.4968290,
  "tags": {
    "description": "Covid19-Impfzentrum Brandenburg: Frankfurt/Oder, Messe",
    "healthcare": "centre",
    "healthcare:speciality": "vaccination",
    "opening_hours": "closed",
    "vaccination": "covid19"
  }
},
{
  "type": "node",
  "id": 8248506288,
  "lat": 51.4535057,
  "lon": 13.5254006,
  "tags": {
    "description": "Covid19-Impfzentrum Brandenburg: Elbe-Elster, Elsterwerda, Mehrzweckhalle",
    "healthcare": "centre",
    "healthcare:speciality": "vaccination",
    "opening_hours": "closed",
    "vaccination": "covid19"
  }
},
{
  "type": "node",
  "id": 8248506289,
  "lat": 52.3880806,
  "lon": 13.5146708,
  "tags": {
    "description": "Covid19-Impfzentrum Brandenburg: Dahme-Spreewald, Schönefeld, Terminal M",
    "healthcare": "centre",
    "healthcare:speciality": "vaccination",
    "opening_hours": "closed",
    "vaccination": "covid19"
  }
},
{
  "type": "node",
  "id": 8248506290,
  "lat": 52.4296912,
  "lon": 12.5611996,
  "tags": {
    "description": "Covid19-Impfzentrum Brandenburg: Brandenburg an der Havel, An der Regattastrecke",
    "healthcare": "centre",
    "healthcare:speciality": "vaccination",
    "opening_hours": "closed",
    "vaccination": "covid19"
  }
},
{
  "type": "node",
  "id": 8248506291,
  "lat": 52.8379468,
  "lon": 13.7790727,
  "tags": {
    "description": "Covid19-Impfzentrum Brandenburg: Barnim, Eberswalde, Sportzentrum Westend",
    "healthcare": "centre",
    "healthcare:speciality": "vaccination",
    "opening_hours": "closed",
    "vaccination": "covid19"
  }
},
{
  "type": "node",
  "id": 8249854163,
  "lat": 47.7965939,
  "lon": 10.6246355,
  "tags": {
    "addr:city": "Marktoberdorf",
    "addr:country": "DE",
    "addr:housenumber": "12",
    "addr:postcode": "87616",
    "addr:street": "Nordstraße",
    "healthcare": "centre",
    "healthcare:speciality": "vaccination",
    "name": "Impfzentrum Ostallgäu",
    "vaccination": "covid19"
  }
},
{
  "type": "node",
  "id": 8249890254,
  "lat": 47.8827347,
  "lon": 10.6235352,
  "tags": {
    "addr:city": "Kaufbeuren",
    "addr:housenumber": "4",
    "addr:postcode": "87600",
    "addr:street": "Alte Weberei",
    "healthcare": "centre",
    "healthcare:speciality": "vaccination",
    "name": "COVID-19 Impfzentrum Stadt Kaufbeuren",
    "temporary": "yes",
    "vaccination": "covid19"
  }
},
{
  "type": "node",
  "id": 8251248714,
  "lat": 51.7806413,
  "lon": 11.1551400,
  "tags": {
    "healthcare": "centre",
    "healthcare:speciality": "vaccination",
    "name": "Impfzentrum Landkreis Harz",
    "vaccination": "covid19"
  }
},
{
  "type": "node",
  "id": 8251309797,
  "lat": 51.8660210,
  "lon": 12.6909369,
  "tags": {
    "healthcare": "centre",
    "healthcare:speciality": "vaccination",
    "name": "Impfzentrum Landkreis Wittenberg",
    "vaccination": "covid19"
  }
},
{
  "type": "node",
  "id": 8251649404,
  "lat": 48.4146765,
  "lon": 10.0143125,
  "tags": {
    "description": "in der Messehalle 7",
    "healthcare": "centre",
    "healthcare:speciality": "vaccination",
    "name": "COVID-19 Impfzentrum Stadt Ulm",
    "vaccination": "covid19"
  }
},
{
  "type": "node",
  "id": 8251658997,
  "lat": 48.0309795,
  "lon": 11.5869354,
  "tags": {
    "addr:city": "Oberhaching",
    "addr:country": "DE",
    "addr:housenumber": "16",
    "addr:postcode": "82041",
    "addr:street": "Kolpingring",
    "contact:email": "ottobrunn@johanniter.de",
    "contact:phone": "+49 89 608788-0",
    "contact:website": "https://www.johanniter.de/johanniter-unfall-hilfe/einrichtung/johanniter-impfzentrum-im-landkreis-muenchen-3324",
    "emergency": "ambulance_station",
    "healthcare": "vaccination_centre",
    "healthcare:speciality": "vaccination",
    "name": "Covid-19 | Impfzentrum Landkreis München | Johanniter Oberhaching",
    "operator": "Johanniter",
    "vaccination": "covid19"
  }
},
{
  "type": "node",
  "id": 8251963233,
  "lat": 48.1386152,
  "lon": 11.6979861,
  "tags": {
    "addr:city": "München",
    "addr:housenumber": "2",
    "addr:postcode": "81829",
    "addr:street": "Am Messesee",
    "healthcare": "vaccination_centre",
    "healthcare:speciality": "vaccination",
    "name": "Covid-Impfzentrum München, Messehalle C3",
    "vaccination": "covid19"
  }
},
{
  "type": "node",
  "id": 8256738272,
  "lat": 51.4764918,
  "lon": 11.9677994,
  "tags": {
    "healthcare": "centre",
    "healthcare:speciality": "vaccination",
    "name": "Impfzentrum Stadt Halle (Saale)",
    "vaccination": "covid19"
  }
},
{
  "type": "node",
  "id": 8256738273,
  "lat": 51.4845029,
  "lon": 11.9785899,
  "tags": {
    "healthcare": "centre",
    "healthcare:speciality": "vaccination",
    "name": "Impfzentrum Stadt Halle (Saale)",
    "vaccination": "covid19"
  }
},
{
  "type": "node",
  "id": 8256947634,
  "lat": 51.4783469,
  "lon": 11.2992755,
  "tags": {
    "healthcare": "centre",
    "healthcare:speciality": "vaccination",
    "name": "Impfzentrum Landkreis Mansfeld-Südharz",
    "vaccination": "covid19"
  }
},
{
  "type": "node",
  "id": 8256953790,
  "lat": 51.8300490,
  "lon": 12.2183544,
  "tags": {
    "healthcare": "centre",
    "healthcare:speciality": "vaccination",
    "name": "Impfzentrum Dessau-Roßlau",
    "vaccination": "covid19"
  }
},
{
  "type": "node",
  "id": 8256981276,
  "lat": 51.6566853,
  "lon": 12.2645598,
  "tags": {
    "healthcare": "centre",
    "healthcare:speciality": "vaccination",
    "name": "Impfzentrum Landkreis Anhalt-Bitterfeld",
    "vaccination": "covid19"
  }
},
{
  "type": "node",
  "id": 8257035415,
  "lat": 51.1831210,
  "lon": 12.0137748,
  "tags": {
    "healthcare": "centre",
    "healthcare:speciality": "vaccination",
    "name": "Impfzentrum Burgenlandkreis",
    "vaccination": "covid19"
  }
},
{
  "type": "node",
  "id": 8257088115,
  "lat": 52.2720341,
  "lon": 11.8446852,
  "tags": {
    "healthcare": "centre",
    "healthcare:speciality": "vaccination",
    "name": "Impfzentrum Landkreis Jerichower Land",
    "vaccination": "covid19"
  }
},
{
  "type": "node",
  "id": 8257240757,
  "lat": 51.8525289,
  "lon": 11.5936189,
  "tags": {
    "healthcare": "centre",
    "healthcare:speciality": "vaccination",
    "name": "Impfzentrum Landkreis Salzlandkreis",
    "vaccination": "covid19"
  }
},
{
  "type": "node",
  "id": 8257240758,
  "lat": 51.3530444,
  "lon": 12.0035807,
  "tags": {
    "healthcare": "centre",
    "healthcare:speciality": "vaccination",
    "name": "Impfzentrum Landkreis Saalekreis",
    "vaccination": "covid19"
  }
},
{
  "type": "node",
  "id": 8257689159,
  "lat": 53.3215679,
  "lon": 11.5021699,
  "tags": {
    "addr:city": "Ludwigslust",
    "addr:country": "DE",
    "addr:housenumber": "1",
    "addr:postcode": "19288",
    "addr:street": "Christian-Ludwig-Straße",
    "description": "in der Stadthalle Ludwigslust",
    "healthcare": "centre",
    "healthcare:speciality": "vaccination",
    "name": "Impfzentrum Landkreis Ludwigslust-Parchim - Ludwigslust",
    "vaccination": "covid19",
    "wheelchair": "yes"
  }
},
{
  "type": "node",
  "id": 8257700324,
  "lat": 53.4242498,
  "lon": 11.8465313,
  "tags": {
    "addr:city": "Parchim",
    "addr:country": "DE",
    "addr:housenumber": "56",
    "addr:postcode": "19370",
    "addr:street": "Putlitzer Straße",
    "description": "in der Stadthalle Parchim",
    "healthcare": "centre",
    "healthcare:speciality": "vaccination",
    "name": "Impfzentrum Landkreis Ludwigslust-Parchim - Parchim",
    "vaccination": "covid19",
    "wheelchair": "yes"
  }
},
{
  "type": "node",
  "id": 8257905606,
  "lat": 47.8091661,
  "lon": 7.6047390,
  "tags": {
    "addr:city": "Müllheim",
    "addr:country": "DE",
    "addr:housenumber": "14",
    "addr:postcode": "79379",
    "addr:street": "Eisenbahnstraße",
    "description": "in der Stadthalle Müllheim",
    "healthcare": "centre",
    "healthcare:speciality": "vaccination",
    "name": "COVID-19 Impfzentrum Landkreis Breisgau-Hochschwarzwald, Stadthalle Müllheim",
    "source": "https://www.baden-wuerttemberg.de/de/service/aktuelle-infos-zu-corona/fragen-und-antworten-rund-um-corona/faq-impfzentren/",
    "vaccination": "covid19"
  }
},
{
  "type": "node",
  "id": 8257942211,
  "lat": 48.7222276,
  "lon": 9.3439680,
  "tags": {
    "healthcare": "centre",
    "healthcare:speciality": "vaccination",
    "name": "COVID-19 Kreis-Impfzentrum Esslingen II",
    "source": "https://www.baden-wuerttemberg.de/de/service/aktuelle-infos-zu-corona/fragen-und-antworten-rund-um-corona/faq-impfzentren/",
    "vaccination": "covid19"
  }
},
{
  "type": "node",
  "id": 8257943468,
  "lat": 49.4685405,
  "lon": 8.5236946,
  "tags": {
    "healthcare": "centre",
    "healthcare:speciality": "vaccination",
    "name": "COVID-19 Impfzentrum Mannheim, Maimarktareal",
    "note": "Kreisimpfzentrum",
    "source": "https://www.baden-wuerttemberg.de/de/service/aktuelle-infos-zu-corona/fragen-und-antworten-rund-um-corona/faq-impfzentren/",
    "vaccination": "covid19"
  }
},
{
  "type": "node",
  "id": 8258000510,
  "lat": 48.7797139,
  "lon": 9.1687247,
  "tags": {
    "healthcare": "centre",
    "healthcare:speciality": "vaccination",
    "name": "COVID-19 Impfzentrum Stadt Stuttgart Liederhalle",
    "source": "https://www.baden-wuerttemberg.de/de/service/aktuelle-infos-zu-corona/fragen-und-antworten-rund-um-corona/faq-impfzentren/",
    "vaccination": "covid19"
  }
},
{
  "type": "node",
  "id": 8258494691,
  "lat": 50.9814299,
  "lon": 11.3258372,
  "tags": {
    "addr:city": "Weimar",
    "addr:country": "DE",
    "addr:housenumber": "11",
    "addr:postcode": "99423",
    "addr:street": "Goetheplatz",
    "description": "im Kulturzentrum Mon Ami, Weimar",
    "healthcare": "centre",
    "healthcare:speciality": "vaccination",
    "name": "Impfzentrum Stadt Weimar",
    "vaccination": "covid19",
    "wheelchair": "yes"
  }
},
{
  "type": "node",
  "id": 8259220094,
  "lat": 49.7436425,
  "lon": 10.1389647,
  "tags": {
    "addr:city": "Kitzingen",
    "addr:country": "DE",
    "addr:housenumber": "67",
    "addr:postcode": "97318",
    "addr:street": "Keltenstraße",
    "alt_name": "Impfzentrum Landkreis Kitzingen - Standort Klinik",
    "description": "in der Cafeteria der Klinik",
    "healthcare": "centre",
    "healthcare:speciality": "vaccination",
    "name": "Impfzentrum 1 Landkreis Kitzingen",
    "vaccination": "covid19"
  }
},
{
  "type": "node",
  "id": 8259315328,
  "lat": 49.3195118,
  "lon": 11.0238066,
  "tags": {
    "addr:city": "Schwabach",
    "addr:housenumber": "23",
    "addr:postcode": "91126",
    "addr:street": "Huttersbühlstraße",
    "description": "im DJK-Sportheim",
    "healthcare": "centre",
    "healthcare:speciality": "vaccination",
    "name": "Impfzentrum Stadt Schwabach",
    "vaccination": "covid19"
  }
},
{
  "type": "node",
  "id": 8259326047,
  "lat": 49.7184314,
  "lon": 11.0786936,
  "tags": {
    "addr:city": "Forchheim",
    "addr:country": "DE",
    "addr:housenumber": "4",
    "addr:postcode": "91301",
    "addr:street": "Don-Bosco-Straße",
    "description": "im ehemaligen Jugendwerk Don Bosco",
    "healthcare": "centre",
    "healthcare:speciality": "vaccination",
    "name": "Impfzentrum Stadt und Landkreis Forchheim",
    "vaccination": "covid19"
  }
},
{
  "type": "node",
  "id": 8259331868,
  "lat": 49.2496849,
  "lon": 11.1142992,
  "tags": {
    "addr:city": "Roth",
    "addr:country": "DE",
    "addr:housenumber": "17",
    "addr:postcode": "91154",
    "addr:street": "Gildestraße",
    "healthcare": "centre",
    "healthcare:speciality": "vaccination",
    "name": "Impfzentrum Landkreis Roth",
    "vaccination": "covid19"
  }
},
{
  "type": "node",
  "id": 8259336623,
  "lat": 49.4767817,
  "lon": 10.9866124,
  "tags": {
    "addr:city": "Fürth",
    "addr:country": "DE",
    "addr:housenumber": "16-20",
    "addr:postcode": "90762",
    "addr:street": "Rosenstraße",
    "description": "in der ehemaligen Seniorenresidenz Curanum",
    "healthcare": "centre",
    "healthcare:speciality": "vaccination",
    "name": "Impfzentrum Stadt und Landkreis Fürth",
    "vaccination": "covid19"
  }
},
{
  "type": "node",
  "id": 8260401399,
  "lat": 49.7036508,
  "lon": 9.2293822,
  "tags": {
    "addr:city": "Miltenberg",
    "addr:country": "DE",
    "addr:housenumber": "32",
    "addr:postcode": "63897",
    "addr:street": "Breitendieler Straße",
    "construction": "vaccination",
    "description": "Hier wird in Kürze das Impfzentrum gegen Covid-19 eröffnet werden. Details folgen sobald bekannt.",
    "healthcare": "construction",
    "healthcare:speciality": "vaccination",
    "name": "Covid-19 | Impfzentrum Landkreis Miltenberg | Helios-Klinik Miltenberg",
    "opening_hours": "Mo-Su 08:00-16:00",
    "operator": "Bayerisches Rotes Kreuz",
    "temporary": "yes",
    "vaccination": "covid19"
  }
},
{
  "type": "node",
  "id": 8261974686,
  "lat": 49.3729148,
  "lon": 8.3745016,
  "tags": {
    "addr:city": "Schifferstadt",
    "addr:country": "DE",
    "addr:housenumber": "3",
    "addr:postcode": "67105",
    "addr:street": "Neustückweg",
    "description": "In der Neuen Kreissporthalle Schifferstadt",
    "healthcare": "centre",
    "healthcare:speciality": "vaccination",
    "name": "Impfzentrum Landkreis Rhein-Pfalz-Kreis",
    "vaccination": "covid19"
  }
},
{
  "type": "node",
  "id": 8262022672,
  "lat": 49.4785832,
  "lon": 8.4536496,
  "tags": {
    "addr:city": "Ludwigshafen am Rhein",
    "addr:country": "DE",
    "addr:housenumber": "2",
    "addr:postcode": "67061",
    "addr:street": "Yorckstraße",
    "addr:suburb": "Süd",
    "description": "Im ehemaligen Real-Supermarkt in der Walzmühle",
    "healthcare": "centre",
    "healthcare:speciality": "vaccination",
    "name": "Impfzentrum Stadt Ludwigshafen",
    "vaccination": "covid19",
    "wheelchair": "yes"
  }
},
{
  "type": "node",
  "id": 8262069083,
  "lat": 49.3452219,
  "lon": 8.1577322,
  "tags": {
    "addr:city": "Neustadt an der Weinstraße",
    "addr:housenumber": "2",
    "addr:postcode": "67433",
    "addr:street": "Chemnitzer Straße",
    "description": "Im Telekom-Hochaus erstes Stockwerk",
    "healthcare": "centre",
    "healthcare:speciality": "vaccination",
    "level": "1",
    "name": "Impfzentrum Stadt Neutstadt an der Weinstraße",
    "vaccination": "covid19"
  }
},
{
  "type": "node",
  "id": 8262069084,
  "lat": 49.4655294,
  "lon": 8.1728022,
  "tags": {
    "addr:city": "Bad Dürkheim",
    "addr:housenumber": "30",
    "addr:postcode": "67098",
    "addr:street": "Kurbrunnenstraße",
    "description": "In der Salierhalle Bad Dürkheim",
    "healthcare": "centre",
    "healthcare:speciality": "vaccination",
    "name": "Impfzentrum Landkreis Bad Dürkeim",
    "vaccination": "covid19"
  }
},
{
  "type": "node",
  "id": 8262140126,
  "lat": 49.3183683,
  "lon": 8.4245047,
  "tags": {
    "addr:city": "Speyer",
    "addr:country": "DE",
    "addr:housenumber": "33",
    "addr:postcode": "67346",
    "addr:street": "Obere Langgasse",
    "description": "In der Stadthalle Speyer",
    "healthcare": "centre",
    "healthcare:speciality": "vaccination",
    "name": "Impfzentrum Stadt Speyer",
    "vaccination": "covid19"
  }
},
{
  "type": "node",
  "id": 8263500998,
  "lat": 48.4579828,
  "lon": 10.8557716,
  "tags": {
    "addr:city": "Gablingen",
    "addr:housenumber": "13",
    "addr:postcode": "86456",
    "addr:street": "Paul-Klee-Straße",
    "healthcare": "centre",
    "healthcare:speciality": "vaccination",
    "name": "COVID-19 Impfzentrum Landkreis Augsburg",
    "vaccination": "covid19"
  }
},
{
  "type": "node",
  "id": 8263934089,
  "lat": 47.9860315,
  "lon": 10.1751222,
  "tags": {
    "addr:city": "Memmingen",
    "addr:housenumber": "8",
    "addr:postcode": "87700",
    "addr:street": "Buxacher Straße",
    "healthcare": "centre",
    "healthcare:speciality": "vaccination",
    "name": "COVID-19 Impfzentrum Memmingen",
    "vaccination": "covid19"
  }
},
{
  "type": "node",
  "id": 8263981212,
  "lat": 49.5541231,
  "lon": 8.6684771,
  "tags": {
    "healthcare": "centre",
    "healthcare:speciality": "vaccination",
    "level": "0",
    "name": "COVID-19 Impfzentrum Weinheim, 3-Glocken-Center",
    "note": "Kreisimpfzentrum",
    "source": "https://www.baden-wuerttemberg.de/de/service/aktuelle-infos-zu-corona/fragen-und-antworten-rund-um-corona/faq-impfzentren/",
    "vaccination": "covid19"
  }
},
{
  "type": "node",
  "id": 8264007970,
  "lat": 48.0195951,
  "lon": 10.5983949,
  "tags": {
    "addr:city": "Bad Wörishofen",
    "addr:housenumber": "26",
    "addr:postcode": "86825",
    "addr:street": "Gottlieb-Daimler-Straße",
    "healthcare": "centre",
    "healthcare:speciality": "vaccination",
    "name": "COVID-19 Impfzentrum Unterallgäu",
    "temporary": "yes",
    "vaccination": "covid19"
  }
},
{
  "type": "node",
  "id": 8264031843,
  "lat": 47.7354811,
  "lon": 10.3248283,
  "tags": {
    "addr:city": "Kempten (Allgäu)",
    "addr:housenumber": "80",
    "addr:postcode": "87437",
    "addr:street": "Kaufbeurer Straße",
    "healthcare": "centre",
    "healthcare:speciality": "vaccination",
    "name": "COVID-19 Impfzentrum Kempten",
    "vaccination": "covid19"
  }
},
{
  "type": "node",
  "id": 8264054351,
  "lat": 47.5613840,
  "lon": 10.2173133,
  "tags": {
    "addr:city": "Immenstadt i.Allgäu",
    "addr:housenumber": "14",
    "addr:postcode": "87509",
    "addr:street": "hofgartenstraße",
    "healthcare": "centre",
    "healthcare:speciality": "vaccination",
    "name": "COVID-19 Impfzentrum Oberallgäu",
    "vaccination": "covid19"
  }
},
{
  "type": "node",
  "id": 8264096448,
  "lat": 47.6131466,
  "lon": 9.8947200,
  "tags": {
    "addr:city": "Lindenberg im Allgäu",
    "addr:housenumber": "30",
    "addr:postcode": "88161",
    "addr:street": "Nadenberg",
    "healthcare": "centre",
    "healthcare:speciality": "vaccination",
    "name": "COVID-19 Impfzentrum Landkreis Lindau (Bodensee) - Lindenberg",
    "vaccination": "covid19"
  }
},
{
  "type": "node",
  "id": 8264125118,
  "lat": 48.2461255,
  "lon": 10.3636345,
  "tags": {
    "addr:city": "Krumbach",
    "addr:housenumber": "13",
    "addr:postcode": "86381",
    "addr:street": "Mühlstraße",
    "healthcare": "centre",
    "healthcare:speciality": "vaccination",
    "name": "COVID-19 Impfzentrum Landkreis Günzburg",
    "vaccination": "covid19"
  }
},
{
  "type": "node",
  "id": 8264136520,
  "lat": 48.2254553,
  "lon": 10.1050320,
  "tags": {
    "addr:city": "Illertissen",
    "addr:housenumber": "7",
    "addr:postcode": "89257",
    "addr:street": "Krankenhausstraße",
    "healthcare": "centre",
    "healthcare:speciality": "vaccination",
    "name": "COVID-19 Impfzentrum Landkreis Neu-Ulm - Illertissen",
    "vaccination": "covid19"
  }
},
{
  "type": "node",
  "id": 8264137595,
  "lat": 48.3047817,
  "lon": 10.1623589,
  "tags": {
    "addr:city": "Weißenhorn",
    "addr:housenumber": "1",
    "addr:postcode": "89264",
    "addr:street": "Kammerlanderstraße",
    "healthcare": "centre",
    "healthcare:speciality": "vaccination",
    "name": "COVID-19 Impfzentrum Landkreis Neu-Ulm - Weißenhorn",
    "vaccination": "covid19"
  }
},
{
  "type": "node",
  "id": 8264138966,
  "lat": 48.3739292,
  "lon": 10.0055046,
  "tags": {
    "addr:city": "Neu-Ulm",
    "addr:housenumber": "13",
    "addr:postcode": "89231",
    "addr:street": "Wegenerstraße",
    "healthcare": "centre",
    "healthcare:speciality": "vaccination",
    "name": "Covid-19 | Impfzentrum Landkreis Neu-Ulm | Nuvisan GmbH",
    "vaccination": "covid19"
  }
},
{
  "type": "node",
  "id": 8264159524,
  "lat": 49.3979625,
  "lon": 8.6522712,
  "tags": {
    "healthcare": "centre",
    "healthcare:speciality": "vaccination",
    "name": "COVID-19 Impfzentrum Heidelberg, Gesellschaftshaus Pfaffengrund",
    "note": "Kreisimpfzentrum",
    "source": "https://www.baden-wuerttemberg.de/de/service/aktuelle-infos-zu-corona/fragen-und-antworten-rund-um-corona/faq-impfzentren/",
    "vaccination": "covid19"
  }
},
{
  "type": "node",
  "id": 8264171266,
  "lat": 49.3709683,
  "lon": 8.6280441,
  "tags": {
    "healthcare": "centre",
    "healthcare:speciality": "vaccination",
    "name": "COVID-19 Zentrales Impfzentrum Heidelberg",
    "source": "https://www.baden-wuerttemberg.de/de/service/aktuelle-infos-zu-corona/fragen-und-antworten-rund-um-corona/faq-impfzentren/",
    "vaccination": "covid19"
  }
},
{
  "type": "node",
  "id": 8265118471,
  "lat": 49.9902886,
  "lon": 9.5746540,
  "tags": {
    "addr:city": "Lohr am Main",
    "addr:housenumber": "22",
    "addr:postcode": "97816",
    "addr:street": "Lehmskaute",
    "healthcare": "centre",
    "healthcare:speciality": "vaccination",
    "name": "Covid-19 | Impfzentrum Landkreis Main-Spessart | Spessarttorhalle",
    "temporary": "yes",
    "vaccination": "covid19"
  }
},
{
  "type": "node",
  "id": 8265123076,
  "lat": 50.3138028,
  "lon": 11.9070471,
  "tags": {
    "addr:city": "Hof",
    "addr:housenumber": "62",
    "addr:postcode": "95030",
    "addr:street": "Ernst-Reuter-Straße",
    "healthcare": "centre",
    "healthcare:speciality": "vaccination",
    "name": "Covid-19 | Impfzentrum Stadt und Landkreis Hof",
    "temporary": "yes",
    "vaccination": "covid19",
    "website": "https://www.impfung-hoferland.de/"
  }
},
{
  "type": "node",
  "id": 8265130507,
  "lat": 50.1491485,
  "lon": 11.0727681,
  "tags": {
    "addr:city": "Lichtenfels",
    "addr:housenumber": "22",
    "addr:postcode": "96215",
    "addr:street": "Gabelsbergerstraße",
    "healthcare": "centre",
    "healthcare:speciality": "vaccination",
    "name": "Covid-19 | Impfzentrum Landkreis Lichtenfels",
    "temporary": "yes",
    "vaccination": "covid19"
  }
},
{
  "type": "node",
  "id": 8265141029,
  "lat": 50.3222357,
  "lon": 10.2102901,
  "tags": {
    "addr:city": "Bad Neustadt an der Saale",
    "addr:housenumber": "9",
    "addr:postcode": "97616",
    "addr:street": "Goethestraße",
    "healthcare": "centre",
    "healthcare:speciality": "vaccination",
    "name": "Covid-19 | Impfzentrum Landkreis Bad Neustadt an der Saale | Ehemalige Kreisklinik",
    "temporary": "yes",
    "vaccination": "covid19"
  }
},
{
  "type": "node",
  "id": 8265145206,
  "lat": 50.0382933,
  "lon": 11.9941477,
  "tags": {
    "addr:city": "Wunsiedel",
    "addr:housenumber": "7",
    "addr:postcode": "95632",
    "addr:street": "Rot-Kreuz-Straße",
    "healthcare": "centre",
    "healthcare:speciality": "vaccination",
    "name": "Covid-19 | Impfzentrum Landkreis Wunsiedel im Fichtelgebirge | BRK-Haus Wunsiedel",
    "temporary": "yes",
    "vaccination": "covid19"
  }
},
{
  "type": "node",
  "id": 8265150617,
  "lat": 50.2253813,
  "lon": 10.9026784,
  "tags": {
    "addr:city": "Ahorn - Witzmannsberg",
    "addr:housenumber": "20A",
    "addr:postcode": "96482",
    "addr:street": "Badstraße",
    "healthcare": "centre",
    "healthcare:speciality": "vaccination",
    "name": "Covid-19 | Impfzentrum Stadt und Landkreis Coburg | Freizeitzentrum",
    "temporary": "yes",
    "vaccination": "covid19"
  }
},
{
  "type": "node",
  "id": 8265164279,
  "lat": 50.1083407,
  "lon": 11.4507046,
  "tags": {
    "addr:city": "Kulmbach",
    "addr:housenumber": "9",
    "addr:postcode": "95326",
    "addr:street": "Fritz-Hornschuch-Straße",
    "healthcare": "centre",
    "healthcare:speciality": "vaccination",
    "name": "Covid-19 | Impfzentrum Landkreis Kulmbach | Einkaufszentrum fritz 9",
    "temporary": "yes",
    "vaccination": "covid19"
  }
},
{
  "type": "node",
  "id": 8265191623,
  "lat": 50.1415815,
  "lon": 10.5271200,
  "tags": {
    "addr:city": "Hofheim in Unterfranken",
    "addr:housenumber": "11",
    "addr:postcode": "97461",
    "addr:street": "Eichelsdorfer Straße",
    "healthcare": "centre",
    "healthcare:speciality": "vaccination",
    "name": "Covid-19 | Impfzentrum Landkreis Haßberge | BRK-Haus",
    "temporary": "yes",
    "vaccination": "covid19"
  }
},
{
  "type": "node",
  "id": 8265197801,
  "lat": 49.7990207,
  "lon": 9.9197711,
  "tags": {
    "addr:city": "Würzburg",
    "addr:postcode": "97082",
    "addr:street": "Mainaustraße",
    "healthcare": "centre",
    "healthcare:speciality": "vaccination",
    "name": "Covid-19 | Impfzentrum Stadt und Landkreis Würzburg | Talavara",
    "temporary": "yes",
    "vaccination": "covid19",
    "website": "https://www.impfen-wuerzburg.de/"
  }
},
{
  "type": "node",
  "id": 8265229558,
  "lat": 49.8791941,
  "lon": 10.9197984,
  "tags": {
    "addr:city": "Bamberg",
    "addr:housenumber": "15",
    "addr:postcode": "96050",
    "addr:street": "Forchheimer Straße",
    "healthcare": "centre",
    "healthcare:speciality": "vaccination",
    "name": "Covid-19 | Impfzentrum Stadt und Landkreis Bamberg | Brose-Arena",
    "temporary": "yes",
    "vaccination": "covid19"
  }
},
{
  "type": "node",
  "id": 8265230064,
  "lat": 49.9346577,
  "lon": 11.5466956,
  "tags": {
    "addr:city": "Bayreuth",
    "addr:housenumber": "8",
    "addr:postcode": "95447",
    "addr:street": "Adolf-Wächter-Straße",
    "healthcare": "centre",
    "healthcare:speciality": "vaccination",
    "name": "Covid-19 | Impfzentrum Stadt und Landkreis Bayreuth | Turnhalle II Johan-Kepler-Realschule",
    "temporary": "yes",
    "vaccination": "covid19"
  }
},
{
  "type": "node",
  "id": 8265234849,
  "lat": 49.9470552,
  "lon": 11.5792346,
  "tags": {
    "addr:city": "Bayreuth",
    "addr:housenumber": "7",
    "addr:postcode": "95444",
    "addr:street": "Kolpingstraße",
    "healthcare": "centre",
    "healthcare:speciality": "vaccination",
    "name": "Covid-19 | Impfzentrum Stadt Bayreuth | Turnhallen Stadtbad",
    "temporary": "yes",
    "vaccination": "covid19"
  }
},
{
  "type": "node",
  "id": 8265234850,
  "lat": 49.7573508,
  "lon": 11.5275196,
  "tags": {
    "addr:city": "Pegnitz",
    "addr:housenumber": "12",
    "addr:postcode": "91257",
    "addr:street": "Langer Berg",
    "healthcare": "centre",
    "healthcare:speciality": "vaccination",
    "name": "Covid-19 | Impfzentrum Landkreis Bayreuth | Sana-Klinik",
    "temporary": "yes",
    "vaccination": "covid19"
  }
},
{
  "type": "node",
  "id": 8265249064,
  "lat": 49.5039590,
  "lon": 11.7470076,
  "tags": {
    "addr:city": "Sulzbach-Rosenberg",
    "addr:housenumber": "3",
    "addr:postcode": "92237",
    "addr:street": "Obere Gartenstraße",
    "healthcare": "centre",
    "healthcare:speciality": "vaccination",
    "name": "Covid-19 | Impfzentrum Landkreis Amberg-Sulzbach | Landkreis Cultur Center",
    "temporary": "yes",
    "vaccination": "covid19"
  }
},
{
  "type": "node",
  "id": 8265260737,
  "lat": 49.4348342,
  "lon": 11.8671583,
  "tags": {
    "addr:city": "Amberg",
    "addr:housenumber": "8",
    "addr:postcode": "92224",
    "addr:street": "Bruno-Hofer-Straße",
    "healthcare": "centre",
    "healthcare:speciality": "vaccination",
    "name": "Covid-19 | Impfzentrum Stadt Amberg | Jugendzentrum Altes Klärwerk",
    "temporary": "yes",
    "vaccination": "covid19"
  }
},
{
  "type": "node",
  "id": 8265262371,
  "lat": 49.4484006,
  "lon": 12.1716913,
  "tags": {
    "addr:city": "Nabburg",
    "addr:housenumber": "25",
    "addr:postcode": "92507",
    "addr:street": "Krankenhausstraße",
    "healthcare": "centre",
    "healthcare:speciality": "vaccination",
    "name": "Covid-19 | Impfzentrum Landkreis Schwandorf | Ehem. Kreiskrankenhaus",
    "temporary": "yes",
    "vaccination": "covid19"
  }
},
{
  "type": "node",
  "id": 8265263459,
  "lat": 50.0067501,
  "lon": 12.3077898,
  "tags": {
    "addr:city": "Waldsassen",
    "addr:housenumber": "30",
    "addr:postcode": "95652",
    "addr:street": "Egerer Straße",
    "healthcare": "centre",
    "healthcare:speciality": "vaccination",
    "name": "Covid-19 | Impfzentrum Landkreis Tirschenreuth | Ehemaliges Krankenhaus",
    "temporary": "yes",
    "vaccination": "covid19"
  }
},
{
  "type": "node",
  "id": 8265265719,
  "lat": 49.6842748,
  "lon": 12.1666311,
  "tags": {
    "addr:city": "Weiden i.d.OPf.",
    "addr:housenumber": "11",
    "addr:postcode": "92637",
    "addr:street": "Ulrich-Schönberger-Straße",
    "healthcare": "centre",
    "healthcare:speciality": "vaccination",
    "name": "Covid-19 | Impfzentrum Landkreis Neustadt an der Waldnaab und Stadt Weiden in der Oberpfalz | BRK-Haus",
    "temporary": "yes",
    "vaccination": "covid19"
  }
},
{
  "type": "node",
  "id": 8265312184,
  "lat": 48.8845298,
  "lon": 11.1987774,
  "tags": {
    "healthcare": "centre",
    "healthcare:speciality": "vaccination",
    "name": "Covid-19 | Impfzentrum Landkreis Eichstätt | Volksfestplatz",
    "temporary": "yes",
    "vaccination": "covid19"
  }
},
{
  "type": "node",
  "id": 8265317574,
  "lat": 48.8075242,
  "lon": 11.4693595,
  "tags": {
    "addr:city": "Lenting",
    "addr:housenumber": "16",
    "addr:postcode": "85101",
    "addr:street": "Bahnhofstraße",
    "healthcare": "centre",
    "healthcare:speciality": "vaccination",
    "name": "Covid-19 | Impfzentrum Landkreis Eichstätt | Landratsamt Lenting",
    "temporary": "yes",
    "vaccination": "covid19"
  }
},
{
  "type": "node",
  "id": 8266460518,
  "lat": 49.7551032,
  "lon": 8.1156135,
  "tags": {
    "addr:city": "Alzey",
    "addr:country": "DE",
    "addr:postcode": "55232",
    "addr:street": "Albiger Straße",
    "description": "In der DRK-Fahrzeughalle in Alzey",
    "fixme": "Genaue Position unbekannt, soll in der neuen DRK-Fahrzeughalle in der Albiger Straße sein",
    "healthcare": "centre",
    "healthcare:speciality": "vaccination",
    "name": "Impfzentrum Landkreis Alzey-Worms",
    "vaccination": "covid19"
  }
},
{
  "type": "node",
  "id": 8266460519,
  "lat": 50.7814319,
  "lon": 7.7342100,
  "tags": {
    "addr:city": "Wissen",
    "addr:housenumber": "56",
    "addr:postcode": "57537",
    "addr:street": "Rathausstraße",
    "description": "Im obersten Stockwerk der Westerwald-Bank in Wissen",
    "healthcare": "centre",
    "healthcare:speciality": "vaccination",
    "name": "Impfzentrum Landkreis Altenkirchen",
    "vaccination": "covid19"
  }
},
{
  "type": "node",
  "id": 8266460520,
  "lat": 50.5807735,
  "lon": 7.0329062,
  "tags": {
    "addr:city": "Grafschaft",
    "addr:country": "DE",
    "addr:housenumber": "13",
    "addr:postcode": "53501",
    "addr:street": "Altenahrer Straße",
    "alt_name": "Landesimpfzentrum",
    "description": "In der Mehrzweckhalle Gelsdorf",
    "fixme": "nach Eröffnung des Impfzentrum noch genaue Lage und Ein- und Ausgang taggen",
    "healthcare": "centre",
    "healthcare:speciality": "vaccination",
    "name": "Impfzentrum Landkreis Ahrweiler",
    "vaccination": "covid19"
  }
},
{
  "type": "node",
  "id": 8266493788,
  "lat": 49.6426133,
  "lon": 8.3621992,
  "tags": {
    "addr:city": "Worms",
    "addr:postcode": "67547",
    "addr:street": "Friedensstraße",
    "description": "In der Nikolaus-Dörr-Halle in Worms",
    "healthcare": "centre",
    "healthcare:speciality": "vaccination",
    "name": "Impfzentrum Stadt Worms",
    "vaccination": "covid19"
  }
},
{
  "type": "node",
  "id": 8266579296,
  "lat": 49.2478149,
  "lon": 7.3650590,
  "tags": {
    "addr:city": "Zweibrücken",
    "addr:country": "DE",
    "addr:housenumber": "10-12",
    "addr:postcode": "66482",
    "addr:street": "Hauptstraße",
    "description": "Im City Outlet Zweibrücken",
    "healthcare": "centre",
    "healthcare:speciality": "vaccination",
    "name": "Impfzentrum Stadt Zweibrücken",
    "vaccination": "covid19"
  }
},
{
  "type": "node",
  "id": 8266703839,
  "lat": 49.9804778,
  "lon": 6.8967063,
  "tags": {
    "addr:city": "Wittlich",
    "addr:housenumber": "31",
    "addr:postcode": "54516",
    "addr:street": "Schloßstraße",
    "description": "Im ehemaligen Hela-Baumarkt in Wittlich",
    "healthcare": "centre",
    "healthcare:speciality": "vaccination",
    "name": "Impfzentrum Landkreis Bernkastel-Wittlich",
    "vaccination": "covid19"
  }
},
{
  "type": "node",
  "id": 8268064126,
  "lat": 49.0304660,
  "lon": 12.1150198,
  "tags": {
    "addr:city": "Regensburg",
    "addr:housenumber": "1a",
    "addr:postcode": "93059",
    "addr:street": "Altmühlstraße",
    "healthcare": "centre",
    "healthcare:speciality": "vaccination",
    "name": "Covid-19 | Impfzentrum Landkreis Regensburg | Nebengebäude Landratsamt",
    "temporary": "yes",
    "vaccination": "covid19"
  }
},
{
  "type": "node",
  "id": 8268069396,
  "lat": 49.1894282,
  "lon": 12.5192031,
  "tags": {
    "addr:city": "Roding",
    "addr:housenumber": "1",
    "addr:postcode": "93426",
    "addr:street": "Arnulfstraße",
    "healthcare": "centre",
    "healthcare:speciality": "vaccination",
    "name": "Covid-19 | Impfzentrum Landkreis Cham| Sana-Klinik Roding",
    "temporary": "yes",
    "vaccination": "covid19"
  }
},
{
  "type": "node",
  "id": 8268075712,
  "lat": 48.9150419,
  "lon": 11.8726303,
  "tags": {
    "addr:city": "Kelheim",
    "addr:housenumber": "3",
    "addr:postcode": "93309",
    "addr:street": "Schloßweg",
    "healthcare": "centre",
    "healthcare:speciality": "vaccination",
    "name": "Covid-19 | Impfzentrum Landkreis Kelheim | Ehemaliges Landratsamt",
    "temporary": "yes",
    "vaccination": "covid19"
  }
},
{
  "type": "node",
  "id": 8268087690,
  "lat": 49.0263160,
  "lon": 12.0906031,
  "tags": {
    "addr:city": "Regensburg",
    "addr:postcode": "93059",
    "healthcare": "centre",
    "healthcare:speciality": "vaccination",
    "name": "Covid-19 | Impfzentrum Stadt Regensburg | Dultplatz",
    "temporary": "yes",
    "vaccination": "covid19"
  }
},
{
  "type": "node",
  "id": 8268087707,
  "lat": 48.8066921,
  "lon": 13.5451710,
  "tags": {
    "addr:city": "Freyung",
    "addr:housenumber": "9",
    "addr:postcode": "94078",
    "addr:street": "Passauer Straße",
    "healthcare": "centre",
    "healthcare:speciality": "vaccination",
    "name": "Covid-19 | Impfzentrum Landkreis Freyung-Grafenau",
    "temporary": "yes",
    "vaccination": "covid19"
  }
},
{
  "type": "node",
  "id": 8268090971,
  "lat": 48.8371213,
  "lon": 12.1391402,
  "tags": {
    "addr:city": "Schierling",
    "addr:housenumber": "25",
    "addr:postcode": "84069",
    "addr:street": "Rathausplatz",
    "healthcare": "centre",
    "healthcare:speciality": "vaccination",
    "name": "Covid-19 | Impfzentrum Landkreis Regensburg | MVZ Schierling",
    "start_date": "2021-01-04",
    "temporary": "yes",
    "vaccination": "covid19"
  }
},
{
  "type": "node",
  "id": 8268129247,
  "lat": 48.9631832,
  "lon": 13.1504386,
  "tags": {
    "addr:city": "Regen",
    "addr:housenumber": "45",
    "addr:postcode": "94209",
    "addr:street": "Poschetsrieder Straße",
    "healthcare": "centre",
    "healthcare:speciality": "vaccination",
    "name": "Covid-19 | Impfzentrum Landkreis Regen | Eissporthalle Regen",
    "temporary": "yes",
    "vaccination": "covid19"
  }
},
{
  "type": "node",
  "id": 8268146586,
  "lat": 48.2342085,
  "lon": 12.6896052,
  "tags": {
    "addr:city": "Neuötting",
    "addr:housenumber": "1",
    "addr:postcode": "84524",
    "addr:street": "Badstraße",
    "healthcare": "centre",
    "healthcare:speciality": "vaccination",
    "name": "Covid-19 | Impfzentrum Landkreis Altötting | Hallenbad Neuötting",
    "temporary": "yes",
    "vaccination": "covid19"
  }
},
{
  "type": "node",
  "id": 8268150868,
  "lat": 48.6502865,
  "lon": 12.4846133,
  "tags": {
    "addr:city": "Dingolfing",
    "addr:housenumber": "2",
    "addr:postcode": "84130",
    "addr:street": "Salitersheimer Straße",
    "healthcare": "centre",
    "healthcare:speciality": "vaccination",
    "name": "Covid-19 | Impfzentrum Landkreis Dingolfing-Landau",
    "temporary": "yes",
    "vaccination": "covid19"
  }
},
{
  "type": "node",
  "id": 8268154696,
  "lat": 48.5576990,
  "lon": 13.4111614,
  "tags": {
    "addr:city": "Passau",
    "addr:housenumber": "12",
    "addr:postcode": "94036",
    "addr:street": "Messestraße",
    "healthcare": "centre",
    "healthcare:speciality": "vaccination",
    "name": "Covid-19 | Impfzentrum Stadt Passau | X-Point-Halle",
    "temporary": "yes",
    "vaccination": "covid19"
  }
},
{
  "type": "node",
  "id": 8268163605,
  "lat": 47.9116449,
  "lon": 11.4282184,
  "tags": {
    "addr:city": "Wolfratshausen",
    "addr:housenumber": "5",
    "addr:postcode": "82515",
    "addr:street": "Moosbauerweg",
    "healthcare": "centre",
    "healthcare:speciality": "vaccination",
    "name": "Covid-19 | Impfzentrum Landkreis Bad-Tölz-Wolfratshausen | Kreisklinik Wolfratshausen",
    "temporary": "yes",
    "vaccination": "covid19"
  }
},
{
  "type": "node",
  "id": 8268173532,
  "lat": 48.3990837,
  "lon": 12.7731072,
  "tags": {
    "addr:city": "Eggenfelden",
    "addr:housenumber": "11",
    "addr:postcode": "84307",
    "addr:street": "Grafenweg",
    "healthcare": "centre",
    "healthcare:speciality": "vaccination",
    "name": "Covid-19 | Impfzentrum Landkreis Rottal-Inn | Rottgau-Halle",
    "temporary": "yes",
    "vaccination": "covid19"
  }
},
{
  "type": "node",
  "id": 8268178069,
  "lat": 47.4890266,
  "lon": 11.0958372,
  "tags": {
    "addr:city": "Garmisch-Partenkirchen",
    "addr:housenumber": "1",
    "addr:postcode": "82467",
    "addr:street": "Am Eisstadion",
    "healthcare": "centre",
    "healthcare:speciality": "vaccination",
    "name": "Covid-19 | Impfzentrum Landkreis Garmisch-Partenkirch| Eissporthalle",
    "temporary": "yes",
    "vaccination": "covid19"
  }
},
{
  "type": "node",
  "id": 8268183254,
  "lat": 47.7569936,
  "lon": 11.5510998,
  "tags": {
    "addr:city": "Bad Tölz",
    "addr:housenumber": "15",
    "addr:postcode": "83646",
    "addr:street": "Schützenstraße",
    "healthcare": "centre",
    "healthcare:speciality": "vaccination",
    "name": "Covid-19 | Impfzentrum Landkreis Bad-Tölz-Wolfratshausen| Stadtklinik Bad Tölz",
    "temporary": "yes",
    "vaccination": "covid19"
  }
},
{
  "type": "node",
  "id": 8268212410,
  "lat": 47.5576986,
  "lon": 9.6965409,
  "tags": {
    "healthcare": "centre",
    "healthcare:speciality": "vaccination",
    "name": "Covid-19 | Impfzentrum Landkreis Lindau | Schulzentrum Lindau",
    "temporary": "yes",
    "vaccination": "covid19"
  }
},
{
  "type": "node",
  "id": 8269531323,
  "lat": 48.4305336,
  "lon": 10.2942508,
  "tags": {
    "addr:city": "Günzburg",
    "addr:housenumber": "14",
    "addr:postcode": "89312",
    "addr:street": "Kimmerle-Ring",
    "healthcare": "centre",
    "healthcare:speciality": "vaccination",
    "name": "Covid-19 | Impfzentrum Landkreis Günzburg | Verwaltungsgebäude Peri-Werk",
    "temporary": "yes",
    "vaccination": "covid19"
  }
},
{
  "type": "node",
  "id": 8269537573,
  "lat": 48.5660334,
  "lon": 10.6815558,
  "tags": {
    "addr:city": "Wertingen",
    "addr:housenumber": "12",
    "addr:postcode": "86637",
    "addr:street": "Pestalozzistraße",
    "healthcare": "centre",
    "healthcare:speciality": "vaccination",
    "name": "Covid-19 | Impfzentrum Landkreis Dillingen | Turnhalle Gymnasium",
    "temporary": "yes",
    "vaccination": "covid19"
  }
},
{
  "type": "node",
  "id": 8269538403,
  "lat": 48.2561781,
  "lon": 11.4343521,
  "tags": {
    "addr:city": "Dachau",
    "addr:housenumber": "3-4",
    "addr:postcode": "85221",
    "addr:street": "Rotkreuzplatz",
    "healthcare": "centre",
    "healthcare:speciality": "vaccination",
    "name": "Covid-19 | Impfzentrum Landkreis Dachau| BRK-Gebäude",
    "temporary": "yes",
    "vaccination": "covid19"
  }
},
{
  "type": "node",
  "id": 8269608634,
  "lat": 48.2346758,
  "lon": 11.4710684,
  "tags": {
    "fixme": "Genauer Standort unbekannt",
    "healthcare": "centre",
    "healthcare:speciality": "vaccination",
    "name": "Covid-19 | Impfzentrum Landkreis Dachau | Parkplatz Karlsfelder See",
    "temporary": "yes",
    "vaccination": "covid19"
  }
},
{
  "type": "node",
  "id": 8269618816,
  "lat": 48.0663210,
  "lon": 11.3519957,
  "tags": {
    "addr:city": "Gauting",
    "addr:housenumber": "2",
    "addr:postcode": "82131",
    "addr:street": "Robert-Koch-Allee",
    "healthcare": "centre",
    "healthcare:speciality": "vaccination",
    "name": "Covid-19 | Impfzentrum Landkreis Starnberg | Asklepios-Klinik Gauting",
    "temporary": "yes",
    "vaccination": "covid19"
  }
},
{
  "type": "node",
  "id": 8269620911,
  "lat": 48.1061067,
  "lon": 11.7395848,
  "tags": {
    "addr:city": "Haar",
    "addr:housenumber": "43-47",
    "addr:postcode": "85540",
    "addr:street": "Wasserburger Straße",
    "healthcare": "centre",
    "healthcare:speciality": "vaccination",
    "name": "Covid-19 | Impfzentrum Landkreis München | Ehemalige Fachhochschule des Bundes für öffentliche Verwaltung",
    "temporary": "yes",
    "vaccination": "covid19"
  }
},
{
  "type": "node",
  "id": 8269686070,
  "lat": 50.3316846,
  "lon": 7.5848928,
  "tags": {
    "addr:city": "Koblenz",
    "addr:housenumber": "12",
    "addr:postcode": "56075",
    "addr:street": "Jupp-Gauchel-Straße",
    "description": "In CGM Arena in Koblenz",
    "healthcare": "centre",
    "healthcare:speciality": "vaccination",
    "name": "Impfzentrum Stadt Koblenz",
    "vaccination": "covid19"
  }
},
{
  "type": "node",
  "id": 8269686071,
  "lat": 49.4404813,
  "lon": 7.6981115,
  "tags": {
    "addr:city": "Kaiserslautern",
    "addr:country": "DE",
    "addr:postcode": "67661",
    "addr:street": "Von-Miller-Straße",
    "description": "In Opel Werkshalle K1 in Kaiserslautern",
    "healthcare": "centre",
    "healthcare:speciality": "vaccination",
    "name": "gemeinsamen Impfzentrum Stadt und Landkreis Kaiserslautern",
    "vaccination": "covid19"
  }
},
{
  "type": "node",
  "id": 8269689389,
  "lat": 47.8000076,
  "lon": 11.0717325,
  "tags": {
    "addr:city": "Peißenberg",
    "addr:country": "DE",
    "addr:housenumber": "55-57",
    "addr:postcode": "82380",
    "addr:street": "Hauptstraße",
    "healthcare": "centre",
    "healthcare:speciality": "vaccination",
    "level": "1",
    "name": "Impfzentrum des  Landkreises Weilheim-Schongau",
    "opening_hours": "Mo-Sa 08:00-18:00",
    "phone": "+498803 4929700",
    "start_date": "2020-12-27",
    "temporary": "yes",
    "vaccination": "covid19",
    "website": "http://impfzentrum-wm.de",
    "wheelchair": "yes"
  }
},
{
  "type": "node",
  "id": 8269701674,
  "lat": 48.0768972,
  "lon": 10.9148367,
  "tags": {
    "addr:postcode": "86929",
    "addr:street": "Kauferinger Straße",
    "healthcare": "centre",
    "healthcare:speciality": "vaccination",
    "name": "Covid-19 | Impfzentrum Landkreis Landsberg am Lech | ehem. Fliegerhorst Penzing",
    "temporary": "yes",
    "vaccination": "covid19"
  }
},
{
  "type": "node",
  "id": 8269727154,
  "lat": 48.3086446,
  "lon": 11.9103102,
  "tags": {
    "addr:city": "Erding",
    "addr:housenumber": "14",
    "addr:postcode": "85435",
    "addr:street": "Lodererplatz",
    "healthcare": "centre",
    "healthcare:speciality": "vaccination",
    "name": "Covid-19 | Impfzentrum Landkreis Erding | Schulturnhalle",
    "temporary": "yes",
    "vaccination": "covid19"
  }
},
{
  "type": "node",
  "id": 8269727967,
  "lat": 49.0629726,
  "lon": 8.2959652,
  "tags": {
    "addr:city": "Wörth am Rhein",
    "addr:postcode": "76744",
    "description": "In Lagerhalle der Hafenbetriebe Rheinland-Pfalz in Wörth",
    "fixme": "Genaue Position unbekannt, die Halle scheint passend, da noch nicht auf Satelittenbildern zu sehen. Somit gut möglich, dass dies die neu gebaute Halle ist",
    "healthcare": "centre",
    "healthcare:speciality": "vaccination",
    "name": "gemeinsames Impfzentrum Lankreis Südliche Weinstraße, Landkreis Germersheim und Stadt Landau",
    "vaccination": "covid19"
  }
},
{
  "type": "node",
  "id": 8269728437,
  "lat": 48.0745919,
  "lon": 11.9647779,
  "tags": {
    "access": "restricted",
    "addr:city": "Ebersberg",
    "addr:housenumber": "1",
    "addr:postcode": "85560",
    "addr:street": "Sparkassenplatz",
    "healthcare": "centre",
    "healthcare:speciality": "vaccination",
    "name": "Covid-19 | Impfzentrum Landkreis Ebersberg| Ehem. Kreissparkasse",
    "temporary": "yes",
    "vaccination": "covid19"
  }
},
{
  "type": "node",
  "id": 8269753534,
  "lat": 48.2361531,
  "lon": 12.5360048,
  "tags": {
    "addr:city": "Mühldorf am Inn",
    "addr:housenumber": "1A",
    "addr:postcode": "84453",
    "addr:street": "Mainstraße",
    "healthcare": "centre",
    "healthcare:speciality": "vaccination",
    "name": "Covid-19 | Impfzentrum Landkreis Mühldorf",
    "temporary": "yes",
    "vaccination": "covid19"
  }
},
{
  "type": "node",
  "id": 8269760326,
  "lat": 48.5500118,
  "lon": 12.1894112,
  "tags": {
    "addr:city": "Landshut",
    "addr:housenumber": "100",
    "addr:postcode": "84036",
    "addr:street": "Niedermayerstraße",
    "healthcare": "centre",
    "healthcare:speciality": "vaccination",
    "name": "Covid-19 | Impfzentrum Stadt Landshut | Messehalle",
    "temporary": "yes",
    "vaccination": "covid19"
  }
},
{
  "type": "node",
  "id": 8269799217,
  "lat": 48.5625811,
  "lon": 11.2878707,
  "tags": {
    "addr:city": "Schrobenhausen",
    "addr:housenumber": "11",
    "addr:postcode": "86529",
    "addr:street": "Rinderhofer Breite",
    "healthcare": "centre",
    "healthcare:speciality": "vaccination",
    "name": "Covid-19 | Impfzentrum Landkreis Neuburg-Schrobenhausen | ehem. Penny-Markt",
    "temporary": "yes",
    "vaccination": "covid19"
  }
},
{
  "type": "node",
  "id": 8269807496,
  "lat": 48.5185459,
  "lon": 11.5099050,
  "tags": {
    "addr:city": "Hettenshausen",
    "addr:housenumber": "4",
    "addr:postcode": "85276",
    "addr:street": "Sperl-Ring",
    "healthcare": "centre",
    "healthcare:speciality": "vaccination",
    "name": "Covid-19 | Impfzentrum Landkreis Pfaffenhofen (Süd)",
    "temporary": "yes",
    "vaccination": "covid19"
  }
},
{
  "type": "node",
  "id": 8269821518,
  "lat": 48.6769956,
  "lon": 11.6238776,
  "tags": {
    "addr:city": "Geisenfeld",
    "addr:housenumber": "13",
    "addr:postcode": "85290",
    "addr:street": "Königstraße",
    "healthcare": "centre",
    "healthcare:speciality": "vaccination",
    "name": "Covid-19 | Impfzentrum Landkreis Pfaffenhofen (Nord)",
    "operator": "Bayerisches Rotes Kreuz",
    "temporary": "yes",
    "vaccination": "covid19"
  }
},
{
  "type": "node",
  "id": 8270310391,
  "lat": 49.7079284,
  "lon": 7.3535469,
  "tags": {
    "addr:city": "Idar-Oberstein",
    "addr:country": "DE",
    "addr:housenumber": "9",
    "addr:postcode": "55743",
    "addr:street": "John-F.-Kennedy-Straße",
    "description": "In der Messehalle in Idar-Oberstein",
    "healthcare": "centre",
    "healthcare:speciality": "vaccination",
    "name": "Impfzentrum Landkreis Birkenfeld",
    "operator": "Kreisverwaltung Birkenfeld",
    "vaccination": "covid19"
  }
},
{
  "type": "node",
  "id": 8270399808,
  "lat": 50.2887789,
  "lon": 6.6726239,
  "tags": {
    "addr:city": "Hillesheim",
    "addr:postcode": "54576",
    "description": "In der Markthalle in Hillesheim",
    "healthcare": "centre",
    "healthcare:speciality": "vaccination",
    "name": "Impfzentrum Landkreis Vulkaneifel",
    "operator": "Kreisverwaltung Vulkaneifel",
    "vaccination": "covid19"
  }
},
{
  "type": "node",
  "id": 8270432663,
  "lat": 49.5486547,
  "lon": 7.4108228,
  "tags": {
    "addr:city": "Kusel",
    "addr:housenumber": "100",
    "addr:postcode": "66869",
    "addr:street": "Haischbachstraße",
    "description": "In einer Halle in der ehemaligen Kaserne Kusel",
    "healthcare": "centre",
    "healthcare:speciality": "vaccination",
    "name": "Impfzentrum Landkreis Kusel",
    "operator": "Kreisverwaltung Kusel",
    "vaccination": "covid19"
  }
},
{
  "type": "node",
  "id": 8270435837,
  "lat": 50.1945206,
  "lon": 7.1522907,
  "tags": {
    "addr:city": "Landkern",
    "addr:housenumber": "2",
    "addr:postcode": "56814",
    "addr:street": "Schulstraße",
    "description": "In der Eifelgoldhalle in Landkern",
    "healthcare": "centre",
    "healthcare:speciality": "vaccination",
    "name": "Impfzentrum Kreis Cochem-Zell",
    "operator": "Kreisverwaltung Cochem-Zell",
    "vaccination": "covid19"
  }
},
{
  "type": "node",
  "id": 8270464114,
  "lat": 50.3034768,
  "lon": 7.3186782,
  "tags": {
    "addr:city": "Polch",
    "addr:postcode": "56751",
    "addr:street": "Vormaystraße",
    "description": "In der Maifeldhalle in Polch",
    "healthcare": "centre",
    "healthcare:speciality": "vaccination",
    "name": "Impfzentrum Landkreis Mayen-Koblenz",
    "operator": "Kreisverwaltung Mayen-Koblenz",
    "vaccination": "covid19"
  }
},
{
  "type": "node",
  "id": 8270550115,
  "lat": 49.6667929,
  "lon": 8.0131826,
  "tags": {
    "addr:city": "Kirchheimbolanden",
    "addr:housenumber": "2a",
    "addr:postcode": "67292",
    "addr:street": "Dr.-Edeltraud-Sießl-Allee",
    "description": "In der Stadthalle von Kirchheimbolanden",
    "healthcare": "centre",
    "healthcare:speciality": "vaccination",
    "name": "Impfzentrum Donnersbergkreis",
    "operator": "Kreisverwaltung Donnersbergkreis",
    "vaccination": "covid19"
  }
},
{
  "type": "node",
  "id": 8270574581,
  "lat": 50.5533209,
  "lon": 7.5231135,
  "tags": {
    "addr:city": "Oberhonnefeld-Gierend",
    "addr:housenumber": "1-9",
    "addr:postcode": "56587",
    "addr:street": "Erlenstraße",
    "description": "In einer Gewerbehalle in Oberhonnefeld",
    "healthcare": "centre",
    "healthcare:speciality": "vaccination",
    "name": "Impfzentrum Landkreis Neuwied",
    "operator": "Kreisverwaltung Neuwied",
    "vaccination": "covid19"
  }
},
{
  "type": "node",
  "id": 8270586696,
  "lat": 49.5318892,
  "lon": 8.3468789,
  "tags": {
    "addr:city": "Frankenthal (Pfalz)",
    "addr:country": "DE",
    "addr:housenumber": "7",
    "addr:postcode": "67227",
    "addr:street": "Petersgartenweg",
    "description": "In der Sporthalle der Andreas-Albert-Schule in Frankenthal",
    "healthcare": "centre",
    "healthcare:speciality": "vaccination",
    "name": "Impfzentrum Stadt Frankenthal",
    "vaccination": "covid19"
  }
},
{
  "type": "node",
  "id": 8272430437,
  "lat": 48.6299827,
  "lon": 13.4746371,
  "tags": {
    "addr:city": "Salzweg",
    "addr:housenumber": "1A",
    "addr:postcode": "94121",
    "addr:street": "Bayerwaldstraße",
    "healthcare": "centre",
    "healthcare:speciality": "vaccination",
    "name": "Covid-19 | Impfzentrum Landkreis Passau",
    "temporary": "yes",
    "vaccination": "covid19"
  }
},
{
  "type": "node",
  "id": 8272464753,
  "lat": 49.3119287,
  "lon": 11.4733419,
  "tags": {
    "addr:city": "Berg bei Neumarkt in der Oberpfalz",
    "addr:housenumber": "6",
    "addr:postcode": "92348",
    "addr:street": "Karl-Schiller-Straße",
    "healthcare": "centre",
    "healthcare:speciality": "vaccination",
    "name": "Covid-19 | Impfzentrum | Landkreis Neumartkt in der Oberpfalz",
    "note": "Hausnummer in der Liste der Impfzentren nicht korrekt.",
    "temporary": "yes",
    "vaccination": "covid19"
  }
},
{
  "type": "node",
  "id": 8273970011,
  "lat": 54.0824373,
  "lon": 13.3731213,
  "tags": {
    "addr:city": "Greifswald",
    "addr:country": "DE",
    "addr:housenumber": "20",
    "addr:postcode": "17489",
    "addr:street": "Brandteichstraße",
    "alt_name": "TZV",
    "description": "im Technologiezentrum Vorpommern, Greifswald",
    "healthcare": "centre",
    "healthcare:speciality": "vaccination",
    "name": "Impfzentrum Landkreis Vorpommern-Greifswald 1 - Greifswald",
    "vaccination": "covid19",
    "website": "https://www.regierung-mv.de/service/Corona-FAQs/Impfen/",
    "wheelchair": "yes"
  }
},
{
  "type": "node",
  "id": 8274038569,
  "lat": 53.5025345,
  "lon": 13.9888707,
  "tags": {
    "addr:city": "Pasewalk",
    "addr:country": "DE",
    "addr:housenumber": "8",
    "addr:postcode": "17309",
    "addr:street": "Am Markt",
    "description": "im ehemaligen Netto Markt, im ehemaligen Kino, Pasewalk",
    "healthcare": "centre",
    "healthcare:speciality": "vaccination",
    "name": "Impfzentrum Landkreis Vorpommern-Greifswald 2 - Pasewalk",
    "vaccination": "covid19",
    "website": "https://www.regierung-mv.de/service/Corona-FAQs/Impfen/",
    "wheelchair": "yes"
  }
},
{
  "type": "node",
  "id": 8277510310,
  "lat": 48.8148354,
  "lon": 9.1863800,
  "tags": {
    "healthcare": "centre",
    "healthcare:speciality": "vaccination",
    "name": "COVID-19 Impfzentrum Stadtkreis Stuttgart, Robert-Bosch- Krankenhaus",
    "source": "https://sozialministerium.baden-wuerttemberg.de/de/service/presse/pressemitteilung/pid/standorte-fuer-impfzentren-im-land-stehen-fest/",
    "vaccination": "covid19"
  }
},
{
  "type": "node",
  "id": 8277632197,
  "lat": 48.9811759,
  "lon": 8.3319162,
  "tags": {
    "healthcare": "centre",
    "healthcare:speciality": "vaccination",
    "name": "COVID-19 Zentrales Impfzentrum Karlsruhe",
    "source": "https://sozialministerium.baden-wuerttemberg.de/de/service/presse/pressemitteilung/pid/standorte-fuer-impfzentren-im-land-stehen-fest/",
    "vaccination": "covid19"
  }
},
{
  "type": "node",
  "id": 8278040413,
  "lat": 49.2521075,
  "lon": 8.8637657,
  "tags": {
    "healthcare": "centre",
    "healthcare:speciality": "vaccination",
    "name": "COVID-19 Impfzentrum Sinsheim, „Parsa“-Halle",
    "source": "https://sozialministerium.baden-wuerttemberg.de/de/service/presse/pressemitteilung/pid/standorte-fuer-impfzentren-im-land-stehen-fest/",
    "vaccination": "covid19"
  }
},
{
  "type": "node",
  "id": 8278075082,
  "lat": 50.5809625,
  "lon": 7.0326159,
  "tags": {
    "amenity": "doctors",
    "description": "Autoschalter Anmeldung zum Test- und Abstrichzentrum im Zelt südöstich der Halle",
    "healthcare": "doctor",
    "healthcare:speciality": "vaccination",
    "name": "Anmeldung Test- und Abstrichzentrum",
    "vaccination": "covid19"
  }
},
{
  "type": "node",
  "id": 8278075083,
  "lat": 50.5809472,
  "lon": 7.0326408,
  "tags": {
    "amenity": "doctors",
    "description": "Autoschalter Anmeldung zum Test- und Abstrichzentrum im Zelt südöstich der Halle",
    "healthcare": "doctor",
    "healthcare:speciality": "vaccination",
    "name": "Anmeldung Test- und Abstrichzentrum",
    "vaccination": "covid19"
  }
},
{
  "type": "node",
  "id": 8278309580,
  "lat": 49.0021118,
  "lon": 8.4012832,
  "tags": {
    "description": "Kongresszentrum Schwarzwaldhalle",
    "healthcare": "centre",
    "healthcare:speciality": "vaccination",
    "name": "COVID-19 Kreisimpfzentrum Karlsruhe",
    "source": "https://sozialministerium.baden-wuerttemberg.de/de/service/presse/pressemitteilung/pid/standorte-fuer-impfzentren-im-land-stehen-fest/",
    "vaccination": "covid19"
  }
},
{
  "type": "node",
  "id": 8278346674,
  "lat": 48.6933621,
  "lon": 9.1913966,
  "tags": {
    "healthcare": "centre",
    "healthcare:speciality": "vaccination",
    "name": "COVID-19 Impfzentrum Landkreis Esslingen, Leinfelden- Echterdingen, Messe Stuttgart",
    "source": "https://sozialministerium.baden-wuerttemberg.de/de/service/presse/pressemitteilung/pid/standorte-fuer-impfzentren-im-land-stehen-fest/",
    "vaccination": "covid19"
  }
},
{
  "type": "node",
  "id": 8279029664,
  "lat": 51.1654661,
  "lon": 7.1517878,
  "tags": {
    "addr:city": "Remscheid",
    "addr:country": "DE",
    "addr:housenumber": "23",
    "addr:postcode": "42857",
    "addr:street": "Wallburgstraße",
    "amenity": "doctors",
    "description": "Sporthalle West",
    "healthcare": "centre",
    "healthcare:speciality": "vaccination",
    "name": "Impfzentrum Stadt Remscheid",
    "vaccination": "covid19",
    "wheelchair": "yes"
  }
},
{
  "type": "node",
  "id": 8279970625,
  "lat": 47.4885370,
  "lon": 11.0940951,
  "tags": {
    "healthcare": "yes",
    "healthcare:speciality": "vaccination",
    "name": "Impfzentrum Garmisch",
    "vaccination": "covid19"
  }
},
{
  "type": "node",
  "id": 8292991981,
  "lat": 50.8333966,
  "lon": 10.9479789,
  "tags": {
    "addr:city": "Arnstadt",
    "addr:country": "DE",
    "addr:housenumber": "2",
    "addr:postcode": "99310",
    "addr:street": "Rankestraße",
    "healthcare": "centre",
    "healthcare:speciality": "vaccination",
    "name": "Impfzentrum Ilm-Kreis (nur mit Termin)",
    "opening_hours": "\"Nach Vereinbarung\"",
    "vaccination": "covid19",
    "wheelchair": "yes"
  }
},
{
  "type": "node",
  "id": 8292991982,
  "lat": 50.6792156,
  "lon": 10.9283319,
  "tags": {
    "addr:city": "Ilmenau",
    "addr:country": "DE",
    "addr:housenumber": "48",
    "addr:postcode": "98693",
    "addr:street": "Am Stollen",
    "healthcare": "centre",
    "healthcare:speciality": "vaccination",
    "level": "0",
    "name": "Impfzentrum Ilm-Kreis (nur mit Termin)",
    "opening_hours": "\"Nach Vereinbarung\"",
    "vaccination": "covid19",
    "wheelchair": "yes"
  }
},
{
  "type": "node",
  "id": 8293433321,
  "lat": 53.5689631,
  "lon": 9.5012691,
  "tags": {
    "addr:city": "Stade",
    "addr:housenumber": "24",
    "addr:postcode": "21684",
    "addr:street": "Sophie-Scholl-Weg",
    "description": "in der ehemaligen Saertex Produktionshalle",
    "healthcare": "centre",
    "healthcare:speciality": "vaccination",
    "name": "Corona Impfzentrum Landkreis Stade",
    "vaccination": "covid19"
  }
},
{
  "type": "node",
  "id": 8294848330,
  "lat": 50.3214105,
  "lon": 7.5974922,
  "tags": {
    "alt_name": "Impfzentrum Rhein-Lahn-Kreis",
    "description": "Impfzentrum des Rhein-Lahn-Kreises im ehemaligen Lidl-Gebäude in Lahnstein.",
    "healthcare": "centre",
    "healthcare:speciality": "vaccination",
    "name": "Impfzentrum Lahnstein",
    "vaccination": "covid19"
  }
},
{
  "type": "node",
  "id": 8296352727,
  "lat": 52.7500501,
  "lon": 13.2575627,
  "tags": {
    "addr:city": "Oranienburg",
    "addr:country": "DE",
    "addr:housenumber": "42",
    "addr:postcode": "16515",
    "addr:street": "André-Pican-Straße",
    "description": "im Turm Erlebniscenter, Oranienburg",
    "healthcare": "centre",
    "healthcare:speciality": "vaccination",
    "name": "Impfzentrum Landkreis Oberhavel",
    "vaccination": "covid19",
    "wheelchair": "yes"
  }
},
{
  "type": "node",
  "id": 8296430985,
  "lat": 53.2995400,
  "lon": 13.8225905,
  "tags": {
    "addr:city": "Prenzlau",
    "addr:country": "DE",
    "addr:housenumber": "29",
    "addr:postcode": "17291",
    "addr:street": "Berliner Straße",
    "description": "in der Oberschule Carl Friedrich Grabow, Prenzlau",
    "healthcare": "centre",
    "healthcare:speciality": "vaccination",
    "name": "Impfzentrum Landkreis Uckermark",
    "vaccination": "covid19",
    "wheelchair": "yes"
  }
},
{
  "type": "node",
  "id": 8299625565,
  "lat": 50.9047184,
  "lon": 12.3605955,
  "tags": {
    "addr:city": "Schmölln",
    "addr:country": "DE",
    "addr:housenumber": "95",
    "addr:postcode": "04626",
    "addr:street": "Robert-Koch-Straße",
    "description": "Klinikum Altenburger Land Klinikbereich Schmölln (Haus 3)",
    "healthcare": "centre",
    "healthcare:speciality": "vaccination",
    "name": "Impfzentrum Altenburger Land",
    "source": "https://www.dobitschen.de/news/landratsamt-gibt-standort-fuer-impfzentrum-bekannt-16-12-2020",
    "vaccination": "covid19"
  }
},
{
  "type": "node",
  "id": 8300956194,
  "lat": 50.6590966,
  "lon": 7.8295485,
  "tags": {
    "addr:city": "Hachenburg",
    "addr:country": "DE",
    "addr:housenumber": "2",
    "addr:postcode": "57627",
    "addr:street": "Am Schwimmbad",
    "description": "In der ehemaligen Graf-Heinrich-Realschule",
    "healthcare": "centre",
    "healthcare:speciality": "vaccination",
    "name": "Impfzentrum Westerwaldkreis",
    "vaccination": "covid19"
  }
},
{
  "type": "node",
  "id": 8313158968,
  "lat": 50.9499975,
  "lon": 10.7094943,
  "tags": {
    "addr:city": "Gotha",
    "addr:country": "DE",
    "addr:housenumber": "8",
    "addr:postcode": "99867",
    "addr:street": "Kastanienallee",
    "description": "in ehemaliger Arztpraxis",
    "healthcare": "centre",
    "healthcare:speciality": "vaccination",
    "name": "Impfzentrum Landkreis Gotha",
    "opening_date": "2021-01-13",
    "vaccination": "covid19",
    "wheelchair": "yes"
  }
},
{
  "type": "node",
  "id": 8314263159,
  "lat": 51.3587851,
  "lon": 11.0958400,
  "tags": {
    "addr:city": "Bad Frankenhausen/Kyffhäuser",
    "addr:country": "DE",
    "addr:housenumber": "2",
    "addr:postcode": "06567",
    "addr:street": "An der Wipper",
    "description": "in derKMG Klinik, Bad Frankenhausen",
    "healthcare": "centre",
    "healthcare:speciality": "vaccination",
    "name": "Impfzentrum Kyffhäuserkreis - Bad Frankenhausen",
    "vaccination": "covid19",
    "wheelchair": "yes"
  }
},
{
  "type": "node",
  "id": 8314285426,
  "lat": 52.8578284,
  "lon": 11.1578652,
  "tags": {
    "healthcare": "centre",
    "healthcare:speciality": "vaccination",
    "name": "Impfzentrum Altmarkkreis Salzwedel",
    "vaccination": "covid19"
  }
},
{
  "type": "node",
  "id": 8314293134,
  "lat": 51.1055194,
  "lon": 10.6499536,
  "tags": {
    "addr:city": "Bad Langensalza",
    "addr:country": "DE",
    "addr:housenumber": "1-5",
    "addr:postcode": "99947",
    "addr:street": "Rudolf-Weiss-Straße",
    "description": "im Hufeland Kluiniokum, Bad Langensalza",
    "healthcare": "centre",
    "healthcare:speciality": "vaccination",
    "name": "Impfzentrum Unstrut-Hainich-Kreis - Bad Langensalza",
    "vaccination": "covid19",
    "wheelchair": "yes"
  }
},
{
  "type": "node",
  "id": 8314413249,
  "lat": 50.8839624,
  "lon": 11.6214055,
  "tags": {
    "addr:city": "Jena",
    "addr:country": "DE",
    "addr:housenumber": "19",
    "addr:postcode": "07747",
    "addr:street": "Ziegesarstraße",
    "addr:suburb": "Neulobeda",
    "description": "in ehemaliger Arztpraxis",
    "healthcare": "centre",
    "healthcare:speciality": "vaccination",
    "name": "Impfzentrum Stadt Jena - Neulobeda",
    "vaccination": "covid19",
    "wheelchair": "yes"
  }
},
{
  "type": "node",
  "id": 8314436459,
  "lat": 50.3580541,
  "lon": 11.1739077,
  "tags": {
    "addr:city": "Sonneberg",
    "addr:country": "DE",
    "addr:housenumber": "36",
    "addr:postcode": "96515",
    "addr:street": "Köppelsdorfer Straße",
    "description": "in der ehemaligen Tanzschule, Sonneberg",
    "healthcare": "centre",
    "healthcare:speciality": "vaccination",
    "name": "Impfzentrum Landkreis Sonneberg",
    "vaccination": "covid19",
    "wheelchair": "yes"
  }
},
{
  "type": "node",
  "id": 8314439952,
  "lat": 50.9251853,
  "lon": 11.5865810,
  "tags": {
    "addr:city": "Jena",
    "addr:country": "DE",
    "addr:housenumber": "10",
    "addr:postcode": "07743",
    "addr:street": "Knebelstraße",
    "description": "im Volksbad Jena",
    "healthcare": "centre",
    "healthcare:speciality": "vaccination",
    "name": "Impfzentrum Stadt Jena - Zentrum",
    "vaccination": "covid19",
    "wheelchair": "yes"
  }
},
{
  "type": "node",
  "id": 8314562902,
  "lat": 50.5558413,
  "lon": 10.3936592,
  "tags": {
    "addr:city": "Meiningen",
    "addr:country": "DE",
    "addr:housenumber": "3",
    "addr:postcode": "98617",
    "addr:street": "Dr.-Romberg-Straße",
    "description": "im Demenz Zentrum Meiningen, Haus 2",
    "healthcare": "centre",
    "healthcare:speciality": "vaccination",
    "name": "Impfzentrum Landkreis Schmalkalden-Meiningen - Meiningen",
    "vaccination": "covid19",
    "wheelchair": "yes"
  }
},
{
  "type": "node",
  "id": 8314692092,
  "lat": 50.6121836,
  "lon": 10.6938279,
  "tags": {
    "addr:city": "Suhl",
    "addr:country": "DE",
    "addr:housenumber": "23",
    "addr:postcode": "98527",
    "addr:street": "Friedrich-König-Straße",
    "description": "im ehemaligen Matratzenstudio",
    "healthcare": "centre",
    "healthcare:speciality": "vaccination",
    "name": "Impfzentrum Stadt Suhl",
    "vaccination": "covid19",
    "wheelchair": "yes"
  }
},
{
  "type": "node",
  "id": 8314743399,
  "lat": 50.6983350,
  "lon": 11.5903247,
  "tags": {
    "addr:city": "Pößneck",
    "addr:country": "DE",
    "addr:housenumber": "6,8,10",
    "addr:postcode": "07381",
    "addr:street": "Hohes Gäßchen",
    "description": "in den Thüringen-Kliniken \"Georgius Agricola\" GmbH Standort Pößneck",
    "healthcare": "centre",
    "healthcare:speciality": "vaccination",
    "name": "Impfzentrum Saale-Orla-Kreis - Pößneck",
    "vaccination": "covid19",
    "wheelchair": "yes"
  }
},
{
  "type": "node",
  "id": 8314820857,
  "lat": 51.5142357,
  "lon": 10.8031896,
  "tags": {
    "addr:city": "Nordhausen",
    "addr:country": "DE",
    "addr:housenumber": "131",
    "addr:postcode": "99734",
    "addr:street": "Stolberger Straße",
    "description": "im Senioren-Begegnungszentrum, Nordhaus",
    "healthcare": "centre",
    "healthcare:speciality": "vaccination",
    "name": "Impfzentrum Landkreis Nordhausen",
    "vaccination": "covid19",
    "wheelchair": "yes"
  }
},
{
  "type": "node",
  "id": 8314987020,
  "lat": 51.3755502,
  "lon": 10.3206937,
  "tags": {
    "addr:city": "Leinefelde-Worbis",
    "addr:country": "DE",
    "addr:housenumber": "6",
    "addr:postcode": "37327",
    "addr:street": "Händelstraße",
    "description": "in der ehemaligen Berufsschule",
    "healthcare": "centre",
    "healthcare:speciality": "vaccination",
    "name": "Impfzentrum Landkreis Eichsfeld - Leinefelde-Worbis",
    "note": "Offiziell ist für das Impfzentrum die Händelstraße 10 angegegeben, die nicht im GIS der Stadt existiert. Tatsächlich ist es die Händelstraße 6, wie durch Anruf geklärt wurde.",
    "vaccination": "covid19",
    "wheelchair": "yes"
  }
},
{
  "type": "node",
  "id": 8315028767,
  "lat": 51.1702522,
  "lon": 11.1268906,
  "tags": {
    "addr:city": "Sömmerda",
    "addr:country": "DE",
    "addr:housenumber": "5",
    "addr:postcode": "99610",
    "addr:street": "Leubinger Straße",
    "description": "in einer Halle im Industriegebiet Sömmerda",
    "healthcare": "centre",
    "healthcare:speciality": "vaccination",
    "name": "Impfzentrum Landkreis Sömmerda",
    "vaccination": "covid19",
    "wheelchair": "yes"
  }
},
{
  "type": "node",
  "id": 8315238817,
  "lat": 51.2164239,
  "lon": 10.4792297,
  "tags": {
    "addr:city": "Mühlhausen",
    "addr:country": "DE",
    "addr:housenumber": "6",
    "addr:postcode": "99974",
    "addr:street": "Lindenhof",
    "description": "in der ehemaligen Görmar-Kaserne",
    "fixme": "Straße müsste stimmen, für Gebäudefindung Ortskenntnisse",
    "healthcare": "centre",
    "healthcare:speciality": "vaccination",
    "name": "Impfzentrum Unstrut-Hainich-Kreis - Mühlhausen",
    "vaccination": "covid19",
    "wheelchair": "yes"
  }
},
{
  "type": "node",
  "id": 8315287200,
  "lat": 51.0263471,
  "lon": 11.5147625,
  "tags": {
    "addr:city": "Apolda",
    "addr:country": "DE",
    "addr:housenumber": "1",
    "addr:postcode": "99510",
    "addr:street": "Klause",
    "description": "in der Stadthalle Apolda",
    "healthcare": "centre",
    "healthcare:speciality": "vaccination",
    "name": "Impfzentrum Landkreis Weimarer Land - Apolda",
    "vaccination": "covid19",
    "wheelchair": "yes"
  }
},
{
  "type": "node",
  "id": 8315815515,
  "lat": 50.7187991,
  "lon": 10.4458362,
  "tags": {
    "addr:city": "Schmalkalden",
    "addr:country": "DE",
    "addr:housenumber": "13",
    "addr:postcode": "98574",
    "addr:street": "Siechenrasen",
    "description": "in der ehemaligen Werkzeugfabrik Schmalkalden",
    "healthcare": "centre",
    "healthcare:speciality": "vaccination",
    "name": "Impfzentrum Landkreis Schmalkalden-Meiningen - Schmalkalden",
    "vaccination": "covid19",
    "wheelchair": "yes"
  }
},
{
  "type": "node",
  "id": 8315939867,
  "lat": 50.6481679,
  "lon": 11.9770811,
  "tags": {
    "addr:city": "Zeulenroda-Triebes",
    "addr:country": "DE",
    "addr:housenumber": "8",
    "addr:postcode": "07937",
    "addr:street": "Goetheallee",
    "addr:suburb": "Zeulenroda",
    "description": "neben der Neuen ASpotheke, Zeulenroda",
    "healthcare": "centre",
    "healthcare:speciality": "vaccination",
    "name": "Impfzentrum Landkreis Greiz - Zeulenroda",
    "vaccination": "covid19",
    "wheelchair": "yes"
  }
},
{
  "type": "node",
  "id": 8315945079,
  "lat": 50.8598129,
  "lon": 11.3398258,
  "tags": {
    "addr:city": "Blankenhain",
    "addr:country": "DE",
    "addr:housenumber": "5",
    "addr:postcode": "99444",
    "addr:street": "Wirthstraße",
    "description": "in der Helios Klinik Blankenhain",
    "healthcare": "centre",
    "healthcare:speciality": "vaccination",
    "name": "Impfzentrum Landkreis Weimarer Land - Blankenhain",
    "vaccination": "covid19",
    "wheelchair": "yes"
  }
},
{
  "type": "node",
  "id": 8316013051,
  "lat": 50.8813056,
  "lon": 12.0779510,
  "tags": {
    "addr:city": "Gera",
    "addr:country": "DE",
    "addr:housenumber": "14",
    "addr:postcode": "07545",
    "addr:street": "Ernst-Toller-Straße",
    "description": "in der Bereitschaftspraxis der Kassenärztlichen Vereinigung Thüringen, Gera",
    "healthcare": "centre",
    "healthcare:speciality": "vaccination",
    "name": "Impfzentrum Stadt Gera 1 - Zentrum",
    "vaccination": "covid19",
    "wheelchair": "yes"
  }
},
{
  "type": "node",
  "id": 8316079185,
  "lat": 50.4224932,
  "lon": 10.7316980,
  "tags": {
    "addr:city": "Hildburghausen",
    "addr:country": "DE",
    "addr:housenumber": "22",
    "addr:postcode": "98646",
    "addr:street": "Coburger Straße",
    "description": "im Stadttheater Hildburghausen",
    "healthcare": "centre",
    "healthcare:speciality": "vaccination",
    "name": "Impfzentrum Landkreis Hildburghausen",
    "vaccination": "covid19",
    "wheelchair": "yes"
  }
},
{
  "type": "node",
  "id": 8316107377,
  "lat": 50.7071031,
  "lon": 11.3155767,
  "tags": {
    "addr:city": "Rudolstadt",
    "addr:country": "DE",
    "addr:housenumber": "2-4",
    "addr:postcode": "07407",
    "addr:street": "Hugo-Trinckler-Straße",
    "description": "in der Thüringen-Klinik Rudolstadt",
    "healthcare": "hospital",
    "healthcare:speciality": "vaccination",
    "name": "Impfzentrum Landkreis Saalfeld-Rudolstad - Rudolstadt",
    "vaccination": "covid19",
    "wheelchair": "yes"
  }
},
{
  "type": "node",
  "id": 8316176335,
  "lat": 50.9574857,
  "lon": 11.8832400,
  "tags": {
    "addr:city": "Eisenberg",
    "addr:country": "DE",
    "addr:housenumber": "81",
    "addr:postcode": "07607",
    "addr:street": "Klosterlausnitzer Straße",
    "description": "im Waldkrankenhaus Eisenberg",
    "healthcare": "centre",
    "healthcare:speciality": "vaccination",
    "name": "Impfzentrum Saale-Holzland-Kreis - Eisenberg",
    "vaccination": "covid19",
    "wheelchair": "yes"
  }
},
{
  "type": "node",
  "id": 8320895355,
  "lat": 49.7394725,
  "lon": 10.1412902,
  "tags": {
    "addr:city": "Kitzingen",
    "addr:country": "DE",
    "addr:housenumber": "15-17",
    "addr:postcode": "97318",
    "addr:street": "Marshall-Heights-Ring",
    "healthcare": "centre",
    "healthcare:speciality": "vaccination",
    "name": "Impfzentrum 2 Landkreis Kitzingen",
    "operator": "Bayerisches Rotes Kreuz",
    "vaccination": "covid19"
  }
},
{
  "type": "node",
  "id": 8320992897,
  "lat": 50.8944516,
  "lon": 12.0825092,
  "tags": {
    "access": "permissive",
    "amenity": "doctors",
    "healthcare": "doctor",
    "healthcare:speciality": "vaccination",
    "level": "3",
    "name": "COVID19-Impfstelle 1 Gera (Impfung nur mit Termin)",
    "note": "to be completed by locals",
    "operator": "KV-Thüringen",
    "phone": "+49 (0)36434950490",
    "vaccination": "covid19",
    "website": "https://www.impfen-thueringen.de/",
    "wheelchair": "yes"
  }
},
{
  "type": "node",
  "id": 8321748048,
  "lat": 50.8946067,
  "lon": 12.0826261,
  "tags": {
    "addr:city": "Gera",
    "addr:country": "DE",
    "addr:housenumber": "1",
    "addr:postcode": "07546",
    "addr:street": "Johannes-R.-Becher-Straße",
    "description": "im Ärztehaus Gera-Bieblach",
    "fixme": "genauer Standort",
    "healthcare": "centre",
    "healthcare:speciality": "vaccination",
    "name": "Impfzentrum Stadt Gera 2 - Bieblach",
    "vaccination": "covid19",
    "website": "https://www.mdr.de/thueringen/coronavirus-ticker-covid-montag-Impfzentren-biathlon-Geimpfte-zahlen100.html"
  }
},
{
  "type": "node",
  "id": 8322297811,
  "lat": 50.5543924,
  "lon": 7.5229294,
  "tags": {
    "addr:city": "Oberhonnefeld-Gierend",
    "addr:housenumber": "ub",
    "addr:postcode": "56587",
    "addr:street": "Weyerbuscher Weg",
    "amenity": "doctors",
    "fixme": "addr:housenumber",
    "healthcare": "centre",
    "healthcare:speciality": "vaccination",
    "name": "Covid-19 | Impfzentrum | Kreis Neuwied",
    "source": "nr-kurrier.de",
    "temporary": "yes",
    "vaccination": "covid19"
  }
},
{
  "type": "node",
  "id": 8323027918,
  "lat": 48.7361657,
  "lon": 11.1983019,
  "tags": {
    "addr:city": "Neuburg an der Donau",
    "addr:housenumber": "162",
    "addr:postcode": "86633",
    "addr:street": "Berliner Straße",
    "description": "Impfzentrum des Landkreises Neuburg-Schrobenhausen in der Ostendhalle in Neuburg an der Donau",
    "healthcare": "centre",
    "healthcare:speciality": "vaccination",
    "name": "Impfzentrum Landkreis Neuburg-Schrobenhausen",
    "vaccination": "covid19"
  }
}

  ]
}
